{
"type": "FeatureCollection",
"name": "himring",
"crs": { "type": "name", "properties": { "name": "urn:ogc:def:crs:OGC:1.3:CRS84" } },
"features": [
{ "type": "Feature", "properties": { "id": 1 }, "geometry": { "type": "MultiPolygon", "coordinates": [ [ [ [ -93.293457704317944, 44.942589592328453 ], [ -93.29335177752472, 44.942590955538762 ], [ -93.293252591527391, 44.942550059215556 ], [ -93.293199628130765, 44.942549377609922 ], [ -93.293198665159892, 44.942533019072286 ], [ -93.293279554711134, 44.94253506388975 ], [ -93.293514519597963, 44.942526203013564 ], [ -93.293593483207502, 44.942517342136014 ], [ -93.293637779866486, 44.942519386954039 ], [ -93.293632965012264, 44.942530974254758 ], [ -93.293576149732246, 44.942541879947413 ], [ -93.293516445539666, 44.942568462564587 ], [ -93.293457704317944, 44.942589592328453 ] ] ] ] } }
]
}
