{
"type": "FeatureCollection",
"name": "river_adurant",
"crs": { "type": "name", "properties": { "name": "urn:ogc:def:crs:OGC:1.3:CRS84" } },
"features": [
{ "type": "Feature", "properties": { "id": 1 }, "geometry": { "type": "MultiLineString", "coordinates": [ [ [ -93.290356391074326, 44.938850894530759 ], [ -93.290369154575899, 44.938846377137835 ], [ -93.290395479297899, 44.938842989092905 ], [ -93.290409040518313, 44.938833954305444 ], [ -93.290420208582191, 44.938826613539597 ], [ -93.290441746991064, 44.938819837447213 ], [ -93.290450521898421, 44.938807979283609 ], [ -93.290464880837661, 44.938791603720297 ], [ -93.290480835214652, 44.938783133599536 ], [ -93.290484823808896, 44.938766758029161 ], [ -93.29049599187276, 44.938750947129186 ], [ -93.290512743968563, 44.938732877523897 ], [ -93.290528698345511, 44.938725536745125 ], [ -93.290555023067498, 44.938717066614593 ], [ -93.290585336383728, 44.938702949727613 ], [ -93.290603683917254, 44.9386905268642 ], [ -93.290622031450752, 44.938661163721804 ], [ -93.290637188108875, 44.938646482144982 ], [ -93.290655535642372, 44.938641964735979 ], [ -93.29066989458164, 44.938615424950854 ], [ -93.290689039833993, 44.93859848465609 ], [ -93.290710578242894, 44.938588885153486 ], [ -93.290744880153341, 44.938578156295748 ], [ -93.290765620843416, 44.938564039374612 ], [ -93.290779979782684, 44.938551616481149 ], [ -93.290789552408867, 44.938532417458681 ], [ -93.290802315910426, 44.938500230847794 ], [ -93.290819865725098, 44.938482725841311 ], [ -93.290844595009361, 44.938463526795815 ], [ -93.290873312887882, 44.938449974524524 ], [ -93.290890064983728, 44.938444327743895 ], [ -93.290907614798371, 44.938440939675232 ], [ -93.290937928114602, 44.938416658510718 ], [ -93.29095388249155, 44.938403106228385 ], [ -93.29097940949471, 44.93839011862147 ], [ -93.290992172996269, 44.938385036513615 ], [ -93.291014509124025, 44.938382777798871 ], [ -93.291041631564852, 44.93837769569037 ], [ -93.291134166951238, 44.938376566332863 ], [ -93.291213938836037, 44.938376001654113 ], [ -93.291248240746526, 44.938370354866201 ], [ -93.291281744938146, 44.938361320004368 ], [ -93.291326417193645, 44.938344379634621 ], [ -93.29136151682296, 44.938337038806175 ], [ -93.291392627858045, 44.93832630990137 ], [ -93.291439693270078, 44.938329133297579 ], [ -93.291486758682098, 44.938330827335221 ], [ -93.291526644624511, 44.938332521372821 ], [ -93.291557755659582, 44.938333086052005 ], [ -93.29160482107163, 44.938323486505048 ], [ -93.291634336669006, 44.938327439259886 ], [ -93.291670234017175, 44.938336474127027 ], [ -93.291702940489927, 44.938339297522717 ], [ -93.291773937467426, 44.93833873284359 ], [ -93.291827384630253, 44.938322921825758 ], [ -93.291882427230746, 44.938324051184324 ], [ -93.291903167920808, 44.938318969070629 ], [ -93.291927099486259, 44.938313886956479 ], [ -93.291942256144353, 44.938311628238935 ], [ -93.292045161875762, 44.938313322277097 ], [ -93.292077070629702, 44.938305416765232 ], [ -93.292134506386745, 44.938291299777042 ], [ -93.29216960601606, 44.938290170417837 ], [ -93.292206301083098, 44.938296381893188 ], [ -93.292235816680474, 44.938295817213636 ], [ -93.29226533227785, 44.938290170417837 ], [ -93.292302825063715, 44.938276618105647 ], [ -93.292352283632297, 44.938258548351079 ], [ -93.292455189363665, 44.938260807070712 ], [ -93.292505445651088, 44.938247819431602 ], [ -93.292542140718112, 44.938252336871628 ], [ -93.292567667721272, 44.938256289631354 ], [ -93.292616328570986, 44.93825516027146 ], [ -93.29265302363801, 44.938241607951007 ], [ -93.292671371171494, 44.938237655190271 ], [ -93.292714447989326, 44.938234831789572 ], [ -93.292739974992443, 44.938228055627356 ], [ -93.292771883746369, 44.938213938620144 ], [ -93.29279661303066, 44.938206597775022 ], [ -93.292823735471472, 44.938207162455441 ], [ -93.292846071599257, 44.93821111521828 ], [ -93.292879575790877, 44.938215632661176 ], [ -93.292905900512864, 44.938212244579042 ], [ -93.292928236640591, 44.938207727135875 ], [ -93.292945786455263, 44.938196433526386 ], [ -93.292982082662846, 44.938168340663147 ], [ -93.292990259281041, 44.938160293961083 ] ], [ [ -93.291386644966622, 44.938324333523944 ], [ -93.291352941345309, 44.938315298654892 ], [ -93.291295306158503, 44.938311487069072 ], [ -93.291222314883896, 44.938305557935081 ], [ -93.291146332163606, 44.938299205290832 ], [ -93.291105648502338, 44.938303863896678 ], [ -93.291072144310718, 44.938306828463844 ], [ -93.291055392214901, 44.938314875145366 ], [ -93.291030264071225, 44.938341132729825 ], [ -93.291007529084041, 44.938357226082132 ], [ -93.290992571855625, 44.938372048902615 ], [ -93.290988383831689, 44.938378825047849 ], [ -93.290984494952312, 44.938385283560535 ] ] ] } },
{ "type": "Feature", "properties": { "id": 1 }, "geometry": { "type": "MultiLineString", "coordinates": [ [ [ -93.29163732724507, 44.942472056399531 ], [ -93.291676422445931, 44.942466087880284 ], [ -93.291715517646779, 44.9424492675045 ], [ -93.291773393875488, 44.942424036931584 ], [ -93.291814022221473, 44.942420781372988 ], [ -93.291852350849794, 44.942416983221044 ], [ -93.291903711211717, 44.942385241512888 ], [ -93.291945106130271, 44.942361909989714 ], [ -93.29198266818598, 44.942343733098824 ], [ -93.292024063104549, 44.942331524736034 ], [ -93.292040161128398, 44.942328269172172 ], [ -93.292066607881949, 44.942326370093177 ], [ -93.292144798283687, 44.942276180125475 ], [ -93.292190792637641, 44.942246066123793 ], [ -93.292239469995579, 44.942213239130993 ], [ -93.292244836003505, 44.942209169667777 ], [ -93.292257101164566, 44.942208627072667 ], [ -93.292319576828675, 44.942205100204269 ], [ -93.292361738319812, 44.942195333490659 ], [ -93.292394700940136, 44.94217742784474 ], [ -93.292421147693645, 44.942140531344606 ], [ -93.292440695294104, 44.942094410686089 ], [ -93.292464459043643, 44.942060498413532 ], [ -93.292495888518815, 44.942033911177866 ], [ -93.292515436119274, 44.942031198193924 ], [ -93.292550698457319, 44.942016819376981 ], [ -93.29258672736789, 44.941993487704089 ], [ -93.292594009807274, 44.941976938488509 ], [ -93.29259592623869, 44.941933801986096 ], [ -93.292593626521011, 44.941911012877398 ] ], [ [ -93.292244836003505, 44.942209169667777 ], [ -93.292201524653564, 44.942203201121188 ], [ -93.292185043343366, 44.942198860359653 ], [ -93.29214518156995, 44.942199945550058 ], [ -93.292106852941671, 44.942208898370218 ], [ -93.29204016112844, 44.942220292866566 ], [ -93.291994933347041, 44.942220021569071 ], [ -93.291917892804165, 44.942209983560446 ], [ -93.291864999297118, 44.942207813179976 ], [ -93.291810572644948, 44.942211611345741 ], [ -93.291767644581256, 44.942220835461583 ], [ -93.291727782807826, 44.942230059575948 ], [ -93.291697119905194, 44.942239283688814 ], [ -93.291640393535332, 44.942252305963279 ] ] ] } },
{ "type": "Feature", "properties": { "id": 1 }, "geometry": { "type": "MultiLineString", "coordinates": [ [ [ -93.292660009140818, 44.941941994281557 ], [ -93.292627909993357, 44.941929318337692 ], [ -93.292604752437597, 44.941913356497572 ], [ -93.292586824007429, 44.94189379249724 ], [ -93.292563759829022, 44.941860282521226 ], [ -93.29256973597245, 44.941815866901777 ], [ -93.29263589374743, 44.941771385153224 ], [ -93.292687157852484, 44.941735991404457 ], [ -93.29269220022347, 44.941702679620981 ], [ -93.292683282696899, 44.9416783897667 ], [ -93.292667408566118, 44.941657470741063 ], [ -93.292659378123318, 44.94163397400655 ], [ -93.292674318481829, 44.941570522860992 ], [ -93.29269388101379, 44.941542663820243 ], [ -93.292697242594443, 44.941516490189578 ], [ -93.292690519433123, 44.941497752242114 ], [ -93.292653401979948, 44.9414541955787 ], [ -93.292647425836535, 44.941394974326272 ], [ -93.292603538533584, 44.941370155580088 ], [ -93.292575712115806, 44.941337868060721 ], [ -93.292559837985024, 44.941313346718587 ], [ -93.292545131069616, 44.941274383540247 ], [ -93.292535466525237, 44.94122501031444 ], [ -93.292521926825245, 44.941202504833988 ], [ -93.292474537875776, 44.941163442437229 ], [ -93.292432097919956, 44.94113310461838 ], [ -93.292392179149616, 44.94111258196714 ], [ -93.292360664330957, 44.941086705570321 ], [ -93.292314442596876, 44.941033168160565 ], [ -93.292266960270069, 44.941001045690754 ], [ -93.292229095798945, 44.94096138829584 ], [ -93.292229562685222, 44.940928472637225 ], [ -93.292246790786123, 44.940879991406923 ], [ -93.292243849403022, 44.940852330318521 ], [ -93.292242588810282, 44.940829428116963 ], [ -93.292219477943249, 44.940799090121629 ], [ -93.292205191225378, 44.940766802281104 ], [ -93.292202670039956, 44.940722352767729 ], [ -93.292211914386755, 44.940688445532167 ], [ -93.292227461697308, 44.940664056104744 ], [ -93.292229095798945, 44.940625092485789 ], [ -93.292226621302135, 44.940573636673605 ], [ -93.292217797152929, 44.940555195851097 ], [ -93.292199308459288, 44.940543298543112 ], [ -93.292196227010294, 44.940493957736749 ], [ -93.292193238938594, 44.940453771221449 ], [ -93.292208179297077, 44.940422045005278 ], [ -93.292207292213334, 44.940386253846576 ], [ -93.292216956757741, 44.940359484821364 ], [ -93.292265699677301, 44.940305054431612 ], [ -93.29229679429838, 44.940275311027428 ], [ -93.292317383979935, 44.940250326556004 ], [ -93.292322846548487, 44.940195896062754 ], [ -93.29231192141134, 44.940160501342746 ], [ -93.292302256866975, 44.940123024556591 ], [ -93.292333678308339, 44.940041329043858 ], [ -93.292379573222121, 44.939999886372732 ], [ -93.292421733046211, 44.939964689822368 ], [ -93.292456189247929, 44.939914423162392 ], [ -93.292479090016215, 44.939890082978771 ], [ -93.292509624373878, 44.939866089793846 ], [ -93.292552484527306, 44.939840311980696 ], [ -93.292615794296395, 44.93978280758656 ], [ -93.292667058401449, 44.939744735680151 ], [ -93.292702074866668, 44.939716380025118 ], [ -93.292751378049687, 44.939678506366121 ], [ -93.292781889062908, 44.93965003500842 ], [ -93.292814967950491, 44.939635080516958 ], [ -93.292825332824179, 44.939625364226572 ], [ -93.292828414273117, 44.939570437411234 ], [ -93.292839899673709, 44.939554177477476 ], [ -93.292858108235606, 44.939538908998919 ], [ -93.292935144459065, 44.939496276212573 ], [ -93.292944108674163, 44.939476050414498 ], [ -93.292947190123101, 44.939445711704032 ], [ -93.292953353020991, 44.939412596884104 ], [ -93.292961173364702, 44.939360264193311 ], [ -93.292976884085633, 44.939331098653128 ], [ -93.293007138311566, 44.939310476211375 ], [ -93.293012740945997, 44.93927319716326 ], [ -93.293001815808864, 44.939241470294739 ], [ -93.293023922870333, 44.939184708900505 ], [ -93.29302982898102, 44.939147479343838 ], [ -93.293041851300529, 44.939110679399278 ], [ -93.293046636884299, 44.939087198146666 ], [ -93.29305896268005, 44.939072127837484 ], [ -93.293058682548335, 44.939055272881738 ], [ -93.293059779730712, 44.939013383338207 ], [ -93.29308585532533, 44.938963661153402 ], [ -93.293086975852219, 44.938902388292483 ], [ -93.293088096379137, 44.938860746505021 ], [ -93.293094539408727, 44.938826639875671 ], [ -93.293095659935602, 44.938792334931506 ], [ -93.293088376510838, 44.938759021440099 ], [ -93.293085855325344, 44.938728087466487 ], [ -93.293070448080641, 44.938693187578821 ], [ -93.29307016794894, 44.938622594559376 ], [ -93.29304943820155, 44.938591660512252 ], [ -93.293039913723021, 44.93856052815314 ], [ -93.293044839372243, 44.938524785408319 ], [ -93.293062767802425, 44.938442294438502 ], [ -93.293062767802425, 44.938347112402973 ], [ -93.293054200440835, 44.938311072080218 ], [ -93.293021425029394, 44.938250790004936 ], [ -93.292997030225095, 44.938186360162504 ], [ -93.292991054081682, 44.93813771136945 ], [ -93.292991170803461, 44.938099291352131 ], [ -93.292998734359941, 44.938067563834963 ], [ -93.293026910942046, 44.938021377131967 ], [ -93.293062324260774, 44.937995185370781 ], [ -93.293083614271637, 44.93797357096242 ], [ -93.293107145336222, 44.937916857888951 ], [ -93.293122832712669, 44.937882552401234 ], [ -93.293147764435844, 44.937861731141474 ], [ -93.293190064325813, 44.937845272426038 ], [ -93.293221719210393, 44.937829408599455 ], [ -93.293259256861077, 44.937790542205825 ], [ -93.293273823710592, 44.937771703893318 ], [ -93.293293713062837, 44.937759607710461 ], [ -93.293334892425904, 44.937740174493307 ], [ -93.293400419904174, 44.93771256146735 ], [ -93.293418348334356, 44.937699870377116 ], [ -93.293454788802791, 44.937658475590055 ], [ -93.293532385289708, 44.937632696785791 ], [ -93.293576716134311, 44.937615263037166 ], [ -93.293623988362668, 44.937607711164446 ], [ -93.293646398900407, 44.93759739963501 ], [ -93.293660125354762, 44.937584311921903 ], [ -93.293687274787075, 44.937570844133781 ], [ -93.293720073543184, 44.937566663334351 ], [ -93.293747036221035, 44.937558153012212 ], [ -93.293787585288129, 44.937539099799132 ], [ -93.293824726085148, 44.937511618875838 ], [ -93.293842654515345, 44.937488351793498 ] ] ] } },
{ "type": "Feature", "properties": { "id": 1 }, "geometry": { "type": "MultiLineString", "coordinates": [ [ [ -93.293167350311819, 44.942492672613341 ], [ -93.293132147092152, 44.942465574100481 ], [ -93.293086345555693, 44.942450405537095 ], [ -93.293046006587758, 44.942444754502645 ], [ -93.29299348188998, 44.942444457079766 ], [ -93.292953142922059, 44.942423637474278 ], [ -93.292936335018766, 44.942395084860188 ], [ -93.292867422615259, 44.942391218359276 ], [ -93.292805793636489, 44.942376347199477 ], [ -93.292786744679432, 44.942357014685982 ], [ -93.292778900991209, 44.942331931979282 ], [ -93.292792627445635, 44.942297827411878 ], [ -93.292812376731987, 44.942281171685558 ], [ -93.292820733994986, 44.942264251577676 ], [ -93.292911123163833, 44.942220794637109 ], [ -93.292952209149647, 44.942188111030489 ], [ -93.292952209149647, 44.942145810682867 ], [ -93.292946419760725, 44.942109260513654 ], [ -93.292874986171711, 44.942077138645907 ], [ -93.29281909989335, 44.942048585859489 ], [ -93.292793467840809, 44.942040257960777 ], [ -93.292751027884975, 44.942014084556959 ], [ -93.292722454449361, 44.941985531739192 ], [ -93.292654802638609, 44.941943892187808 ] ] ] } },
{ "type": "Feature", "properties": { "id": 1 }, "geometry": { "type": "MultiLineString", "coordinates": [ [ [ -93.290935844361627, 44.940890054487888 ], [ -93.290974502539243, 44.940883511006952 ], [ -93.29104845731375, 44.940884700730834 ], [ -93.29108963667683, 44.940873398353148 ], [ -93.291113167741457, 44.940862095973266 ], [ -93.291150145128711, 44.940841275793936 ], [ -93.291167793427149, 44.940829973407723 ], [ -93.291182920540138, 44.94082878368274 ], [ -93.291202249628924, 44.94082105046968 ], [ -93.291222419112884, 44.940812127530222 ], [ -93.291256034919499, 44.940803799452148 ], [ -93.291285448750244, 44.94079666109856 ], [ -93.291362765105447, 44.94076989226469 ], [ -93.291451006597782, 44.94076394363325 ], [ -93.291504791888343, 44.940746097735207 ], [ -93.291545130856264, 44.940742528554942 ], [ -93.291624128001757, 44.940737769647576 ], [ -93.29164177630021, 44.940731226149296 ], [ -93.29170480593757, 44.940692560007854 ], [ -93.291719092655399, 44.940690775416073 ], [ -93.29182834402684, 44.940686313936411 ], [ -93.291880028329487, 44.940665196261243 ], [ -93.291912383543362, 44.940647052900331 ], [ -93.291946839745094, 44.940628612101378 ], [ -93.291978774761361, 44.940617012240963 ], [ -93.292009449184889, 44.940614632782115 ], [ -93.292117860161184, 44.940612253323188 ], [ -93.29213971043545, 44.940601843189171 ], [ -93.292155257746003, 44.940587566430885 ], [ -93.292175847427572, 44.940568233315041 ], [ -93.292194756318793, 44.940546520731033 ] ] ] } },
{ "type": "Feature", "properties": { "id": 1 }, "geometry": { "type": "MultiLineString", "coordinates": [ [ [ -93.29119825775193, 44.940364640338316 ], [ -93.291270111538552, 44.940361071134348 ], [ -93.291307929320951, 44.940347686617415 ], [ -93.29136843777286, 44.940312886858827 ], [ -93.291445333930426, 44.94027451786976 ], [ -93.291498278825841, 44.940262917937801 ], [ -93.291624338100576, 44.940262025635256 ], [ -93.291662155883003, 44.94025577951696 ], [ -93.291712579592911, 44.940239718066842 ], [ -93.291810905827205, 44.94020402593933 ], [ -93.291861329537085, 44.940192425993118 ], [ -93.291924359174445, 44.940192425993118 ], [ -93.291988649404587, 44.940195995207596 ], [ -93.292025206594261, 44.940186179867275 ], [ -93.292059242598427, 44.940178149133047 ], [ -93.292097060380854, 44.940180826044575 ], [ -93.292143702312515, 44.940186179867275 ], [ -93.292192865429669, 44.940182610652201 ], [ -93.292223119655574, 44.940171903005634 ], [ -93.292252113288797, 44.940154949227818 ], [ -93.292295761312658, 44.940125614718838 ] ] ] } },
{ "type": "Feature", "properties": { "id": 1 }, "geometry": { "type": "MultiLineString", "coordinates": [ [ [ -93.291077240848253, 44.939956076578753 ], [ -93.291124040354021, 44.939925961198874 ], [ -93.291153821857677, 44.939912911196018 ], [ -93.291182185194501, 44.939893838109583 ], [ -93.291209130364464, 44.939872757322476 ], [ -93.291228984700211, 44.939853684222712 ], [ -93.291242457285207, 44.939849166908679 ], [ -93.291265147954661, 44.939843645746599 ], [ -93.291281456873349, 44.939830595725034 ], [ -93.291310529293582, 44.939807507218077 ], [ -93.291336765380123, 44.939793955264022 ], [ -93.291350237965105, 44.939793453339746 ], [ -93.291374346801391, 44.9398049975972 ], [ -93.291418309973437, 44.939790441793932 ], [ -93.291458727728426, 44.939787932172308 ], [ -93.291485672898418, 44.939791445642548 ], [ -93.291512618068381, 44.93979646488539 ], [ -93.291540272321782, 44.939794959112589 ], [ -93.291572890159117, 44.939787430247968 ], [ -93.291597708078825, 44.939782912928727 ], [ -93.291625362332198, 44.939783916777472 ], [ -93.291680670839014, 44.93978642639928 ], [ -93.291715415926589, 44.939781407155557 ], [ -93.291774269850492, 44.939767353270824 ], [ -93.29184163277543, 44.939767855195342 ], [ -93.291867159778548, 44.939771368666811 ], [ -93.291966431457425, 44.939799476430885 ], [ -93.292013940046587, 44.939800480279345 ], [ -93.292096902806747, 44.939786928323628 ], [ -93.292163556648262, 44.939783414853103 ], [ -93.292203265319813, 44.939777391760288 ], [ -93.292340827503381, 44.939776889835855 ], [ -93.292379827091494, 44.939769862893357 ], [ -93.292411026761997, 44.939760326327175 ], [ -93.292435135598268, 44.939760828251757 ], [ -93.292487607771406, 44.939776889835855 ], [ -93.292524480109265, 44.939777893684713 ], [ -93.292567025114479, 44.939769862893357 ], [ -93.292608329223711, 44.939768984525486 ], [ -93.292633147143434, 44.939765722016141 ] ] ] } },
{ "type": "Feature", "properties": { "id": 1 }, "geometry": { "type": "MultiLineString", "coordinates": [ [ [ -93.290834557047489, 44.939594565496144 ], [ -93.290870720301939, 44.939581766381039 ], [ -93.290912201682019, 44.939577249045605 ], [ -93.290930283309251, 44.93957235526517 ], [ -93.290949428561603, 44.939562191258283 ], [ -93.290965382938552, 44.939543369018594 ], [ -93.290978678252685, 44.939514382757395 ], [ -93.290982932753224, 44.939491796050199 ], [ -93.290999418942747, 44.939463939099106 ], [ -93.291023882320729, 44.939440975926537 ], [ -93.291069086388802, 44.939407472264854 ], [ -93.291109504143776, 44.939383379732028 ], [ -93.29115736727465, 44.939368698339862 ], [ -93.29120257134268, 44.939360792973304 ], [ -93.291233416471485, 44.93935740495872 ], [ -93.291371687738476, 44.939356652066586 ], [ -93.291424868995009, 44.939350628928985 ], [ -93.291470073063053, 44.939336323974672 ], [ -93.291499854566723, 44.939322771909396 ], [ -93.291523786132174, 44.939311102072836 ], [ -93.291545058634753, 44.939305455376882 ], [ -93.29155356763583, 44.93930583182329 ], [ -93.291579626451522, 44.939296420662203 ], [ -93.291656739273506, 44.93926329336287 ], [ -93.291697157028494, 44.939257646662206 ], [ -93.291733852095504, 44.939251623514224 ], [ -93.291819473918508, 44.939250870620675 ], [ -93.291963595123718, 44.9392907739648 ], [ -93.291995503877615, 44.939294538429799 ], [ -93.292026349006434, 44.939304326037622 ], [ -93.292050812384417, 44.939306961162529 ], [ -93.292122607080756, 44.939307337608923 ], [ -93.292207165278626, 44.939305455376882 ], [ -93.292294382539353, 44.93932239546308 ], [ -93.292332673044058, 44.93932766571109 ], [ -93.292378408924662, 44.93932766571109 ], [ -93.292428399305805, 44.93931900744623 ], [ -93.292486898687997, 44.93931900744623 ], [ -93.292518807441894, 44.939325783479731 ], [ -93.292565606947647, 44.939326159926004 ], [ -93.292597515701601, 44.939318630999914 ], [ -93.292659205959168, 44.939317878107246 ], [ -93.292694305588455, 44.939310725626449 ], [ -93.292750145907831, 44.939295667769237 ], [ -93.292798009038719, 44.939289644625255 ], [ -93.292852253920358, 44.939284750820299 ], [ -93.292896394363311, 44.939280609908074 ], [ -93.292920857741322, 44.939273080976015 ], [ -93.292997970563263, 44.939242777014471 ] ] ] } },
{ "type": "Feature", "properties": { "id": 1 }, "geometry": { "type": "MultiLineString", "coordinates": [ [ [ -93.290626219474774, 44.939182357267043 ], [ -93.290666903136028, 44.939169934507355 ], [ -93.290698413030526, 44.939164005462011 ], [ -93.290726732049635, 44.939162593784452 ], [ -93.290748270458522, 44.939154406053973 ], [ -93.290765022554339, 44.939144241973089 ], [ -93.29077379746164, 44.93913068986248 ], [ -93.290778583774753, 44.9391165730772 ], [ -93.290793740432846, 44.939104714974881 ], [ -93.290818469717152, 44.93908890416796 ], [ -93.290839210407213, 44.939078740075516 ], [ -93.290855962502988, 44.939065187949446 ], [ -93.29086234425381, 44.939046553770879 ], [ -93.290870321442284, 44.939030178275623 ], [ -93.290884680381538, 44.939011544085695 ], [ -93.29090223019621, 44.938992909889706 ], [ -93.290914993697768, 44.93898726316246 ], [ -93.290930948074731, 44.938980487089019 ], [ -93.290947700170534, 44.938974840360565 ], [ -93.290972429454811, 44.938962417555977 ], [ -93.290985990675267, 44.938951124094913 ], [ -93.291010719959544, 44.938926278472792 ], [ -93.2910466173077, 44.938907079575593 ], [ -93.291085705531245, 44.938887880671999 ], [ -93.291117614285199, 44.938882233934422 ], [ -93.291159893384133, 44.93887941056542 ], [ -93.291189408981509, 44.938873199153143 ], [ -93.29122131773542, 44.938865293718344 ], [ -93.291242058425482, 44.938863599696475 ], [ -93.291281944367881, 44.938866987740184 ], [ -93.291317841716037, 44.938871505131495 ], [ -93.291374479754253, 44.938872069805385 ], [ -93.291411972540132, 44.938871505131495 ], [ -93.291514080552702, 44.93887263447926 ], [ -93.291566729996646, 44.938878845891594 ], [ -93.291651288194558, 44.938878845891594 ], [ -93.291700746763141, 44.938887315998251 ], [ -93.291734250954761, 44.938889010019444 ], [ -93.291767755146381, 44.938885057303267 ], [ -93.291818809152673, 44.938877716543949 ], [ -93.291865076845852, 44.938877716543949 ], [ -93.291905760507078, 44.938888445345718 ], [ -93.291924108040618, 44.938888445345718 ], [ -93.291962398545309, 44.938882798608198 ], [ -93.292008666238488, 44.938876022522436 ], [ -93.292033395522793, 44.938873199153143 ], [ -93.292062113401315, 44.938876022522436 ], [ -93.292113965126461, 44.938886751324524 ], [ -93.292203309637415, 44.938885621977029 ], [ -93.292249577330637, 44.938882233934422 ], [ -93.292287070116487, 44.938885057303267 ], [ -93.292332540090825, 44.938895221430009 ], [ -93.292389178129042, 44.938894656756347 ], [ -93.292445816167259, 44.938880539913029 ], [ -93.292491286141598, 44.938878845891608 ], [ -93.292518408582424, 44.938876022522436 ], [ -93.292543137866701, 44.938870375783701 ], [ -93.292563080837937, 44.938869246435885 ], [ -93.292574248901801, 44.938870375783701 ], [ -93.292598978186092, 44.938875457848596 ], [ -93.292635673253102, 44.938885057303267 ], [ -93.29268273866515, 44.938885057303267 ], [ -93.292735388109122, 44.93886868176196 ], [ -93.292768094581888, 44.938864729044397 ], [ -93.292807182805433, 44.938864729044397 ], [ -93.292844675591269, 44.938878845891594 ], [ -93.292862225405941, 44.938876022522436 ], [ -93.292883763814856, 44.938865293718344 ], [ -93.292906897661439, 44.938843271429995 ], [ -93.292921256600721, 44.938835365991089 ], [ -93.29293880641535, 44.938838189362244 ], [ -93.292978692357764, 44.938858517630528 ], [ -93.293010601111703, 44.93885964697855 ], [ -93.293036925833704, 44.938826331202428 ], [ -93.293056868804896, 44.938795838780237 ], [ -93.29307202546299, 44.93877325179038 ], [ -93.293082794667441, 44.938754899854594 ] ] ] } }
]
}
