{
"type": "FeatureCollection",
"name": "river_teiglin",
"crs": { "type": "name", "properties": { "name": "urn:ogc:def:crs:OGC:1.3:CRS84" } },
"features": [
{ "type": "Feature", "properties": { "id": 1 }, "geometry": { "type": "MultiLineString", "coordinates": [ [ [ -93.298586468928292, 44.942312702963292 ], [ -93.298567062472188, 44.942303688551171 ], [ -93.298550385048983, 44.942300683746815 ], [ -93.298531888270503, 44.942303259293418 ], [ -93.298498836649927, 44.942309268901695 ], [ -93.298476397935076, 44.942318712570568 ], [ -93.298456385027194, 44.942328585495481 ], [ -93.298446985025052, 44.942330731783279 ], [ -93.29843879792638, 44.94233523898739 ], [ -93.29843333986058, 44.942337519417912 ] ], [ [ -93.298519797138709, 44.942388708352034 ], [ -93.298496145520346, 44.942375830637062 ], [ -93.298470068094943, 44.942359089603258 ], [ -93.298443384217791, 44.94234234856458 ], [ -93.298422764858174, 44.942334192672163 ], [ -93.298402145498557, 44.942329470839205 ], [ -93.298379593074003, 44.942326707493592 ] ], [ [ -93.298415083135993, 44.942449519744912 ], [ -93.29841939568179, 44.94243578353003 ], [ -93.29841939568179, 44.942411363584377 ], [ -93.298409692453731, 44.942399916731283 ], [ -93.298407536180818, 44.94238846987588 ], [ -93.298399989225686, 44.942373207398482 ], [ -93.298392442270526, 44.942362523661885 ], [ -93.29838489531538, 44.942351839923312 ], [ -93.298381660906017, 44.942341156182735 ], [ -93.298378426496669, 44.94233047244019 ], [ -93.298378965564879, 44.942327038379659 ], [ -93.298358750506466, 44.942317880883905 ], [ -93.298308212860306, 44.942287355887522 ], [ -93.298278025039707, 44.942266751505791 ], [ -93.298252688833131, 44.942258357125922 ], [ -93.298233282377012, 44.942254159935523 ], [ -93.298210102443335, 44.942236989607999 ], [ -93.298194469464818, 44.942220582401333 ], [ -93.298170211394677, 44.942201122685042 ], [ -93.298138406369389, 44.942182426088671 ], [ -93.298114148299277, 44.942176702639571 ], [ -93.298095819979594, 44.942171360753228 ], [ -93.298079647932866, 44.942167163556491 ], [ -93.298069877321254, 44.942165160348829 ] ], [ [ -93.298109611141612, 44.942538041939656 ], [ -93.298092720337209, 44.942526595111794 ], [ -93.298093079716025, 44.94249759647105 ], [ -93.298076907669255, 44.942421538562975 ], [ -93.298069001335307, 44.94238236488539 ], [ -93.298059298107276, 44.942347006802805 ], [ -93.298066485683592, 44.942294096825592 ], [ -93.298065048168354, 44.942221854277975 ], [ -93.298068641956519, 44.942160295415654 ], [ -93.298064329410735, 44.942114507789299 ], [ -93.298045641712235, 44.942072790142397 ], [ -93.298032704074828, 44.942046335033524 ], [ -93.298028391529044, 44.942027511198646 ], [ -93.298025516498498, 44.942009959238938 ], [ -93.29802084457387, 44.941984521606656 ], [ -93.298016532028086, 44.941967224010256 ], [ -93.298005031905944, 44.941952215797393 ], [ -93.297992813026198, 44.941928304399305 ], [ -93.297986344207459, 44.94191812933326 ], [ -93.297961187690319, 44.94190541049818 ], [ -93.297933156142605, 44.941894217920975 ], [ -93.297918780989932, 44.941884551602541 ], [ -93.297902968321978, 44.941870306498728 ], [ -93.297891468199836, 44.941855043883585 ], [ -93.297881405592946, 44.941833167461454 ], [ -93.297866311682654, 44.941797045909006 ], [ -93.297853374045275, 44.9417756782194 ], [ -93.297841155165472, 44.941761941843311 ], [ -93.297823186224647, 44.941750749238153 ], [ -93.297800904737983, 44.941737521611024 ], [ -93.297782935797173, 44.941725311490991 ], [ -93.29777215443265, 44.941714627633843 ], [ -93.297762810583421, 44.941699873732581 ], [ -93.297749154188381, 44.941669857163163 ], [ -93.297741247854404, 44.941652050716257 ], [ -93.297732622762794, 44.941631191728575 ], [ -93.297720403883048, 44.941613894025714 ], [ -93.297696684881132, 44.941597613830048 ], [ -93.297675122152114, 44.941588964974216 ], [ -93.297647809362033, 44.941583877411333 ], [ -93.297619059056672, 44.941577263578942 ], [ -93.297576652356298, 44.941570649745792 ], [ -93.29755868341546, 44.941563018398895 ], [ -93.297532089382997, 44.941547755702047 ], [ -93.2974997452895, 44.941546229432149 ], [ -93.297431463314311, 44.941545720675492 ], [ -93.297361025066195, 44.941531984244392 ], [ -93.297349524944053, 44.941531475487608 ], [ -93.297323649669252, 44.941533001757918 ], [ -93.297297055636832, 44.94153961559541 ], [ -93.297279805453627, 44.941541650622177 ], [ -93.297260398997508, 44.941534528028171 ], [ -93.29724099254139, 44.941533510514674 ], [ -93.297211523478424, 44.941542159378862 ], [ -93.297188523234155, 44.941544194405537 ], [ -93.297164085474606, 44.941538598081998 ], [ -93.297110178652062, 44.941538598081998 ], [ -93.297085740892541, 44.941527405433284 ], [ -93.297056990587194, 44.94151468651166 ], [ -93.297036865373428, 44.941512142726971 ], [ -93.297019615190251, 44.941513160240852 ], [ -93.297003802522312, 44.941516721539301 ], [ -93.29698223979328, 44.941512142726971 ], [ -93.296967864640607, 44.941513160240852 ], [ -93.296938395577641, 44.941530457974061 ], [ -93.296910364029927, 44.941552334511528 ], [ -93.296900301423037, 44.941553352024691 ], [ -93.296884488755111, 44.941547246945419 ], [ -93.296878019936401, 44.941532493001148 ], [ -93.296871551117704, 44.941517739053083 ], [ -93.29686723857192, 44.941502476344212 ], [ -93.296862926026094, 44.941490266174192 ], [ -93.29684855087342, 44.941483143573812 ], [ -93.296828425659683, 44.941479073516064 ], [ -93.296804706657795, 44.941480091030527 ], [ -93.29678961274746, 44.941484161088205 ], [ -93.296763737472659, 44.941496371259525 ], [ -93.29674648728944, 44.94149942380195 ], [ -93.296717018226474, 44.941501458830146 ], [ -93.296679013916588, 44.941498024720019 ] ], [ [ -93.297947441450489, 44.942551396569236 ], [ -93.29790575350772, 44.942522652314992 ], [ -93.297888862703331, 44.942513240476401 ], [ -93.297884190778703, 44.942496451787534 ], [ -93.297838909047798, 44.942469233751197 ], [ -93.297831002713835, 44.942460076278124 ], [ -93.297831002713835, 44.94243336697334 ], [ -93.297835315259618, 44.942409964524636 ], [ -93.29783819029015, 44.942393684554688 ], [ -93.297848252897012, 44.942384527069585 ], [ -93.297862628049714, 44.942374352084386 ], [ -93.297871253141309, 44.942365194596185 ], [ -93.297885628293983, 44.942347897114487 ], [ -93.297887065809263, 44.942337722122822 ], [ -93.297892815870341, 44.942319407133262 ], [ -93.297884190778703, 44.942306179637164 ], [ -93.297874128171856, 44.942287864637549 ], [ -93.297874128171856, 44.942268532131621 ], [ -93.297881315748171, 44.942253269622334 ], [ -93.297875565687093, 44.942233937104739 ], [ -93.297850409169939, 44.942202012998969 ], [ -93.297846096624141, 44.942188785475828 ], [ -93.29785256544281, 44.942154953527783 ], [ -93.297857596746269, 44.942141980369485 ], [ -93.297888503324529, 44.942116797171479 ], [ -93.297895690900873, 44.94211018340048 ], [ -93.297900722204318, 44.942091359586527 ], [ -93.297913659841711, 44.942082710805082 ], [ -93.297930910024917, 44.94207100951045 ], [ -93.297943128904663, 44.942061343221773 ], [ -93.297949597723402, 44.942052185683643 ], [ -93.297954629026805, 44.942039975630529 ], [ -93.29796972293714, 44.942029291831936 ], [ -93.297984816847432, 44.942020643041133 ], [ -93.297994879454308, 44.942018099278883 ], [ -93.298011410879866, 44.942006397971085 ], [ -93.298021563331474, 44.941998130741304 ] ] ] } }
]
}
