{
"type": "FeatureCollection",
"name": "river_narog",
"crs": { "type": "name", "properties": { "name": "urn:ogc:def:crs:OGC:1.3:CRS84" } },
"features": [
{ "type": "Feature", "properties": { "id": 1 }, "geometry": { "type": "MultiLineString", "coordinates": [ [ [ -93.298814334124188, 44.94217906750567 ], [ -93.298784400044681, 44.942161139245599 ], [ -93.298782097423199, 44.942139951294635 ], [ -93.298770584315676, 44.942130172237725 ], [ -93.298749860722197, 44.942118763335884 ], [ -93.298727985817919, 44.942104094744451 ], [ -93.298713018778187, 44.942096760447349 ], [ -93.298696900427672, 44.942086981383063 ], [ -93.298692295184665, 44.942060903870193 ], [ -93.298688841252414, 44.942038900959474 ], [ -93.298701505670692, 44.94201526819414 ], [ -93.298722229264172, 44.94199571003616 ], [ -93.298734893682436, 44.941972077253055 ], [ -93.298739498925414, 44.941950889232317 ], [ -93.29873259106094, 44.9419321459767 ], [ -93.298729137128674, 44.941901993770045 ], [ -93.298739498925414, 44.941875916173146 ], [ -93.298777492180193, 44.941824575869617 ], [ -93.298785551355436, 44.941791163901378 ], [ -93.29878324873394, 44.941776495226271 ], [ -93.298760222518936, 44.94175530713337 ], [ -93.298764827761914, 44.941710486141858 ], [ -93.298771735626403, 44.941669739755568 ], [ -93.298760222518894, 44.941635512768748 ], [ -93.298742952857651, 44.941606175335224 ], [ -93.298741801546925, 44.941582542391757 ], [ -93.298748709411413, 44.941557279579378 ], [ -93.298753314654419, 44.941541795914674 ], [ -93.29875446596516, 44.941518977874864 ], [ -93.298744104168421, 44.941484750798153 ], [ -93.298741801546925, 44.941447263976443 ], [ -93.298742952857651, 44.941411406993645 ], [ -93.298749860722182, 44.94139429342578 ], [ -93.298762525140418, 44.941370660395094 ], [ -93.298761373829677, 44.941342952691564 ], [ -93.298748709411413, 44.941316874840723 ], [ -93.298742952857651, 44.94129894631142 ], [ -93.298739498925414, 44.941242715887697 ], [ -93.298734893682436, 44.941177521124594 ], [ -93.298719926642661, 44.941122105517735 ], [ -93.298703808292174, 44.941087878204442 ], [ -93.298684236009407, 44.94106750479397 ], [ -93.298640486200867, 44.94103327744812 ], [ -93.298630124404156, 44.941007199456621 ], [ -93.298623216539625, 44.940975416888485 ], [ -93.298616308675136, 44.940961562943016 ], [ -93.29856565100215, 44.940901257494389 ], [ -93.298562197069899, 44.940883328835284 ], [ -93.298556440516165, 44.940869474867597 ], [ -93.298506934153878, 44.940837692223219 ], [ -93.298494269735656, 44.940824653184528 ], [ -93.298480454006651, 44.940809169322243 ], [ -93.298463184345394, 44.940796130277086 ], [ -93.298407921429387, 44.94077494182239 ], [ -93.29838950045739, 44.940765162532969 ], [ -93.298367625553141, 44.940737454537221 ], [ -93.298344599338137, 44.940696707460361 ], [ -93.298315816569357, 44.940658405181757 ], [ -93.298270915450104, 44.940611138504856 ], [ -93.298232922195368, 44.940576095943392 ], [ -93.298200685494351, 44.940541868304592 ], [ -93.298181113211598, 44.940509270534371 ], [ -93.298174205347109, 44.940475857800706 ], [ -93.298169600104103, 44.940445704829216 ], [ -93.298155784375098, 44.940424516245201 ], [ -93.298151179132105, 44.940406587437231 ], [ -93.29815117913212, 44.940350356139554 ], [ -93.298147725199868, 44.940298199524335 ], [ -93.298136212092373, 44.940272936146812 ], [ -93.298125850295619, 44.940243598017027 ], [ -93.298102824080615, 44.940211815026188 ], [ -93.298090159662351, 44.94019062635585 ], [ -93.298095916216099, 44.940125430398069 ], [ -93.298099370148378, 44.940089572589727 ], [ -93.29806598213662, 44.94004882505309 ], [ -93.298060225582873, 44.940000742922635 ], [ -93.298059074272103, 44.939955920561381 ], [ -93.298051015096846, 44.939932286938614 ], [ -93.298029140192625, 44.939893169196822 ], [ -93.297980785141121, 44.939850791613146 ], [ -93.297917463049842, 44.93982878785544 ], [ -93.297861048823094, 44.939817378496272 ], [ -93.297832266054357, 44.939812488770208 ], [ -93.297790818867341, 44.939814118678946 ], [ -93.297756279544814, 44.939810858861435 ], [ -93.297729799397572, 44.939802709316865 ], [ -93.297635391916074, 44.939771741036921 ], [ -93.297570918514069, 44.939757071845861 ], [ -93.297540984434562, 44.939735883007707 ], [ -93.297513352976537, 44.939708174515218 ], [ -93.297483418897059, 44.939686985659016 ], [ -93.297447728263791, 44.939674761315359 ], [ -93.297415491562788, 44.939664166882068 ], [ -93.29734295898551, 44.939660907056037 ], [ -93.297311873595291, 44.93965275749018 ], [ -93.297276182962037, 44.939641348096039 ], [ -93.297248551504026, 44.939621789129362 ], [ -93.297216314802995, 44.939609564771807 ], [ -93.297190985966495, 44.939603860070726 ], [ -93.297150690090248, 44.93960304511338 ], [ -93.297114999456994, 44.939594080581834 ], [ -93.297073552269993, 44.939574521599056 ], [ -93.297033064508625, 44.939553061040861 ], [ -93.297023278367263, 44.939546269723294 ] ] ] } }
]
}
