{
"type": "FeatureCollection",
"name": "river_duilwen",
"crs": { "type": "name", "properties": { "name": "urn:ogc:def:crs:OGC:1.3:CRS84" } },
"features": [
{ "type": "Feature", "properties": { "id": 1 }, "geometry": { "type": "MultiLineString", "coordinates": [ [ [ -93.290626219474774, 44.939182357267043 ], [ -93.290666903136028, 44.939169934507355 ], [ -93.290698413030526, 44.939164005462011 ], [ -93.290726732049635, 44.939162593784452 ], [ -93.290748270458522, 44.939154406053973 ], [ -93.290765022554339, 44.939144241973089 ], [ -93.29077379746164, 44.93913068986248 ], [ -93.290778583774753, 44.9391165730772 ], [ -93.290793740432846, 44.939104714974881 ], [ -93.290818469717152, 44.93908890416796 ], [ -93.290839210407213, 44.939078740075516 ], [ -93.290855962502988, 44.939065187949446 ], [ -93.29086234425381, 44.939046553770879 ], [ -93.290870321442284, 44.939030178275623 ], [ -93.290884680381538, 44.939011544085695 ], [ -93.29090223019621, 44.938992909889706 ], [ -93.290914993697768, 44.93898726316246 ], [ -93.290930948074731, 44.938980487089019 ], [ -93.290947700170534, 44.938974840360565 ], [ -93.290972429454811, 44.938962417555977 ], [ -93.290985990675267, 44.938951124094913 ], [ -93.291010719959544, 44.938926278472792 ], [ -93.2910466173077, 44.938907079575593 ], [ -93.291085705531245, 44.938887880671999 ], [ -93.291117614285199, 44.938882233934422 ], [ -93.291159893384133, 44.93887941056542 ], [ -93.291189408981509, 44.938873199153143 ], [ -93.29122131773542, 44.938865293718344 ], [ -93.291242058425482, 44.938863599696475 ], [ -93.291281944367881, 44.938866987740184 ], [ -93.291317841716037, 44.938871505131495 ], [ -93.291374479754253, 44.938872069805385 ], [ -93.291411972540132, 44.938871505131495 ], [ -93.291514080552702, 44.93887263447926 ], [ -93.291566729996646, 44.938878845891594 ], [ -93.291651288194558, 44.938878845891594 ], [ -93.291700746763141, 44.938887315998251 ], [ -93.291734250954761, 44.938889010019444 ], [ -93.291767755146381, 44.938885057303267 ], [ -93.291818809152673, 44.938877716543949 ], [ -93.291865076845852, 44.938877716543949 ], [ -93.291905760507078, 44.938888445345718 ], [ -93.291924108040618, 44.938888445345718 ], [ -93.291962398545309, 44.938882798608198 ], [ -93.292008666238488, 44.938876022522436 ], [ -93.292033395522793, 44.938873199153143 ], [ -93.292062113401315, 44.938876022522436 ], [ -93.292113965126461, 44.938886751324524 ], [ -93.292203309637415, 44.938885621977029 ], [ -93.292249577330637, 44.938882233934422 ], [ -93.292287070116487, 44.938885057303267 ], [ -93.292332540090825, 44.938895221430009 ], [ -93.292389178129042, 44.938894656756347 ], [ -93.292445816167259, 44.938880539913029 ], [ -93.292491286141598, 44.938878845891608 ], [ -93.292518408582424, 44.938876022522436 ], [ -93.292543137866701, 44.938870375783701 ], [ -93.292563080837937, 44.938869246435885 ], [ -93.292574248901801, 44.938870375783701 ], [ -93.292598978186092, 44.938875457848596 ], [ -93.292635673253102, 44.938885057303267 ], [ -93.29268273866515, 44.938885057303267 ], [ -93.292735388109122, 44.93886868176196 ], [ -93.292768094581888, 44.938864729044397 ], [ -93.292807182805433, 44.938864729044397 ], [ -93.292844675591269, 44.938878845891594 ], [ -93.292862225405941, 44.938876022522436 ], [ -93.292883763814856, 44.938865293718344 ], [ -93.292906897661439, 44.938843271429995 ], [ -93.292921256600721, 44.938835365991089 ], [ -93.29293880641535, 44.938838189362244 ], [ -93.292978692357764, 44.938858517630528 ], [ -93.293010601111703, 44.93885964697855 ], [ -93.293036925833704, 44.938826331202428 ], [ -93.293056868804896, 44.938795838780237 ], [ -93.29307202546299, 44.93877325179038 ], [ -93.293082794667441, 44.938754899854594 ] ] ] } }
]
}
