{
"type": "FeatureCollection",
"name": "river_ascar",
"crs": { "type": "name", "properties": { "name": "urn:ogc:def:crs:OGC:1.3:CRS84" } },
"features": [
{ "type": "Feature", "properties": { "id": 1 }, "geometry": { "type": "MultiLineString", "coordinates": [ [ [ -93.290935844361627, 44.940890054487888 ], [ -93.290974502539243, 44.940883511006952 ], [ -93.29104845731375, 44.940884700730834 ], [ -93.29108963667683, 44.940873398353148 ], [ -93.291113167741457, 44.940862095973266 ], [ -93.291150145128711, 44.940841275793936 ], [ -93.291167793427149, 44.940829973407723 ], [ -93.291182920540138, 44.94082878368274 ], [ -93.291202249628924, 44.94082105046968 ], [ -93.291222419112884, 44.940812127530222 ], [ -93.291256034919499, 44.940803799452148 ], [ -93.291285448750244, 44.94079666109856 ], [ -93.291362765105447, 44.94076989226469 ], [ -93.291451006597782, 44.94076394363325 ], [ -93.291504791888343, 44.940746097735207 ], [ -93.291545130856264, 44.940742528554942 ], [ -93.291624128001757, 44.940737769647576 ], [ -93.29164177630021, 44.940731226149296 ], [ -93.29170480593757, 44.940692560007854 ], [ -93.291719092655399, 44.940690775416073 ], [ -93.29182834402684, 44.940686313936411 ], [ -93.291880028329487, 44.940665196261243 ], [ -93.291912383543362, 44.940647052900331 ], [ -93.291946839745094, 44.940628612101378 ], [ -93.291978774761361, 44.940617012240963 ], [ -93.292009449184889, 44.940614632782115 ], [ -93.292117860161184, 44.940612253323188 ], [ -93.29213971043545, 44.940601843189171 ], [ -93.292155257746003, 44.940587566430885 ], [ -93.292175847427572, 44.940568233315041 ], [ -93.292194756318793, 44.940546520731033 ] ] ] } }
]
}
