{
"type": "FeatureCollection",
"name": "andustar",
"crs": { "type": "name", "properties": { "name": "urn:ogc:def:crs:OGC:1.3:CRS84" } },
"features": [
{"type":"Feature","properties":{"id":1},"geometry":{"type":"MultiPolygon","coordinates":[[[[-93.317581656700256,44.943658572398007],[-93.317809027964515,44.943653022956958],[-93.318118723307222,44.943733489799754],[-93.318318653212017,44.943858351918756],[-93.318491141757349,44.943902747273398],[-93.31868323127371,44.943908296690303],[-93.319161494967517,44.94391107139856],[-93.319361424872312,44.94388609901943],[-93.319526073029181,44.943822280667831],[-93.319631918272918,44.943702967907143],[-93.31976128468186,44.943525385664614],[-93.319945533809829,44.943325604985155],[-93.320059219441973,44.943247912310945],[-93.320384595561521,44.943105013010637],[-93.320847178478488,44.943085589777304],[-93.321043188189066,44.943124436237383],[-93.32130192100702,44.943351964975733],[-93.321450888387048,44.94346295427696],[-93.321650818291857,44.94362943782648],[-93.321889950138754,44.943784822037109],[-93.322085959849346,44.943898585210349],[-93.322340772473098,44.94396240347713],[-93.322866078497427,44.943970727593644],[-93.32330906044335,44.943865288695172],[-93.323465868211812,44.943851415141481],[-93.32360699520342,44.9438097944603],[-93.323720680835621,44.943807019747133],[-93.323897089575141,44.9438056323905],[-93.324014695401473,44.943848640430332],[-93.324108780062545,44.943845865719055],[-93.324193064238088,44.9437917588224],[-93.324208745014971,44.943707129984347],[-93.324236186374435,44.943648860875783],[-93.324326350841304,44.943585042260466],[-93.324361632589216,44.943540646660132],[-93.324381233560246,44.943468503736376],[-93.32437339317184,44.943404684920559],[-93.324326350841304,44.943354739710863],[-93.324220505597609,44.943293695506668],[-93.324079378605987,44.94330479445771],[-93.323961772779612,44.943349190240419],[-93.323816725593801,44.943429657509093],[-93.323718720738512,44.943496251025472],[-93.323624636077426,44.943546196112059],[-93.323373743647906,44.943548970837817],[-93.323260058015762,44.943454630086805],[-93.323099330053097,44.943471278465879],[-93.323013085780417,44.943487926840156],[-93.322860198206186,44.943476827924506],[-93.322707310631912,44.943404684920559],[-93.322546582669275,44.943290920768568],[-93.32242113645448,44.943191030107776],[-93.32242113645448,44.943152183692753],[-93.322472098979247,44.943124436237369],[-93.32258970480558,44.943129985729527],[-93.322703390437724,44.9431022382634],[-93.322860198206186,44.943018995784549],[-93.322930761701997,44.942955176469042],[-93.322911160730939,44.942824762864554],[-93.322977804032519,44.942708222797123],[-93.323064048305199,44.942691574196743],[-93.323167933451728,44.942706835413929],[-93.323387464327581,44.942756781187292],[-93.32354035190184,44.942792853107711],[-93.323724601029767,44.942806726917205],[-93.323967653070895,44.942812276440058],[-93.324151902198807,44.942770655005518],[-93.324367512880471,44.942698511114152],[-93.324528240843151,44.942695736347289],[-93.324692889000019,44.9427290335408],[-93.324783053466888,44.942756781187292],[-93.324900659293235,44.942806726917205],[-93.325018265119567,44.942823375484174],[-93.325190753664884,44.942831699765861],[-93.325202514247536,44.942767880242144],[-93.325218195024348,44.942673538207544],[-93.325327960462275,44.942665213902941],[-93.325441646094433,44.942634691442372],[-93.325516129784432,44.942584745562797],[-93.325571012503403,44.942498727557236],[-93.32562197502817,44.942448781559378],[-93.32560629425133,44.942415484203323],[-93.325574932697634,44.942373862481105],[-93.325574932697634,44.942304492877035],[-93.325414204734955,44.942246222344828],[-93.32531619987968,44.942248997133412],[-93.325288758520202,44.94227951979903],[-93.325247596480978,44.942290618946146],[-93.325165272402529,44.942341952473633],[-93.325057467061725,44.942394673345987],[-93.324982983371683,44.942434907663355],[-93.324902619390343,44.942444619390926],[-93.324783053466888,44.942440457222169],[-93.324698769291359,44.942389123782753],[-93.3244713980271,44.94237941204581],[-93.324338111423899,44.942326691159444],[-93.32432243064703,44.94216991560608],[-93.324200904626451,44.942101933153396],[-93.324138181519103,44.942040887617075],[-93.324155822393053,44.941907697130738],[-93.324193064238045,44.941810578872989],[-93.324279308510725,44.941767569306343],[-93.324294989287552,44.941714847858137],[-93.324490998998115,44.941637153004095],[-93.324600764436042,44.941626053730644],[-93.324694849097085,44.941595530717613],[-93.324835976088707,44.94157333215248],[-93.324933980944024,44.941531709819735],[-93.32505550696456,44.941498411931796],[-93.32522211521858,44.941433203512013],[-93.325282878228862,44.941390193662663],[-93.325363242210202,44.941298624198694],[-93.325414204734912,44.941240352645579],[-93.3253985239581,44.941213991685444],[-93.325288758520159,44.941158494887731],[-93.325302479199877,44.941098835770354],[-93.325327960462275,44.941025302354348],[-93.325318159976746,44.941010040690152],[-93.324665447640513,44.941001716144349],[-93.324614485115745,44.940965643098558],[-93.324571362979441,44.940894884365989],[-93.324394954239906,44.940893496938983],[-93.324314590258567,44.940910146060773],[-93.324253827248313,44.94095731854631],[-93.324136221421938,44.941004490993073],[-93.324073498314547,44.941010040690152],[-93.32403429637246,44.941039176590991],[-93.323926491031628,44.941028077201935],[-93.323901009769259,44.940996166446467],[-93.32389904967215,44.940944831715683],[-93.323803004913984,44.940940669438199],[-93.323734401515267,44.940908758634151],[-93.323714800544181,44.940865748391936],[-93.323734401515267,44.940821350688758],[-93.323822605885042,44.940765853511508],[-93.323889249186635,44.940749204347874],[-93.323975493459272,44.94069925682799],[-93.324010775207185,44.940663183592179],[-93.324065657926127,44.940635434933803],[-93.324132301227749,44.940595199355364],[-93.324234226277255,44.940552188878257],[-93.324296949384618,44.940502241186984],[-93.32437143307466,44.940446743701287],[-93.324412595113856,44.94040095823518],[-93.324414555210993,44.940328811366044],[-93.324347911909371,44.940307999752328],[-93.324338111423842,44.940273313712709],[-93.324198944529343,44.940269151386538],[-93.32408133870301,44.940314936957741],[-93.32400097472167,44.940370434570852],[-93.32390492996349,44.940371822010491],[-93.323848087147397,44.940348235532035],[-93.323769683263166,44.940321874162308],[-93.323356102773872,44.940324649043902],[-93.32321693587933,44.94033991089028],[-93.32305424781957,44.940395408479247],[-93.322942522284535,44.94043980651179],[-93.322858238108964,44.940459230640236],[-93.322679869272378,44.940517502986154],[-93.322489739853111,44.940627110333686],[-93.322368213832547,44.940639597233421],[-93.322264328685932,44.940545251701515],[-93.322185924801715,44.940470330139263],[-93.322089880043535,44.940414832622714],[-93.322007555965087,44.940391246161944],[-93.32168021974843,44.940394021040177],[-93.321460688872534,44.940420382376779],[-93.321245078190913,44.940462005515187],[-93.320998105955596,44.940536927088303],[-93.32073349284633,44.940610461129808],[-93.320590405757599,44.940652084130427],[-93.320268949832254,44.940649309264671],[-93.320078330388682,44.940506403496244],[-93.319981305581948,44.940375290609431],[-93.319923972741606,44.94023481218418],[-93.319893101212202,44.940147403212762],[-93.319901921649176,44.939960097825931],[-93.319879870556747,44.939885175500116],[-93.319791666186987,44.939813374846132],[-93.31975197422058,44.939732208781329],[-93.319729923128151,44.939647920823361],[-93.319677000506303,44.939516805976126],[-93.319606437010464,44.939435639492089],[-93.319562334825605,44.939398177999216],[-93.319500591766769,44.93933574212344],[-93.319443258926412,44.939313889550895],[-93.31920951734655,44.939317011347484],[-93.319130133413779,44.939363838275938],[-93.318989006422157,44.939416908748697],[-93.318909622489372,44.939445004861483],[-93.318825828338106,44.93953241490221],[-93.318618548069153,44.939719721684263],[-93.318450959766622,44.939975706631508],[-93.318195167094316,44.940334707988555],[-93.318054040102695,44.940525133884201],[-93.317926143766542,44.940693707100877],[-93.317846759833756,44.940862279822611],[-93.317754145245516,44.940990269891884],[-93.317710043060615,44.941043338861313],[-93.317639479564804,44.941271222701914],[-93.317582146724448,44.94138984680891],[-93.317495412427533,44.941526160173083],[-93.317382216819652,44.941781096512223],[-93.317295482522752,44.942069329295457],[-93.317223448954095,44.942221249241456],[-93.317170526332262,44.942329465944134],[-93.317129364293038,44.942508439273958],[-93.317077911743993,44.942727993003764],[-93.317270491284617,44.943066166537349],[-93.317436609514345,44.943349190240404],[-93.317514523374314,44.943479255812477],[-93.317551275195058,44.943646779835085],[-93.317581656700256,44.943658572398007]]]]}}
]
}
