{
"type": "FeatureCollection",
"name": "arandor",
"crs": { "type": "name", "properties": { "name": "urn:ogc:def:crs:OGC:1.3:CRS84" } },
"features": [
{"type":"Feature","properties":{"id":1},"geometry":{"type":"MultiPolygon","coordinates":[[[[-93.310621369283993,44.941213430502238],[-93.310925134926237,44.941108423072855],[-93.311260689996118,44.941023416917922],[-93.311515005417519,44.940928409889928],[-93.311892946390984,44.940805900595464],[-93.312143729653727,44.940685891237209],[-93.312408641551016,44.94057838264078],[-93.312578185165293,44.940470873843033],[-93.312670021289662,44.940393367375577],[-93.312742430541604,44.940533378982487],[-93.312806009396965,44.940525878369336],[-93.312820138031483,44.940448371976146],[-93.312866056093682,44.940313360589734],[-93.312911974155853,44.940215852168791],[-93.312954360059436,44.940167097896207],[-93.313175119973835,44.940035836187356],[-93.313367622619197,44.939944577870065],[-93.313205143322193,44.939788313291302],[-93.313173353894484,44.939662051201026],[-93.313141564466832,44.939552040440553],[-93.313104476801215,44.939459531228849],[-93.313033833628609,44.939362021357852],[-93.312924336711049,44.939262011061722],[-93.312836032745281,44.93920200480045],[-93.312620571068848,44.939079491822241],[-93.312355659171573,44.939004483747389],[-93.312016571943047,44.938949477763565],[-93.311772852997521,44.938919474477451],[-93.311497344624371,44.938896972002574],[-93.311190046823526,44.938901972553303],[-93.310914538450334,44.938894471727046],[-93.310483615097425,44.938884470623826],[-93.309632364867454,44.93893947666993],[-93.309257956052647,44.938986981849162],[-93.308892377634379,44.939079491822241],[-93.30867868203724,44.939088242757933],[-93.308267185556787,44.939255760412436],[-93.308185945908278,44.939299514943187],[-93.308261887318849,44.9394232775782],[-93.308284846349949,44.939477032983028],[-93.3083395948087,44.93955954118092],[-93.308459688202163,44.939634548530677],[-93.308560354723099,44.939660801079931],[-93.308772284240916,44.939658300837657],[-93.308781114637512,44.93961204633603],[-93.309005406710554,44.939609546091646],[-93.309134330500569,44.939633298408971],[-93.309139628738478,44.939675802531248],[-93.309346260018387,44.939667051685127],[-93.30942573358756,44.939632048287265],[-93.309552891298239,44.939640799138715],[-93.309563487774142,44.939707055542286],[-93.309510505394684,44.939730807819274],[-93.30942573358756,44.939745809252301],[-93.309323300987288,44.939793313764405],[-93.309213804069728,44.939844568588647],[-93.309132564421219,44.939887072554527],[-93.309070751645223,44.93989707348311],[-93.309046026534801,44.939935827064893],[-93.309254423893989,44.94007083933905],[-93.310621369283993,44.941213430502238]]]]}}
]
}
