{
"type": "FeatureCollection",
"name": "bay_of_andunie",
"crs": { "type": "name", "properties": { "name": "urn:ogc:def:crs:OGC:1.3:CRS84" } },
"features": [
{"type":"Feature","properties":{"id":1},"geometry":{"type":"MultiPolygon","coordinates":[[[[-93.3244917147058,44.943495107010094],[-93.325270555683772,44.942862271976502],[-93.325103661188493,44.942896023354386],[-93.324956635085499,44.942862271976502],[-93.324710267021047,44.942808832254258],[-93.324583109310353,44.942766642964727],[-93.324392372744313,44.942763830344305],[-93.324304951818192,44.942775080825108],[-93.324114215252166,44.942839771046884],[-93.323959241792252,44.942870709822841],[-93.323621479123233,44.942870709822841],[-93.323279742775711,44.942808832254258],[-93.323156558743506,44.942772268205125],[-93.323081058852765,44.942755392482262],[-93.323033374711258,44.942797581780084],[-93.323013506318972,44.942907273809283],[-93.323073111495859,44.943002902586827],[-93.32306516413891,44.943036653882025],[-93.322965822177451,44.943036653882025],[-93.322790980325237,44.943157595860292],[-93.322651901579178,44.943194159664017],[-93.322564480653071,44.943191347064555],[-93.322564480653071,44.943211035257882],[-93.32267971732837,44.943284162773992],[-93.322838664466758,44.943396666463038],[-93.323152585065017,44.943396666463038],[-93.32327179541879,44.943340414646073],[-93.323331400595677,44.943340414646073],[-93.323339347952626,44.943438855289592],[-93.323394979451038,44.943486669255535],[-93.323478426698685,44.943500732179118],[-93.323569821303266,44.94349791959467],[-93.323752610512372,44.94337416574286],[-93.323820163046179,44.943326351683226],[-93.32389963661538,44.943284162773992],[-93.324010899612205,44.943261662009725],[-93.32407050478912,44.943250411624284],[-93.324225478249019,44.943256036817289],[-93.324372504352027,44.943301038341396],[-93.324451977921186,44.943362915379481],[-93.324483767348852,44.943424792350839],[-93.3244917147058,44.943495107010094]]]]}}
]
}
