{
"type": "FeatureCollection",
"name": "bay_of_eldanna",
"crs": { "type": "name", "properties": { "name": "urn:ogc:def:crs:OGC:1.3:CRS84" } },
"features": [
{"type":"Feature","properties":{"id":1},"geometry":{"type":"MultiPolygon","coordinates":[[[[-93.324511583098072,44.940291483714816],[-93.324996371870085,44.936364762179636],[-93.324906964104756,44.936423833762333],[-93.324659602620642,44.936474466499142],[-93.324394359583508,44.936516660412366],[-93.324275149229734,44.936529318580291],[-93.324057590334078,44.936539867051437],[-93.323953281274513,44.93654830582696],[-93.323869834026866,44.936582060916614],[-93.323801288073454,44.936571512453234],[-93.323795327555786,44.936622145059829],[-93.323819169626503,44.936641132275774],[-93.323807248591137,44.936704422950314],[-93.323741682896582,44.936763494183602],[-93.323661215907791,44.936801468515775],[-93.323437696494452,44.936826784723259],[-93.323005558962024,44.936831004090095],[-93.322764157995593,44.936765603869382],[-93.322689651524513,44.936744507008093],[-93.322579381947264,44.936683326066557],[-93.322495934699617,44.936653790416266],[-93.322448250558111,44.93660948691236],[-93.322382684863527,44.936563073681121],[-93.322263474509754,44.936499782850795],[-93.322168106226741,44.936470247106108],[-93.321986310437225,44.93645969862218],[-93.321876040859991,44.936482905284258],[-93.321703185846999,44.936525099191293],[-93.321583975493226,44.936573622146057],[-93.321300850903,44.93671708107685],[-93.321202502361118,44.936799358831301],[-93.321050509160031,44.936902733278778],[-93.320922358029748,44.936993449477328],[-93.320835930523259,44.937063068788319],[-93.320761424052137,44.937115810634388],[-93.320666055769109,44.937179100785727],[-93.320627312404142,44.937191758807629],[-93.320561746709586,44.937200197487343],[-93.320555786191875,44.937278255215915],[-93.320508102050368,44.937364751493902],[-93.320472338944242,44.937474453902951],[-93.320406773249672,44.93757782713508],[-93.320341207555074,44.937674871224452],[-93.3202547800486,44.937769805501013],[-93.32023093797784,44.937947015730622],[-93.320317365484328,44.938071484493506],[-93.320347168072757,44.938164308480019],[-93.32039783247312,44.938267680470211],[-93.320400812731975,44.938324640466909],[-93.320424654802736,44.938451218035063],[-93.320359089108123,44.938615768456508],[-93.320260740566255,44.938736016543182],[-93.320144510471351,44.938833058675129],[-93.320077454647347,44.938895292129928],[-93.319964204811271,44.938943813081821],[-93.319871816787085,44.93895436110941],[-93.319821152386723,44.939000772407795],[-93.319752606433312,44.939038745260383],[-93.319678099962189,44.939080937289361],[-93.319660218409126,44.93918430762934],[-93.319561869867286,44.939266581848564],[-93.319529087019973,44.93928767778322],[-93.31954696857305,44.939312992894571],[-93.319627435561827,44.939312992894571],[-93.319645317114919,44.939369951854303],[-93.319749626174456,44.939498636703476],[-93.319797310315963,44.9395998967099],[-93.319824132645579,44.939703266115565],[-93.319868836528272,44.939770772565758],[-93.319967185070112,44.93984882679986],[-93.31999698765857,44.940175809600191],[-93.320041691541235,44.940283397082169],[-93.320095336200438,44.940380436598872],[-93.320175803189215,44.940475366402154],[-93.3203009740607,44.940566076956429],[-93.320664565639717,44.940561857864054],[-93.320855302205757,44.940490133246342],[-93.320902986347249,44.940473256852677],[-93.320980473077213,44.940464818653972],[-93.321174189902109,44.940405751228418],[-93.321266577926266,44.940371998386517],[-93.321481156563053,44.94033402641567],[-93.321856669177478,44.940315040420835],[-93.322080188590803,44.940327697751421],[-93.322193438426893,44.940388874809948],[-93.322267944898002,44.940388874809948],[-93.322402056545997,44.940532324208789],[-93.322485503793658,44.940534433756085],[-93.322646437771255,44.940456380454037],[-93.322694121912775,44.940452161353612],[-93.322801411231168,44.940405751228418],[-93.322863996666896,44.940388874809948],[-93.322998108314906,44.940319259531329],[-93.323123279186348,44.940289725751278],[-93.323322956528941,44.940255972841186],[-93.323775955873288,44.940239096378683],[-93.323913047780124,44.940277068412307],[-93.323969672698183,44.940266520627716],[-93.324053119945816,44.940220110352456],[-93.324190211852681,44.940199014760395],[-93.324285580135694,44.940190576521402],[-93.324401810230611,44.940218000793607],[-93.324452474630974,44.940230658145587],[-93.324511583098072,44.940291483714816]]]]}}
]
}
