{
"type": "FeatureCollection",
"name": "emerie",
"crs": { "type": "name", "properties": { "name": "urn:ogc:def:crs:OGC:1.3:CRS84" } },
"features": [
{"type":"Feature","properties":{"id":1},"geometry":{"type":"MultiPolygon","coordinates":[[[[-93.316085618685165,44.939483283608233],[-93.316357594899699,44.939430778335378],[-93.316474156134518,44.939300765072147],[-93.316707278604156,44.939140748344002],[-93.316813243363072,44.939040737662474],[-93.316919208121973,44.93896572953701],[-93.317053430149912,44.938885720761817],[-93.317159394908842,44.938803211595655],[-93.317233570240077,44.938705700610043],[-93.317279488302276,44.938553183095365],[-93.317272423985003,44.938430668732792],[-93.317237102398693,44.938270649579813],[-93.317222973764189,44.938190639836073],[-93.317173523543374,44.938060623764748],[-93.317095816053467,44.937918105809871],[-93.317060494467199,44.937850597181473],[-93.317003979929098,44.937770586852444],[-93.316834436314821,44.937675574441911],[-93.316714342921401,44.937635569169387],[-93.316392916486052,44.937518053520158],[-93.316053829257513,44.937413039332263],[-93.315898414277797,44.93737553421861],[-93.315721806346261,44.937305524607602],[-93.315661759649544,44.937278020808492],[-93.315534601938836,44.937240515606653],[-93.315357994007314,44.937303024262775],[-93.315202579027584,44.937348030453045],[-93.31504363188921,44.937420540352058],[-93.314948263606198,44.937503051505075],[-93.314852895323185,44.937620567185],[-93.314686883867566,44.937783088473687],[-93.314570322632747,44.937950609935974],[-93.31447495434972,44.938135633072598],[-93.314386650383966,44.938295652601852],[-93.31431953936999,44.938528180185457],[-93.314298346418198,44.938840715776784],[-93.314316007211346,44.939038237393184],[-93.314414907653017,44.939210755717433],[-93.31454559752234,44.939288263781314],[-93.314732801929722,44.939370772250463],[-93.31492353849579,44.9393882740317],[-93.315124871537719,44.939425777830685],[-93.315209643344829,44.939443279595174],[-93.315350929690055,44.939435778839616],[-93.315555794890628,44.939413276567095],[-93.315629970221849,44.939383273523326],[-93.315884285643236,44.939430778335378],[-93.316085618685165,44.939483283608233]]]]}}
]
}
