{
"type": "FeatureCollection",
"name": "forostar",
"crs": { "type": "name", "properties": { "name": "urn:ogc:def:crs:OGC:1.3:CRS84" } },
"features": [
{"type":"Feature","properties":{"id":1},"geometry":{"type":"MultiPolygon","coordinates":[[[[-93.308815122394648,44.947428599936018],[-93.309171860067892,44.947328716474942],[-93.30941491210902,44.947251029218378],[-93.309607001625395,44.947201087355069],[-93.310053903765507,44.947159469102452],[-93.310304796195055,44.9471344981364],[-93.310406721244576,44.947117850819652],[-93.310567449207255,44.946984672111945],[-93.310802660859963,44.946909758953076],[-93.310982989793658,44.946865365923905],[-93.3110574734837,44.946868140489229],[-93.311218201446394,44.946820972860394],[-93.311614141061739,44.946732186630392],[-93.311923836404489,44.946671146017614],[-93.312049282619242,44.946685018889852],[-93.3122374519414,44.946740510345293],[-93.312319776019848,44.946762706912459],[-93.312480503982528,44.946815423725049],[-93.312731396412076,44.946726637486464],[-93.312919565734234,44.946599007027892],[-93.31299012923003,44.94652409336571],[-93.312997969618451,44.94644917960575],[-93.312950927287929,44.94639091328041],[-93.312997969618451,44.946285478827093],[-93.313139096610072,44.946260507480844],[-93.313397829428041,44.94619946636648],[-93.313629120886532,44.946116228378649],[-93.31387217292766,44.946019117240297],[-93.314201469241439,44.945869288304593],[-93.314538605943625,44.945675065028112],[-93.314750296431058,44.945491939622691],[-93.314856141674753,44.945333785393338],[-93.314934545558984,44.945192278608253],[-93.315079592744837,44.945072968694902],[-93.315161916823286,44.945161757491228],[-93.31520503895959,44.945214475774073],[-93.315279522649632,44.945161757491228],[-93.315350086145429,44.945059095433066],[-93.31542064964124,44.944937010584354],[-93.315510814108123,44.944823249468939],[-93.315651941099745,44.944684516096245],[-93.315789147897135,44.944615149284175],[-93.315918514306148,44.944540233032988],[-93.316181167318305,44.944429245814476],[-93.316424219359419,44.944334906510029],[-93.316565346351013,44.944259989893133],[-93.31667903198317,44.944212820121216],[-93.316784877226866,44.944143452739176],[-93.316929924412719,44.944065761171778],[-93.317055370627514,44.943979745385235],[-93.317184737036499,44.943896504178767],[-93.317294502474411,44.943791065143962],[-93.31740034771812,44.943730021403731],[-93.317498352573409,44.943688400634542],[-93.317549315098148,44.943668977598584],[-93.3174865919908,44.943469197418814],[-93.317380746747062,44.943286064976625],[-93.317235699561252,44.94305576122764],[-93.317133774511746,44.942861528432019],[-93.317059290821746,44.942736664144974],[-93.317149455288614,44.942320447893437],[-93.317263140920758,44.942084590678135],[-93.31734938519341,44.941807110360791],[-93.317451310242916,44.941565701393799],[-93.3174865919908,44.941471357383698],[-93.31734938519341,44.941543502817126],[-93.317110253346499,44.941632297072282],[-93.316745675284793,44.941726640817912],[-93.31614784566753,44.941832083644272],[-93.315565696827051,44.941861219127922],[-93.315369687116487,44.941861219127922],[-93.315146236046417,44.941858444320602],[-93.314832620509506,44.941883417581742],[-93.314554286720494,44.941905616026986],[-93.314126985551397,44.941897291611035],[-93.31366832282859,44.941916715246386],[-93.313386068845389,44.941902841221804],[-93.313084213891088,44.941913940441729],[-93.312798039713613,44.941897291611035],[-93.312523626118832,44.941911165636967],[-93.312229611552937,44.941891741999719],[-93.312010080677084,44.941880642775487],[-93.311943437375504,44.941863993935129],[-93.311802310383882,44.941877867969104],[-93.311465173681697,44.941816822194539],[-93.311237802417423,44.941794623714969],[-93.31097122921102,44.941739127478506],[-93.310786980083051,44.941686406004173],[-93.310706616101754,44.94165796413607],[-93.310704656004631,44.941742595994853],[-93.310640952848715,44.941760632276505],[-93.310552748478926,44.941832083644272],[-93.310451803477974,44.941918796349775],[-93.310369479399569,44.941993022321654],[-93.310223452165161,44.942119275623504],[-93.310150928572227,44.942204600499927],[-93.310073504736565,44.942282294586057],[-93.310010781629174,44.942354439000447],[-93.309945118376149,44.942436295053149],[-93.309884355365853,44.94251745729526],[-93.309791250753307,44.942633304057445],[-93.309708926674858,44.942724871392699],[-93.309620722305127,44.94282268179402],[-93.309491355896128,44.94290800562505],[-93.309373750069781,44.942962113354611],[-93.309282605554372,44.942995410393635],[-93.309355129147278,44.943043968540898],[-93.30942373254598,44.943093914020963],[-93.309492335944682,44.94316467004333],[-93.309523697498378,44.9432812091842],[-93.309543298469436,44.943357514445907],[-93.309568779731805,44.943528160391374],[-93.309611901868138,44.943633599909035],[-93.30968050526684,44.943729327724455],[-93.309792230801861,44.943811181816834],[-93.309911796725274,44.943891648437969],[-93.310011761677671,44.943956854065462],[-93.31009408575612,44.944030383726762],[-93.310139167989533,44.944117786786542],[-93.310131327601113,44.944180217462069],[-93.310043123231367,44.944271782330034],[-93.309935317890535,44.944356410335693],[-93.309827512549745,44.944403579989626],[-93.309702066334964,44.944482658440144],[-93.30956093934337,44.944575610163746],[-93.309527617692552,44.944597807568023],[-93.309480575362031,44.944611680941343],[-93.309410011866177,44.944685209763911],[-93.309335528176192,44.944775386493212],[-93.309294366136953,44.944855851762824],[-93.309284565651438,44.944923830954451],[-93.309217922349859,44.94497932411241],[-93.309186560796149,44.945051465137581],[-93.309176760310621,44.945199908884931],[-93.309227722835374,44.945235979270244],[-93.309231643029548,44.945351126887068],[-93.309263004583258,44.945451013789288],[-93.309270844971678,44.945584196055208],[-93.309368849826967,44.945663272879386],[-93.309482535459111,44.945720152632944],[-93.309568779731777,44.945767321166322],[-93.309656984101494,44.945808940428286],[-93.30970990672337,44.945874143878015],[-93.309780470219181,44.946010099769069],[-93.309852993812143,44.94612247123186],[-93.309890235657136,44.946172414033612],[-93.309896115948447,44.946316692994571],[-93.309837313035274,44.946379121278731],[-93.309852993812143,44.946438774909076],[-93.309992160706656,44.946494266602564],[-93.309990200609533,44.946606637117576],[-93.30974714856842,44.946760625984567],[-93.309529577789675,44.946792533535969],[-93.309331607981989,44.946807793662984],[-93.308949389046361,44.946811955515123],[-93.308772980306856,44.946850799453657],[-93.308720057684994,44.946916001719977],[-93.308657334577632,44.946957620149121],[-93.308580890790481,44.947006174944974],[-93.308531888362836,44.94702420957298],[-93.308529928265727,44.947094960751187],[-93.308616172538393,44.947154613637601],[-93.308667135063118,44.947226751929051],[-93.308714177393682,44.947323861024394],[-93.308774940403964,44.947426519032277],[-93.308815122394648,44.947428599936018]]]]}}
]
}
