{
"type": "FeatureCollection",
"name": "hyarnustar",
"crs": { "type": "name", "properties": { "name": "urn:ogc:def:crs:OGC:1.3:CRS84" } },
"features": [
{"type":"Feature","properties":{"id":1},"geometry":{"type":"MultiPolygon","coordinates":[[[[-93.319076475755281,44.939298020415663],[-93.318987444469712,44.939290541108548],[-93.319086674385673,44.939144791982088],[-93.318965117738642,44.939106744960469],[-93.318783196226008,44.938956312643469],[-93.318380488150353,44.938581108143183],[-93.318213451125104,44.938459941735587],[-93.318043106435965,44.93834696992716],[-93.317827281368722,44.938198291664357],[-93.317589956486344,44.93805488116422],[-93.317352631603953,44.937930786891378],[-93.317054941855943,44.937784448960862],[-93.316796944074369,44.937666207640611],[-93.316557138444097,44.937574892394949],[-93.316320640477628,44.937485918426191],[-93.316158564948225,44.937439089966183],[-93.315966720443981,44.93739928574518],[-93.315723607149849,44.937290409352606],[-93.315541685637214,44.937231873572337],[-93.31525888037666,44.937169825580106],[-93.315020728578304,44.937113631114201],[-93.314635385737873,44.937022314989804],[-93.314246735233638,44.93693802305377],[-93.314083005872249,44.936930998720186],[-93.314083005872234,44.936686317230645],[-93.314054339452071,44.93648026885181],[-93.313990391284023,44.936286707580017],[-93.313877930712565,44.936171194897277],[-93.313864700057081,44.936008852355791],[-93.313721367956219,44.935913631997721],[-93.313664035115877,44.935765337683002],[-93.313547164325939,44.935721629811923],[-93.313476600830157,44.935695092873964],[-93.313439113973004,44.93565450694512],[-93.313353114712484,44.93558270100074],[-93.31323624392256,44.935557724999043],[-93.313112757804873,44.935467186901825],[-93.313068655620015,44.935404746751601],[-93.31323624392256,44.935361038606068],[-93.313457857401559,44.935179181143333],[-93.313607804830141,44.935079276369343],[-93.313678368325952,44.935060544204873],[-93.313863597502461,44.935094886501737],[-93.313942981435247,44.93513547282609],[-93.314017955149538,44.935226011446311],[-93.314092928863843,44.935360258103181],[-93.314267867530504,44.935458081050847],[-93.314417814959086,44.935501789122533],[-93.314623625155178,44.935520521143054],[-93.31477063243814,44.935557985165815],[-93.314899998847125,44.935610018490188],[-93.314944101031969,44.935653726446219],[-93.314961741905918,44.93575779287432],[-93.315002903945185,44.935809826017653],[-93.315914349099359,44.935811907342412],[-93.315996673177807,44.935795256742267],[-93.316205423519591,44.935759874200947],[-93.316331849782898,44.935641238462175],[-93.316396532987397,44.935580879834333],[-93.316481797211509,44.935512195801351],[-93.316614103766128,44.935493463778101],[-93.316678786970641,44.935549659829526],[-93.316746410320775,44.935593367831515],[-93.316837554836212,44.935616262485937],[-93.316919878914661,44.93562250648101],[-93.317066886197594,44.935585042500364],[-93.317196252606564,44.935549659829526],[-93.317307978141613,44.935458081050847],[-93.317407943093997,44.935399803570171],[-93.317552010231296,44.935304061866404],[-93.31771371824253,44.935206238656384],[-93.317881306545061,44.935048056091837],[-93.318031253973658,44.934931500239152],[-93.318175321110914,44.934881547658449],[-93.318272345917677,44.934902361239018],[-93.318722188203466,44.934908605311726],[-93.318892716651646,44.934875303582807],[-93.319083826119495,44.934792049175996],[-93.319210252382803,44.934694225093772],[-93.319269055295976,44.934574546468653],[-93.319346969155944,44.934356002248812],[-93.319408712214752,44.934258697769053],[-93.31939842170496,44.934039111652716],[-93.319421942870193,44.933948571161231],[-93.31947192534642,44.933819524696766],[-93.319485891038255,44.933616588137845],[-93.319514557458476,44.933410008391327],[-93.319546899060725,44.933345484590248],[-93.319717427508934,44.933220599608006],[-93.319785050859082,44.933220599608006],[-93.320002621637812,44.933193541159405],[-93.320143748629434,44.933187296900208],[-93.320320157368954,44.93315815701505],[-93.320484805525851,44.933137342802311],[-93.320564189458651,44.933118610004392],[-93.320696496013284,44.933097795777329],[-93.320858204024518,44.933037434476155],[-93.320925827374666,44.933037434476155],[-93.321005211307451,44.932962503117473],[-93.321237482814482,44.932829291571757],[-93.321399190825687,44.932764767118222],[-93.321593240439185,44.932758522812421],[-93.321675564517633,44.932795988637046],[-93.32182551194623,44.932866757350233],[-93.321937237481265,44.9329375259762],[-93.322037202433663,44.933031190199998],[-93.322078364472887,44.933091551507736],[-93.322143047677358,44.933093632931005],[-93.322301815542914,44.933014538793607],[-93.322395900204015,44.93297915453897],[-93.322566428652223,44.932945851691166],[-93.322654633021983,44.932925037401482],[-93.322783999430953,44.9329375259762],[-93.322980989190086,44.933027027348849],[-93.322998630064063,44.933076981542712],[-93.323025091374973,44.933108202891809],[-93.323057432977237,44.933141505645466],[-93.323086834433823,44.933193541159405],[-93.323127996473048,44.933335077518763],[-93.323186799386221,44.933453718021831],[-93.32323090157108,44.933566114061826],[-93.323316165795205,44.933647288842792],[-93.323404370164951,44.933720137907507],[-93.323383789145339,44.933809638060502],[-93.323383789145339,44.933915789223931],[-93.323433771621538,44.933978230993112],[-93.323557257739211,44.934024021580697],[-93.323721905896079,44.934028184359583],[-93.323815990557179,44.9339990449011],[-93.324012980316297,44.933907463649582],[-93.324130586142644,44.933882486919266],[-93.324236431386382,44.933890812497253],[-93.324412840125888,44.933907463649582],[-93.324633351050295,44.933905382255794],[-93.324783298478891,44.933867917154899],[-93.324897964159604,44.93381588225202],[-93.325044971442523,44.933711812304779],[-93.325162577268898,44.933626474807319],[-93.325247841492981,44.933624393403363],[-93.325344866299702,44.93363271901876],[-93.325468352417388,44.933666021468241],[-93.32563594071992,44.933753440306312],[-93.325727085235343,44.933811719457751],[-93.325741785963658,44.933859591573615],[-93.325765307128904,44.933911626436903],[-93.325768247274567,44.934138497889933],[-93.325803529022465,44.934240485682302],[-93.325871152372599,44.934348717427135],[-93.325965237033699,44.934404914598794],[-93.326262191745244,44.9344298911019],[-93.326382737717253,44.9344298911019],[-93.326388618008565,44.934490250939511],[-93.326247491016943,44.934565180304851],[-93.326088723151372,44.934606807687778],[-93.325918194703178,44.93468589963225],[-93.325806469168143,44.934746259200786],[-93.325803529022465,44.934825350953162],[-93.325882912955279,44.934898198523484],[-93.32585057135303,44.934968964646146],[-93.325685923196133,44.934981452776391],[-93.325430130523841,44.934981452776391],[-93.325086133481747,44.934975208711606],[-93.324889143722629,44.935035567976051],[-93.324795059061529,44.935137554175277],[-93.324733316002678,44.93522288942728],[-93.324721555420041,44.935443511686188],[-93.324765657604942,44.935522602478272],[-93.324797999207192,44.935599611829055],[-93.324795059061529,44.935755711547586],[-93.324774478041917,44.935784850114707],[-93.324730375857015,44.935909729520652],[-93.324695094109131,44.93606582839616],[-93.324700974400443,44.93614908095627],[-93.324750956876628,44.93622817077658],[-93.324812699935478,44.936294772646022],[-93.324839161246416,44.936332236163643],[-93.324712734983066,44.936396756608907],[-93.324521625515246,44.936432138757802],[-93.324262892697291,44.936471683486644],[-93.323992399296685,44.936498740390689],[-93.323857152596403,44.936494577790903],[-93.323742486915691,44.936552854160517],[-93.323671923419894,44.936552854160517],[-93.32366310298292,44.93659448010262],[-93.323727786187419,44.936631943424707],[-93.323724846041756,44.936688138362008],[-93.323604300069746,44.936727682914551],[-93.323457292786813,44.936769308729914],[-93.323075073851172,44.936773471309785],[-93.323019211083647,44.936760983569265],[-93.322810460741863,44.936706869995561],[-93.322675214041581,44.936644431193301],[-93.322254773212393,44.936403000519142],[-93.321901955733338,44.936405081822386],[-93.321675564517619,44.936465439583905],[-93.321478574758473,44.93654869156466],[-93.321275704708043,44.936669406722345],[-93.321105176259806,44.936785959047619],[-93.320958168976873,44.936865047990736],[-93.320949348539912,44.936923323984388],[-93.320767059509052,44.937016981707437],[-93.320549488730322,44.937125208219349],[-93.320473044943199,44.937150183539281],[-93.320431882903975,44.93727922251923],[-93.320376020136436,44.937447805265826],[-93.320237833290477,44.937649687656801],[-93.320129047901119,44.937757912976217],[-93.320137868338094,44.937926494317423],[-93.320181970522995,44.938030556626657],[-93.320217252270879,44.938136699987794],[-93.320258414310103,44.938265736750807],[-93.320278995329716,44.938380204604321],[-93.320264294601429,44.938561271470242],[-93.32009670629887,44.93875274385676],[-93.319940878578976,44.938883860448762],[-93.319820332606966,44.938898428940504],[-93.319632163284808,44.939027463991692],[-93.319576300517284,44.939089900202696],[-93.319561599788997,44.939193960403472],[-93.319432233380013,44.939289695621632],[-93.319076475755281,44.939298020415663]]]]}}
]
}
