{
"type": "FeatureCollection",
"name": "hyarrostar",
"crs": { "type": "name", "properties": { "name": "urn:ogc:def:crs:OGC:1.3:CRS84" } },
"features": [
{"type":"Feature","properties":{"id":1},"geometry":{"type":"MultiPolygon","coordinates":[[[[-93.308198671854399,44.939281761051184],[-93.308134947642728,44.939234677970518],[-93.308072153711549,44.939156645087508],[-93.307953542952603,44.939093428496932],[-93.307904703228303,44.939093428496932],[-93.307857258924741,44.939132938874202],[-93.307814000883226,44.939134914392362],[-93.307720507696786,44.939117134726558],[-93.307315835695633,44.938969958392747],[-93.307134431005494,44.938922545802193],[-93.306883255280638,44.938926496852893],[-93.30669347806635,44.938942301053011],[-93.306486955803692,44.939009468854969],[-93.306386485513784,44.939005517809974],[-93.306260897651356,44.939062807935855],[-93.306118564740629,44.939064783456416],[-93.306029257816235,44.939007493332504],[-93.305967859305724,44.938944276577715],[-93.305948323416004,44.938853402370768],[-93.305976231829888,44.938580778886973],[-93.305920415002149,44.938525463819261],[-93.305903669953807,44.938387175916837],[-93.305775291250015,44.938248887681361],[-93.305658075911794,44.938217278895053],[-93.305496207111332,44.93820345004557],[-93.305440390283607,44.938171841234265],[-93.305256194752062,44.938132330195657],[-93.30503292744109,44.938120476878751],[-93.30485431359233,44.938088868021772],[-93.304580811136375,44.938035528036124],[-93.304318472046006,44.937946627949984],[-93.304125903990325,44.937903165635547],[-93.304173348293901,44.937778705189494],[-93.304170557452522,44.937626586500173],[-93.30411194978339,44.93744285819524],[-93.304039387907324,44.937320372332024],[-93.303844029010236,44.937225544387516],[-93.303581689919866,44.937142569807619],[-93.303333305036404,44.937071448643692],[-93.30288677041446,44.937083302177136],[-93.302800254331473,44.93711688717525],[-93.302613267958549,44.937170228014232],[-93.302398373171741,44.937166276842682],[-93.302077426412239,44.937140594220921],[-93.301859740784053,44.937132691873458],[-93.301644845997245,44.937108984824526],[-93.301505303927883,44.937077375410723],[-93.301457859624321,44.937033912438338],[-93.301379716065469,44.937000327391694],[-93.301351807651614,44.936887718562517],[-93.301337853444693,44.936745475515281],[-93.301332271761908,44.936607183325982],[-93.301323899237758,44.936547915142917],[-93.301256919044462,44.936379988291975],[-93.301164821278689,44.936259475778648],[-93.301000161636864,44.93611920679708],[-93.30090248218832,44.936044133116887],[-93.300743404229237,44.935969059338554],[-93.300623398049609,44.935911766125862],[-93.300606653001282,44.935870277901714],[-93.300514555235537,44.935858424117853],[-93.300489437663018,44.935759642490723],[-93.300541068228682,44.935641104313838],[-93.300626188890988,44.935588749874498],[-93.300715495815354,44.935507748572356],[-93.30081317526394,44.935497870356969],[-93.300852247043323,44.935440576674189],[-93.300910854712455,44.935438601028942],[-93.301053187623211,44.935397112462915],[-93.301175984644217,44.935367477754554],[-93.301312735872202,44.935320062189348],[-93.301452277941536,44.935314135240951],[-93.30161135590059,44.935250914419932],[-93.301831832370183,44.935231157899082],[-93.301932302660092,44.935158058712872],[-93.30195183854984,44.934847880049752],[-93.301954629391233,44.934699704937813],[-93.301856949942646,44.934664142854061],[-93.301848577418497,44.934521894298811],[-93.301789969749365,44.934504113204625],[-93.301692290300821,44.934440891491839],[-93.301695081142228,44.934227517697344],[-93.301717407873326,44.934124781883881],[-93.30175368881136,44.93402204588665],[-93.301784388066622,44.934000313248298],[-93.301842995735754,44.933952896554267],[-93.30195183854984,44.93387584434295],[-93.302105334826123,44.9338817714398],[-93.302208595957453,44.933832378947358],[-93.302272785309327,44.933719763905785],[-93.302295112040426,44.933597270101032],[-93.30242349074426,44.93345699461662],[-93.302440235792574,44.933405626043651],[-93.302518379351383,44.933411553189025],[-93.302616058799927,44.933453043189559],[-93.30279653320963,44.933472800322129],[-93.302945378083592,44.933530754538445],[-93.303083059592026,44.933596611531478],[-93.303116549688696,44.933641394243608],[-93.30313887641978,44.933804719133043],[-93.303150039785322,44.933904821255055],[-93.303164924272735,44.933978580601725],[-93.303217019978604,44.934039168565619],[-93.303365864852609,44.934107659230442],[-93.303481219629916,44.934162978553935],[-93.303600295529108,44.934157710049227],[-93.303723092550115,44.934194589572002],[-93.303886821911505,44.934194589572002],[-93.303912869764446,44.934218297824138],[-93.30400217668884,44.934260445803773],[-93.304113810344319,44.934318399225241],[-93.304214280634241,44.934347375914051],[-93.304511970382208,44.934357912888181],[-93.304645930768785,44.934376352588238],[-93.304664536378013,44.934400060765334],[-93.304694305352825,44.934415866211296],[-93.304861755836043,44.934468550999739],[-93.304958505004123,44.934521235739851],[-93.305066417537745,44.934526504211206],[-93.30516316670581,44.934571286198192],[-93.305315732701644,44.934655581608375],[-93.305464577575634,44.934731974216959],[-93.305468298697491,44.934818903613468],[-93.305505509915974,44.934958517217339],[-93.30557249010927,44.935069154171771],[-93.305624585815167,44.935174522501654],[-93.30585529536981,44.935298330042208],[-93.306022745853014,44.935316769440313],[-93.306108331655579,44.935340477229154],[-93.306465559353128,44.935351014021073],[-93.306569750764893,44.935335208832477],[-93.306755806857382,44.93521930398331],[-93.306781854710295,44.935177156707418],[-93.30689720948763,44.935082325223597],[-93.30701256426498,44.935048080482609],[-93.307157688017085,44.93501646993434],[-93.307328859622146,44.935021738360255],[-93.307526079080191,44.935042812059109],[-93.30767864507601,44.935084959433581],[-93.308065641748314,44.935198230349236],[-93.308333562521483,44.93528515903995],[-93.308534503101342,44.935377355992358],[-93.308657300122363,44.935503797286401],[-93.30872055919383,44.935622335746714],[-93.308772654899698,44.935775118290181],[-93.308834053410209,44.935916046655215],[-93.308908475847204,44.936047755094918],[-93.308930802578303,44.936071462581978],[-93.309111276987991,44.936161024111449],[-93.309213607838842,44.936193951109232],[-93.309315938689721,44.936220292693847],[-93.30959316226749,44.936258487970093],[-93.309710377605754,44.936298000298102],[-93.309822011261232,44.936346732131852],[-93.310059232779068,44.936461537144304],[-93.310307307569033,44.936459781046402],[-93.310319711308537,44.936364951680709],[-93.310418941224512,44.936263097743101],[-93.310488402165703,44.936226219548715],[-93.310580189837964,44.936157731410631],[-93.310681900501848,44.936082218753434],[-93.310743919199368,44.936064657656132],[-93.310820822384244,44.935897826963931],[-93.310828264627929,44.935752069225607],[-93.310870437342231,44.935588749874462],[-93.31088780257754,44.935479870048994],[-93.310917571552309,44.935332355117403],[-93.310991993989319,44.935219962534241],[-93.311001916980928,44.935100545173597],[-93.311093704653189,44.935016250416574],[-93.311192934569192,44.935016250416574],[-93.311217742048171,44.935040836400162],[-93.311282241493572,44.935119862704667],[-93.311378990661666,44.935191864354081],[-93.311443490107024,44.935325330587411],[-93.311512951048215,44.93537099001707],[-93.311597296476819,44.935416649410413],[-93.311758545090271,44.935425430058828],[-93.31184040977098,44.935409624890724],[-93.312051273342462,44.935274402719187],[-93.312125695779415,44.93517079070994],[-93.312210041208019,44.935042592541436],[-93.312284463644986,44.935023274984381],[-93.312363847577799,44.935068934654211],[-93.312455635250089,44.935158497747274],[-93.312505250208062,44.935226987077122],[-93.312592076384561,44.935300744725623],[-93.31271115228374,44.935386795195797],[-93.31284263192245,44.935411381020728],[-93.312984034552727,44.935430698447227],[-93.313170090645187,44.935595774372231],[-93.313276762804875,44.935625628478213],[-93.31345537665365,44.935760849822707],[-93.313552125821701,44.935788947724483],[-93.313629029006606,44.935924168684402],[-93.313762989393183,44.93601899877801],[-93.313770431636883,44.936154219196212],[-93.313857257813353,44.936247292805554],[-93.313944083989838,44.936459781046402],[-93.313988737452036,44.936707390318581],[-93.313988737452036,44.936911096437001],[-93.313867180804948,44.936919876856898],[-93.313676163216684,44.93691285252109],[-93.313576933300695,44.936902316015768],[-93.313348704493961,44.936898803846894],[-93.313085745216611,44.936923389024464],[-93.312738440510628,44.936949730274485],[-93.312480442729111,44.936984851922382],[-93.31232663635933,44.937005924900802],[-93.311986773897061,44.937077924185388],[-93.311770948829832,44.937118313988435],[-93.311458374594451,44.937167484145121],[-93.311207819056619,44.937244751449107],[-93.311001916980956,44.937329042934856],[-93.310473517678318,44.937578404522469],[-93.310136135963972,44.937754010624452],[-93.309808677241193,44.938012150619436],[-93.309508506745388,44.938279069665938],[-93.309337335140327,44.938437113253372],[-93.309235624476443,44.938633789110227],[-93.309119029325146,44.938898949243693],[-93.309099183341942,44.939018358705241],[-93.309027241652856,44.939048211031832],[-93.308903204257874,44.939071039271106],[-93.308687379190616,44.939085087413844],[-93.308362401215746,44.939213276557489],[-93.308198671854399,44.939281761051184]]]]}}
]
}
