{
"type": "FeatureCollection",
"name": "meneltarma",
"crs": { "type": "name", "properties": { "name": "urn:ogc:def:crs:OGC:1.3:CRS84" } },
"features": [
{"type":"Feature","properties":{"id":1},"geometry":{"type":"MultiPolygon","coordinates":[[[[-93.312769373293321,44.940533154997524],[-93.312822295915197,44.940439503009699],[-93.312861987881561,44.940305268227419],[-93.312928141158892,44.940177276631118],[-93.313020755747118,44.940121085108458],[-93.313170703175714,44.940043041235761],[-93.313364752789212,44.939946266686299],[-93.313320650604354,44.939930657872708],[-93.31313101120935,44.939968119018168],[-93.313117780553881,44.939940023161377],[-93.313197164486681,44.939886953172127],[-93.313078088587488,44.939886953172127],[-93.312892859410994,44.939958753734096],[-93.312839936789132,44.939980606061219],[-93.312685579142055,44.939977484300719],[-93.312566503242863,44.939933779635773],[-93.312443017125219,44.939924414346095],[-93.312445405993529,44.939983077454841],[-93.312484546682626,44.939994784054733],[-93.312277817690969,44.939992442734955],[-93.312285535573352,44.940028733180931],[-93.31254794357335,44.94015828598377],[-93.312562276783439,44.940215648125388],[-93.312626776228839,44.940275351518046],[-93.312655993926356,44.940383051598786],[-93.312676942464151,44.940431438525806],[-93.312723249758278,44.940532894853305],[-93.312769373293321,44.940533154997524]]]]}}
]
}
