{
"type": "FeatureCollection",
"name": "mittalmar",
"crs": { "type": "name", "properties": { "name": "urn:ogc:def:crs:OGC:1.3:CRS84" } },
"features": [
{"type":"Feature","properties":{"id":1},"geometry":{"type":"MultiPolygon","coordinates":[[[[-93.310760431677508,44.941650681595696],[-93.31071556018081,44.941631791528351],[-93.310729688815329,44.941448446433988],[-93.310675529049647,44.941320104519569],[-93.310619014511573,44.941205096586273],[-93.310515404525034,44.941110089858931],[-93.31034821568322,44.940991747926027],[-93.31023047706222,44.940868405370175],[-93.309978516413253,44.940638387463579],[-93.309754813033322,44.940441704754619],[-93.309326244452834,44.940108342692191],[-93.309190845038671,44.940007500286995],[-93.309040139603766,44.939925826143046],[-93.309086057665951,44.939887489259917],[-93.309123734024666,44.939886655849122],[-93.309289745480299,44.939809148593028],[-93.309408661487538,44.939758310443487],[-93.309521690563699,44.939734141471376],[-93.309566431239674,44.93969330421951],[-93.309554657377589,44.939632464994482],[-93.309428677053106,44.939629131336446],[-93.309341550473562,44.93967246887572],[-93.309134330500584,44.939669135220022],[-93.309126088797086,44.939623297434437],[-93.3089702813553,44.939608295969386],[-93.30879916789273,44.939602739870224],[-93.308767770927147,44.93965941205645],[-93.308579389133527,44.939660523275222],[-93.308524444443719,44.939644966210366],[-93.308398856581292,44.939608295969386],[-93.30832978325698,44.939549401290925],[-93.30825286069124,44.939420499519713],[-93.308218324029099,44.939298264814184],[-93.308441242484861,44.939208255455569],[-93.308690848361408,44.939099355055276],[-93.308909057272359,44.939093798906853],[-93.309111567700512,44.939041571085525],[-93.30913982496952,44.93891377940745],[-93.309172791783425,44.938805989683971],[-93.309246574652576,44.938661528912483],[-93.309334486156274,44.938485953023978],[-93.309398849935789,44.938403721094126],[-93.309579382487996,44.938238145634827],[-93.309845733412857,44.938011821359943],[-93.310096909137712,44.937817722580547],[-93.310264359620945,44.937711042055987],[-93.310666240780648,44.937511015538213],[-93.311149754050945,44.937290244720792],[-93.311472096231185,44.937186526594033],[-93.311719085693923,44.937145039290876],[-93.311997472122272,44.937097625193417],[-93.312640063351623,44.936983534860964],[-93.313014733807833,44.936947974191533],[-93.31338103173988,44.936910931804114],[-93.31353801656789,44.936924267066331],[-93.313826868651461,44.936939084020736],[-93.314017343576154,44.936942047411158],[-93.314228749811207,44.936945010801416],[-93.314561557646613,44.937025022280807],[-93.315112051110177,44.93715541111947],[-93.315645799525456,44.937282836289377],[-93.315940931002118,44.937411742859567],[-93.316210944906345,44.937473973514038],[-93.316723762011179,44.937659183396065],[-93.317288907392069,44.937925884576735],[-93.317770327531349,44.938195547844373],[-93.318050807090756,44.938388163688742],[-93.318389894319267,44.938613375241204],[-93.318592928030171,44.938817842859336],[-93.318752005989253,44.938964525702069],[-93.318917363341441,44.939112689809257],[-93.319053416859049,44.939155657328826],[-93.318839917492951,44.939478653515543],[-93.31877293729967,44.939545326814077],[-93.318618045602662,44.93967719155431],[-93.318486178347129,44.939874247287094],[-93.318325007257044,44.94009797139698],[-93.318211978180841,44.940259467066994],[-93.318038248304518,44.940505413728474],[-93.31793987114564,44.940622460263626],[-93.31786242529715,44.940746914545613],[-93.317789165710749,44.940905445204585],[-93.317692881682888,44.941007675023535],[-93.317659391586261,44.941118794185513],[-93.317586131999832,44.941343995027523],[-93.317481475447821,44.941456595117273],[-93.31737263263372,44.94151882138793],[-93.317108898122655,44.941610679092754],[-93.316845163611561,44.94168772092543],[-93.316562590921123,44.941744020660849],[-93.31632188085149,44.941786986211262],[-93.316141871582033,44.941815136037199],[-93.31597651422986,44.941826988591359],[-93.315819529401836,44.941832914867526],[-93.315484628435399,44.941847730555253],[-93.315179031303515,44.941843285849345],[-93.314896458613077,44.941864027807334],[-93.31456783703976,44.941889214460559],[-93.314438062915272,44.941889214460559],[-93.314122000128179,44.941884769757863],[-93.313686628871807,44.941902548566617],[-93.313416614967622,44.941886251325464],[-93.313085900263232,44.941901066999421],[-93.312895425338596,44.941883288190205],[-93.312694484758723,44.941889214460559],[-93.312476799130536,44.941889214460559],[-93.312131432508878,44.941866990943588],[-93.311980727073973,44.941843285849323],[-93.311788159018278,44.941862546239165],[-93.311480468755349,44.941806246619961],[-93.311214641113267,44.941776615219275],[-93.310760431677508,44.941650681595696]]]]}}
]
}
