{
"type": "FeatureCollection",
"name": "nisimaldar",
"crs": { "type": "name", "properties": { "name": "urn:ogc:def:crs:OGC:1.3:CRS84" } },
"features": [
{"type":"Feature","properties":{"id":1},"geometry":{"type":"MultiPolygon","coordinates":[[[[-93.318993468277654,44.939460781354327],[-93.319019959467397,44.939607045847133],[-93.319120625988347,44.939745809252301],[-93.319263678412881,44.939895823367124],[-93.319631905950104,44.939901448888811],[-93.319727274233102,44.93991082475705],[-93.319819993397175,44.939907074409945],[-93.319867677538682,44.939882697147731],[-93.319790853088463,44.939815190829115],[-93.319748467184908,44.939732682998603],[-93.319729923352099,44.939642674321],[-93.31969548480545,44.939556415872559],[-93.319663695377784,44.939483283608219],[-93.319613362117281,44.939430778335385],[-93.319570976213726,44.939400775300768],[-93.319435871146112,44.939305140523295],[-93.31951269559633,44.939218881567776],[-93.319565677975788,44.939187003225314],[-93.319581572689629,44.939089492891483],[-93.319629256831135,44.939029486449911],[-93.319801449564366,44.938918849408815],[-93.319915361680188,44.938907598172356],[-93.320002782606295,44.938832589872959],[-93.320074308818562,44.938795085686507],[-93.320169677101575,44.93868069776655],[-93.32025974714665,44.938573810487846],[-93.320265045384588,44.93853630613237],[-93.320169677101575,44.938534430913954],[-93.320047817628847,44.938541931787263],[-93.319949800226837,44.938583186572885],[-93.319788203969509,44.938661945626784],[-93.319586870927552,44.938761331897766],[-93.319491502644567,44.938810087364025],[-93.319406730837429,44.938853217165054],[-93.31930606431645,44.938935726259366],[-93.319208046914468,44.9390126096269],[-93.319128573345267,44.939085742490725],[-93.319062345370966,44.939166376053109],[-93.318980222682754,44.939316391681835],[-93.318993468277654,44.939460781354327]]]]}}
]
}
