{
"type": "FeatureCollection",
"name": "nunduine",
"crs": { "type": "name", "properties": { "name": "urn:ogc:def:crs:OGC:1.3:CRS84" } },
"features": [
{"type":"Feature","properties":{"id":1},"geometry":{"type":"MultiLineString","coordinates":[[[-93.314665951002283,44.940224623149184],[-93.314842359741803,44.940187162171071],[-93.314954085276838,44.940174675172955],[-93.31503346920961,44.940136173578281],[-93.315174596201231,44.940130970658096],[-93.315337774285297,44.940127848905767],[-93.315464200548604,44.940098712542479],[-93.315636199069658,44.940096631373102],[-93.315703822419806,44.940077900845345],[-93.315821428246139,44.940024830983546],[-93.315968435529115,44.939964476963439],[-93.316093391719605,44.939940543455144],[-93.3161992369633,44.939928056403382],[-93.316419747887707,44.939928056403382],[-93.316522652985768,44.940007141018704],[-93.316619677792517,44.940056048555256],[-93.316737283618878,44.940052926798842],[-93.316816667551663,44.94002066863937],[-93.316916632504046,44.939955111678785],[-93.316981315708531,44.939894757585385],[-93.317054819350005,44.939820875764021],[-93.317132733209974,44.939742831483251],[-93.317200356560122,44.939692883087893],[-93.31728121056571,44.939640853463175],[-93.317384115663785,44.939615879226572],[-93.317520832436912,44.939597148541999],[-93.317589925859878,44.939582580227537],[-93.317686950666641,44.939575296068931],[-93.317831017803897,44.9395503218038],[-93.317998606106471,44.939512860385761],[-93.318077990039257,44.939489967284914],[-93.318186775428615,44.939464992982671],[-93.318335620302591,44.939449123889162],[-93.319105203428762,44.939332056670267],[-93.319193407798522,44.939311764994713],[-93.31951094352965,44.93930864319784]]]}}
]
}
