{
"type": "FeatureCollection",
"name": "orrostar",
"crs": { "type": "name", "properties": { "name": "urn:ogc:def:crs:OGC:1.3:CRS84" } },
"features": [
{"type":"Feature","properties":{"id":1},"geometry":{"type":"MultiPolygon","coordinates":[[[[-93.302656742300229,44.943201001839554],[-93.303371197695284,44.943205684217354],[-93.303655656787754,44.943271237466362],[-93.303824347644962,44.943278261024318],[-93.304102191409683,44.943172907564779],[-93.304257651611394,44.943086283464311],[-93.304482572754281,44.942962200065665],[-93.304608263981194,44.942898987665131],[-93.304690955577868,44.942887281657391],[-93.304823262132516,44.942887281657391],[-93.305068029258578,44.942943470472777],[-93.30528964273762,44.942938788073597],[-93.305464948922534,44.942891964060792],[-93.305673331746078,44.942784268686403],[-93.305719639040191,44.942744468170822],[-93.305782484653676,44.942660184635002],[-93.305835407275524,44.942599313115494],[-93.305985905981473,44.942553659433536],[-93.30611821253612,44.942553659433536],[-93.306382825645386,44.942656672818323],[-93.306594516132819,44.942750321189557],[-93.306700361376514,44.94276905084547],[-93.306845898586658,44.942776074464867],[-93.307001358788341,44.94277139205203],[-93.307265971897635,44.942757344811248],[-93.307894428032199,44.942743297567013],[-93.308188810116249,44.942729250319339],[-93.308478230704509,44.942765539035456],[-93.308822227746603,44.942820557367725],[-93.309143071141619,44.942910693670491],[-93.309273723864308,44.942987953245932],[-93.309422568738313,44.942931764474103],[-93.309535029309757,44.942870893242564],[-93.309654105208949,44.942777245068015],[-93.309746719797189,44.942663696451469],[-93.309857526536703,44.942534929707357],[-93.309966679444258,44.942376897399392],[-93.310060947864471,44.942276224739345],[-93.310236254049343,44.942087755680234],[-93.310464482856133,44.941889921033365],[-93.310608366234277,44.941770517543816],[-93.310694365494811,44.941730716325466],[-93.310699510749743,44.94152702730544],[-93.310692160385585,44.941434417499245],[-93.310603956015839,44.941234629543445],[-93.310501050917779,44.941132654173018],[-93.310323172105399,44.941000502148],[-93.31026877941072,44.940965122814092],[-93.310196745842092,44.940882917807031],[-93.310035037830858,44.94073099431963],[-93.3098468685087,44.940560340059861],[-93.309707211589895,44.940460444648046],[-93.309613126928838,44.940378238918385],[-93.309208856900753,44.940046293065961],[-93.309110362021187,44.939985939068421],[-93.309028037942738,44.939941193822392],[-93.308974380284468,44.939952119990323],[-93.308828843074394,44.940008831971504],[-93.308508367197561,44.940007791385192],[-93.308342248967875,44.939980736134601],[-93.308265805180753,44.939945356172309],[-93.308180540956641,44.939893326776399],[-93.308092336586895,44.93981840436345],[-93.308051174547657,44.939780943120311],[-93.307912987701698,44.939778861939409],[-93.307698357068602,44.939824647901595],[-93.307592511824907,44.939828810259975],[-93.307204412597926,44.939824647901595],[-93.307086806771594,44.939801754925071],[-93.307030944004083,44.939791349023629],[-93.30693979948866,44.939799673744922],[-93.30684571482756,44.939843378511952],[-93.306595802446566,44.93984962204739],[-93.306413513415762,44.939803836105135],[-93.306248865258866,44.939745563034904],[-93.306110678412907,44.939697695825835],[-93.306016593751806,44.939637341461854],[-93.305831364575326,44.939558256337165],[-93.305731399622928,44.939487495870111],[-93.305640255107519,44.939420897703812],[-93.305554990883394,44.939379273810644],[-93.30549618797022,44.93938135500602],[-93.305355060978627,44.939431303672372],[-93.305240395297929,44.939458359181856],[-93.305152190928169,44.939495820635479],[-93.305087507723655,44.939558256337165],[-93.304961081460348,44.939664396874235],[-93.304843475634001,44.939795511384425],[-93.304649426020518,44.939899570306395],[-93.304481837717987,44.939959924394742],[-93.304390693202549,44.939982817308184],[-93.304170182278156,44.94000154786697],[-93.304070217325759,44.940022359591758],[-93.303773262614229,44.940030684279577],[-93.303693878681415,44.940055658335751],[-93.30358803343772,44.940113931091254],[-93.303557896944696,44.940170122620906],[-93.3035167349055,44.940240882246691],[-93.303499094031551,44.940378238918399],[-93.303468957538541,44.940449518576827],[-93.303455726883072,44.940547853142895],[-93.303410889661777,44.940590516764651],[-93.303359437112746,44.940626416616958],[-93.303341061202403,44.94083661240311],[-93.303308719600153,44.941057213093615],[-93.303257267051123,44.941204973459477],[-93.303151421807428,44.941460951784819],[-93.303079388238771,44.941585818846455],[-93.303013234961441,44.941661779509424],[-93.302936791174332,44.941706523414524],[-93.302839766367569,44.941729415631571],[-93.302557512384354,44.941725253410972],[-93.302475188305891,44.94172733452131],[-93.302381103644805,44.941753348394172],[-93.302247327017341,44.941790808350405],[-93.302156182501918,44.941834511601762],[-93.302072388350652,44.941886539238602],[-93.302017995655973,44.94193856682827],[-93.302042986894065,44.942019729774017],[-93.302125310972471,44.942109216991469],[-93.302123840899654,44.942259055740926],[-93.302013585437464,44.942348542585336],[-93.302026816092933,44.942421380611542],[-93.302085619006107,44.942495259086577],[-93.302081208787627,44.942586826641985],[-93.302015055510296,44.942655502212709],[-93.302010645291801,44.942708569642917],[-93.302057687622337,44.942741866828982],[-93.302084148933261,44.942827190780122],[-93.302142951846449,44.94290210926679],[-93.302254677381484,44.942955176469049],[-93.302331121168606,44.942958298067651],[-93.302417855465535,44.943005122026364],[-93.30247812845154,44.94301240574984],[-93.302578093403923,44.943086283464311],[-93.30259867442355,44.943173687961469],[-93.302656742300229,44.943201001839554]]]]}}
]
}
