{
"type": "FeatureCollection",
"name": "siril",
"crs": { "type": "name", "properties": { "name": "urn:ogc:def:crs:OGC:1.3:CRS84" } },
"features": [
{"type":"Feature","properties":{"id":1},"geometry":{"type":"MultiLineString","coordinates":[[[-93.312797179000313,44.939942702697635],[-93.312813073714125,44.939875196449577],[-93.312765389572618,44.939717681562136],[-93.312781284286473,44.939588294009916],[-93.312860757855674,44.939422339983494],[-93.312995862923273,44.939267636645511],[-93.31308725752784,44.939214193577342],[-93.313138915347821,44.939197316808652],[-93.313190573167759,44.939188878422421],[-93.313321704556941,44.939121371288081],[-93.313417072839968,44.939031361652148],[-93.313496546409127,44.938901972553303],[-93.313524362158361,44.93881196257346],[-93.313520388479873,44.93874164217852],[-93.313583967335234,44.938660070412482],[-93.313599862049088,44.938485675213627],[-93.31360383572752,44.938406915917952],[-93.313671388261326,44.938305653807625],[-93.31365151986904,44.938226894265028],[-93.313623704119848,44.938162198845646],[-93.313587941013708,44.938100316202359],[-93.313492572730681,44.938001866405152],[-93.313389257090734,44.937948422158833],[-93.313317730878467,44.937869662126246],[-93.31327004673696,44.937751521874773],[-93.31327004673696,44.937661510091459],[-93.313317730878467,44.937582749665324],[-93.313389257090734,44.937503989131145],[-93.313568072621393,44.937394286778513],[-93.313663440904449,44.937329590421022],[-93.313730993438242,44.93730708732307],[-93.313790598615128,44.937262081100691],[-93.313897887933507,44.937177694338693],[-93.313941598396582,44.937127062221968],[-93.313985308859628,44.93703986236072],[-93.314013124608849,44.93696953979552],[-93.314036966679595,44.936837333139778],[-93.314032993001135,44.936691061591524],[-93.31401709828728,44.936530725043241],[-93.313981335181154,44.936423833762355],[-93.313929677361173,44.93629162585021],[-93.313850203792015,44.936187547066943],[-93.313818414364349,44.936145352911879],[-93.3138104670074,44.936024396162196],[-93.313734967116716,44.935954072353383],[-93.313679335618261,44.935917503938775],[-93.313635625155229,44.935821863359699],[-93.313607809405994,44.935779668935936],[-93.313552177907596,44.935748726338794],[-93.313480651695329,44.935729035586498],[-93.313405151804588,44.935675589224765],[-93.313345546627701,44.935624955783538],[-93.313285941450829,44.935594013103064],[-93.313198520524708,44.935571509324944],[-93.313134941669347,44.935529314717229],[-93.313063415457094,44.935478681147032],[-93.313023678672479,44.935425234552298],[-93.313007783958682,44.935402730708049]]]}}
]
}
