{
"type": "FeatureCollection",
"name": "sorontil",
"crs": { "type": "name", "properties": { "name": "urn:ogc:def:crs:OGC:1.3:CRS84" } },
"features": [
{"type":"Feature","properties":{"id":1},"geometry":{"type":"MultiPolygon","coordinates":[[[[-93.310527328469405,44.946909715600498],[-93.310754454721547,44.946764571076862],[-93.310780916032471,44.946742721331837],[-93.310807377343394,44.946742721331837],[-93.310864710183736,44.946784860118349],[-93.310952914553496,44.946731796456206],[-93.310992606519903,44.94666624715876],[-93.311027888267787,44.94661630478668],[-93.311171220368664,44.946564801669943],[-93.311294706486336,44.946427459799409],[-93.311371885309882,44.946338499548808],[-93.311444653914904,44.946286996182835],[-93.311422602822489,44.946263585546646],[-93.311329988234235,44.946266706965361],[-93.311177835696384,44.946327574596253],[-93.310761070049267,44.946333817426542],[-93.310708147427434,44.946365031567801],[-93.310639789040849,44.946405609926067],[-93.310593481746736,44.946404049220504],[-93.310571430654292,44.946385320750522],[-93.31027815112482,44.946383760044412],[-93.310223023393732,44.946350985206337],[-93.310165690553376,44.946358788740902],[-93.310096229612199,44.9463962456921],[-93.310177818654239,44.946458673889744],[-93.310217510620618,44.946524223424227],[-93.310252792368487,44.946596796035777],[-93.310352573561815,44.946734527675311],[-93.31042754727612,44.946843776332834],[-93.310482675007208,44.946901521967817],[-93.310527328469405,44.946909715600498]]]]}}
]
}
