{
"type": "FeatureCollection",
"name": "anfalas",
"crs": { "type": "name", "properties": { "name": "urn:ogc:def:crs:OGC:1.3:CRS84" } },
"features": [
{ "type": "Feature", "properties": { "id": 1 }, "geometry": { "type": "MultiPolygon", "coordinates": [ [ [ [ -93.307219326336053, 44.941388358143179 ], [ -93.306517192020564, 44.94141381810671 ], [ -93.30646224636007, 44.941408632485633 ], [ -93.306491143707433, 44.94137233312501 ], [ -93.306457146790066, 44.941347254840409 ], [ -93.306409335724013, 44.941344676453888 ], [ -93.306402416640836, 44.941316515611014 ], [ -93.306356832092874, 44.941304631875212 ], [ -93.306213362868249, 44.94130636041875 ], [ -93.306137049450868, 44.941322781579792 ], [ -93.306068672628939, 44.941311546049064 ], [ -93.306040589291342, 44.941331424294255 ], [ -93.30597587551344, 44.941366427274481 ], [ -93.305911772242823, 44.941394516070339 ], [ -93.305812870053927, 44.941419579907347 ], [ -93.30578967077507, 44.941486992931921 ], [ -93.305696873659571, 44.941472732491015 ], [ -93.305674895395342, 44.941432543956687 ], [ -93.305635212418323, 44.941386737635931 ], [ -93.305671842858644, 44.94132969575147 ], [ -93.305663295755977, 44.941275894831215 ], [ -93.305658411697266, 44.941270277061548 ], [ -93.305584540309241, 44.941257529043696 ], [ -93.305505174355218, 44.941246293500178 ], [ -93.305425808401154, 44.941245429227514 ], [ -93.305282804573949, 44.941230615846173 ], [ -93.305125133536734, 44.941217772495264 ], [ -93.305141006727553, 44.941198758484113 ], [ -93.305153216874317, 44.941162458990796 ], [ -93.305150774844961, 44.941105416883481 ], [ -93.305175195138531, 44.94104491761685 ], [ -93.305228919784355, 44.940980961179925 ], [ -93.305275318342098, 44.940960218536453 ], [ -93.305346137193439, 44.940944661548912 ], [ -93.305390398975476, 44.940936018776227 ], [ -93.305417566552052, 44.940924567100431 ], [ -93.305430081952522, 44.94092737600225 ], [ -93.305491132686399, 44.94088502639098 ], [ -93.305513110950614, 44.940843541027192 ], [ -93.30550013766964, 44.940787362882617 ], [ -93.305472664839414, 44.940769645148691 ], [ -93.305427487296342, 44.940729456122206 ], [ -93.305388414826652, 44.940706984826321 ], [ -93.305267534373542, 44.940646052998986 ], [ -93.305216251757074, 44.940639138744984 ], [ -93.30516252711125, 44.940601974615504 ], [ -93.30508438217187, 44.940584688965686 ], [ -93.304998911144409, 44.940506903477093 ], [ -93.304925761220645, 44.940499696087464 ], [ -93.304884135764738, 44.940483567809963 ], [ -93.304851168368415, 44.940436032162403 ], [ -93.304849947353745, 44.940372075047208 ], [ -93.304886577794079, 44.940337503603942 ], [ -93.304934807873849, 44.940297746418452 ], [ -93.304956786138035, 44.940287374974226 ], [ -93.304986090490303, 44.94026663208016 ], [ -93.305039815136126, 44.940244160603129 ], [ -93.30509964485536, 44.940228603421588 ], [ -93.305119181090191, 44.940219960541114 ], [ -93.305218083279087, 44.940219960541114 ], [ -93.305264481836844, 44.940213046235812 ], [ -93.305296228218481, 44.940215639100394 ], [ -93.305327974600104, 44.940200081911115 ], [ -93.305342626776238, 44.940221689117315 ], [ -93.30541222461288, 44.940219096252974 ], [ -93.305445192009159, 44.940210453371094 ], [ -93.305479380420152, 44.940195760468889 ], [ -93.305519673904513, 44.940181067562925 ], [ -93.305552641300821, 44.940185389006245 ], [ -93.305589271741155, 44.94017242467531 ], [ -93.305618576093408, 44.940185389006245 ], [ -93.305656427548428, 44.940184524717608 ], [ -93.305688173930051, 44.940173288964132 ], [ -93.305724804370371, 44.940180203274224 ], [ -93.305735793502478, 44.940198353334253 ], [ -93.305798065251054, 44.940221689117315 ], [ -93.305833474676703, 44.940213910524015 ], [ -93.305844463808796, 44.940192303314895 ], [ -93.305900630483961, 44.940187981872079 ], [ -93.305933597880284, 44.940156003185244 ], [ -93.305978775423355, 44.940143903136935 ], [ -93.305995869628831, 44.94013353166492 ], [ -93.306032500069165, 44.94011970303265 ], [ -93.306056920362749, 44.940105874397048 ], [ -93.306071572538869, 44.940071302793498 ], [ -93.306081340656277, 44.940053152693295 ], [ -93.306102097905821, 44.940045374077165 ], [ -93.306125297184678, 44.9400410526233 ], [ -93.30615093849292, 44.940031545423672 ], [ -93.306191231977309, 44.940006480980706 ], [ -93.306216873285507, 44.940002159523928 ], [ -93.306238851549736, 44.940023766804607 ], [ -93.306260829813908, 44.940026359677745 ], [ -93.306279145034097, 44.940019445349122 ], [ -93.306338974753302, 44.940008209563338 ], [ -93.306368279105584, 44.940018581057977 ], [ -93.306373163164295, 44.940033274005529 ], [ -93.306424445780763, 44.94004278120488 ], [ -93.306458634191742, 44.940035866878247 ], [ -93.30648305448527, 44.940037595459984 ], [ -93.30652212695496, 44.940028520405271 ], [ -93.306558146887966, 44.940032841860059 ], [ -93.306602713923695, 44.940015556038901 ], [ -93.306644838930083, 44.940021606076911 ], [ -93.306668648716297, 44.940036299023674 ], [ -93.306671090745638, 44.94005877058207 ], [ -93.306674143282336, 44.940086427872615 ], [ -93.306649112481452, 44.940105442252147 ], [ -93.306636902334688, 44.940119270887841 ], [ -93.306611261026447, 44.940142174558389 ], [ -93.306616755592486, 44.94017458539733 ], [ -93.306634460305304, 44.940185821150557 ], [ -93.306663154150243, 44.940187549727789 ], [ -93.306690016473155, 44.94020051405532 ], [ -93.306715657781382, 44.940201810487899 ], [ -93.30674862517769, 44.940187981872079 ], [ -93.306776098007944, 44.940187117583484 ], [ -93.306795634242789, 44.940172856819714 ], [ -93.306812117940922, 44.940170263953192 ], [ -93.306834096205137, 44.940155571040698 ], [ -93.306843253815217, 44.940135692388402 ], [ -93.306858516498693, 44.940128778072953 ], [ -93.306928724842663, 44.940106738686872 ], [ -93.306956197672889, 44.940108899411378 ], [ -93.307009311811399, 44.940084267147263 ], [ -93.307025795509546, 44.940081674276755 ], [ -93.307060594427867, 44.940060499163117 ], [ -93.307097224868173, 44.940057906291507 ], [ -93.307115540088361, 44.940026359677752 ], [ -93.307142402411245, 44.940009506000266 ], [ -93.307199179593766, 44.939990491588972 ], [ -93.307263282864355, 44.939953759185698 ], [ -93.30727976656253, 44.93995289489358 ], [ -93.307314565480823, 44.939944251971603 ], [ -93.307348753891816, 44.939932584024888 ], [ -93.307377447736755, 44.939919619636854 ], [ -93.307392099912875, 44.939919619636854 ], [ -93.307405531074309, 44.939922212514709 ], [ -93.307483065506361, 44.939919187490538 ], [ -93.307519085439381, 44.939900605195795 ], [ -93.307541674210896, 44.939892826559003 ], [ -93.307555715879715, 44.939893258705524 ], [ -93.30756914704115, 44.939904494513797 ], [ -93.307586241246625, 44.939905358806655 ], [ -93.307614775863883, 44.939888432326121 ], [ -93.30761737712092, 44.93987856572214 ], [ -93.307631418789725, 44.93986560132192 ], [ -93.307631113536061, 44.939842913614477 ], [ -93.307639355385149, 44.939832542088098 ], [ -93.307661333649349, 44.939816984795016 ], [ -93.307678122601203, 44.93980294001291 ], [ -93.307697964089712, 44.939773553996162 ], [ -93.307734594530018, 44.93975540380184 ], [ -93.307773666999708, 44.939742439373809 ], [ -93.307812739469398, 44.939711324734596 ], [ -93.307872569188604, 44.939709596143018 ], [ -93.307900652526214, 44.939714781917552 ], [ -93.307941556517903, 44.939712621178224 ], [ -93.308002607251794, 44.939689717336321 ], [ -93.30802092247194, 44.939684531559536 ], [ -93.308049484976479, 44.939676759802921 ], [ -93.308053889868248, 44.939667677781721 ], [ -93.308077089147105, 44.939656009778794 ], [ -93.308103951470031, 44.939651688295619 ], [ -93.308127150748916, 44.939660331261628 ], [ -93.308145465969091, 44.939663788447668 ], [ -93.308165002203907, 44.939660331261628 ], [ -93.308186980468122, 44.939664652744149 ], [ -93.308205295688282, 44.939665517040609 ], [ -93.308235821055248, 44.939654281185554 ], [ -93.308270009466227, 44.939636130953524 ], [ -93.308294429759755, 44.939642181031509 ], [ -93.308322513097366, 44.939640452437871 ], [ -93.308340828317512, 44.939644773921877 ], [ -93.308372574699149, 44.939643909625104 ], [ -93.308382342816572, 44.939651688295619 ], [ -93.308411647168839, 44.939652552592271 ], [ -93.308432709672047, 44.93965881874265 ], [ -93.308456214204597, 44.939657306223666 ], [ -93.3084739189174, 44.939646718589572 ], [ -93.308489181600891, 44.939644125699296 ], [ -93.308492539391239, 44.939629648726417 ], [ -93.308501086493976, 44.939628784429409 ], [ -93.308504444284353, 44.939630945171892 ], [ -93.308525201533897, 44.93964650251538 ], [ -93.308553284871465, 44.939654281185554 ], [ -93.308572821106324, 44.939673295708189 ], [ -93.308604567487919, 44.939681938670944 ], [ -93.308654629089716, 44.939717374804644 ], [ -93.308676607353931, 44.939763182457256 ], [ -93.30868759648601, 44.939771825406474 ], [ -93.308675386339246, 44.939794297068367 ], [ -93.308675386339246, 44.939809854367596 ], [ -93.308658292133742, 44.939834054602478 ], [ -93.308653408075031, 44.939863440588262 ], [ -93.308636313869556, 44.939867762055485 ], [ -93.308622882708107, 44.939889369386741 ], [ -93.308627156259476, 44.939906223099484 ], [ -93.308627156259476, 44.939945980556104 ], [ -93.308638755898912, 44.939951166309292 ], [ -93.308639976913582, 44.939963266398209 ], [ -93.308627766766818, 44.939979687943406 ], [ -93.308621661693437, 44.94000043094114 ], [ -93.308592357341155, 44.940033274005565 ], [ -93.308562442481531, 44.940048831240048 ], [ -93.308530696099936, 44.940073895664511 ], [ -93.308517264938502, 44.94007303137419 ], [ -93.308502612762339, 44.940098960078032 ], [ -93.308519706967857, 44.940152546028862 ], [ -93.308553895378836, 44.940190574737819 ], [ -93.308614946112726, 44.940214774812247 ], [ -93.30866622872918, 44.940221689117344 ], [ -93.30870774322824, 44.940233789149268 ], [ -93.308766504559614, 44.940237570408712 ], [ -93.308788330196947, 44.940228711457607 ], [ -93.308813971505188, 44.940226118593614 ], [ -93.308838391798758, 44.940238218624586 ], [ -93.308894558473924, 44.94025723295384 ], [ -93.308920619703898, 44.940258584970501 ], [ -93.308942178046351, 44.94024426863912 ], [ -93.308993460662819, 44.940253775803534 ], [ -93.309011775882993, 44.940280568712964 ], [ -93.309034975161865, 44.940296125880444 ], [ -93.309034975161865, 44.940312547330421 ], [ -93.309006891824254, 44.940350575933408 ], [ -93.309005670809583, 44.940376504511917 ], [ -93.309025207044428, 44.940393790224412 ], [ -93.309025207044428, 44.940417125928029 ], [ -93.309010554868323, 44.940448240184764 ], [ -93.309006891824254, 44.940475033003437 ], [ -93.308970261383976, 44.940507011512587 ], [ -93.30894095703168, 44.940518247200757 ], [ -93.308932409928957, 44.94054158285379 ], [ -93.308914094708797, 44.940546768553176 ], [ -93.308888453400556, 44.940551954252108 ], [ -93.308861591077644, 44.94060813262702 ], [ -93.308851822960193, 44.940653939568961 ], [ -93.308854264989563, 44.940685053697358 ], [ -93.308856707018904, 44.940699746474351 ], [ -93.308827402666665, 44.940715303528236 ], [ -93.308798098314398, 44.940772346023124 ], [ -93.308778562079553, 44.94080259580803 ], [ -93.308748036712601, 44.940824202787475 ], [ -93.308734605551152, 44.940860502494672 ], [ -93.308745594683259, 44.940889023677059 ], [ -93.30874437366856, 44.94090285212404 ], [ -93.30870774322824, 44.94092013767807 ], [ -93.308684543949354, 44.940949523107975 ], [ -93.308639366406254, 44.940973722862495 ], [ -93.308589304804471, 44.94097631569273 ], [ -93.308533138129306, 44.940981501352852 ], [ -93.308506275806408, 44.940983229906109 ], [ -93.308487960586234, 44.940999651159572 ], [ -93.308444004057833, 44.940998786883199 ], [ -93.308409815646883, 44.940966808647957 ], [ -93.308386616367983, 44.940962487263455 ], [ -93.308368301147837, 44.940946930276539 ], [ -93.308349985927649, 44.940913223457081 ], [ -93.308319460560725, 44.940897666456813 ], [ -93.308319460560725, 44.940855316823608 ], [ -93.308277946061679, 44.940816424275823 ], [ -93.308235210547949, 44.940816424275823 ], [ -93.308161949667266, 44.940784445938995 ], [ -93.308113109080168, 44.940795681572887 ], [ -93.308098456904034, 44.940810374321565 ], [ -93.30810089893339, 44.940842352643948 ], [ -93.308105782992101, 44.940868281000363 ], [ -93.30810456197743, 44.940901987846196 ], [ -93.308092351830652, 44.940911494901705 ], [ -93.308087467771912, 44.940934830394895 ], [ -93.308096014874693, 44.940963351540383 ], [ -93.308076478639819, 44.940978908522844 ], [ -93.308071594581108, 44.941006565370166 ], [ -93.308078920669175, 44.941029036548791 ], [ -93.308023975008737, 44.941045457789173 ], [ -93.308009322832575, 44.941084350181818 ], [ -93.307982460509677, 44.941112871253019 ], [ -93.307876232232729, 44.941127563920524 ], [ -93.307857917012541, 44.941123242548109 ], [ -93.307823728601548, 44.941132749566989 ], [ -93.307788319175913, 44.941174234721807 ], [ -93.307712616265889, 44.94118979164714 ], [ -93.307617377121034, 44.941220689416859 ], [ -93.307573420592618, 44.9412379748752 ], [ -93.307545337255021, 44.941253531783261 ], [ -93.307530685078902, 44.941259581690815 ], [ -93.307506264785331, 44.94126736014244 ], [ -93.307440329992758, 44.941296745394638 ], [ -93.307412246655147, 44.941288102674967 ], [ -93.307386605346935, 44.941305388113008 ], [ -93.307343869833204, 44.941318352188127 ], [ -93.307302355334173, 44.941340823244722 ], [ -93.307284040113998, 44.94135810866689 ], [ -93.307257177791072, 44.941370208459325 ], [ -93.307219326336053, 44.941388358143179 ] ] ] ] } }
]
}
