{
"type": "FeatureCollection",
"name": "anorien",
"crs": { "type": "name", "properties": { "name": "urn:ogc:def:crs:OGC:1.3:CRS84" } },
"features": [
{ "type": "Feature", "properties": { "id": 1 }, "geometry": { "type": "MultiPolygon", "coordinates": [ [ [ [ -93.300851871332895, 44.940967616938011 ], [ -93.300897623076096, 44.940887705191116 ], [ -93.300931239788511, 44.940851562497279 ], [ -93.300967109512129, 44.940831856903635 ], [ -93.301000413925848, 44.940817977719441 ], [ -93.301060732167571, 44.940798461591271 ], [ -93.301093925046132, 44.940780745488595 ], [ -93.301126582555668, 44.940757629282231 ], [ -93.30116191691026, 44.940721249659937 ], [ -93.301177977980529, 44.940678427783332 ], [ -93.301176907242507, 44.940635226919682 ], [ -93.301164861439801, 44.940600552518781 ], [ -93.301141840572413, 44.940567962352389 ], [ -93.301123102657087, 44.940543330237603 ], [ -93.301112127592404, 44.940518508634334 ], [ -93.301099278736189, 44.940500697706291 ], [ -93.301086429880002, 44.94046716009273 ], [ -93.301067691964676, 44.94044745436716 ], [ -93.301058590691511, 44.940425474896031 ], [ -93.301058590691511, 44.94039951637189 ], [ -93.301052969316927, 44.94038435810419 ], [ -93.30105966142952, 44.940379621144714 ], [ -93.30109660189116, 44.940400463763488 ], [ -93.301166021406033, 44.940444075339791 ], [ -93.301220985957642, 44.940503192499719 ], [ -93.301248111320788, 44.94053805643729 ], [ -93.301248111320788, 44.940588710163929 ], [ -93.301263101653007, 44.940605005243548 ], [ -93.301265243129052, 44.940629258376752 ], [ -93.301253465010831, 44.940650479859883 ], [ -93.301278627354236, 44.940698133429642 ], [ -93.301283177990825, 44.940739060519576 ], [ -93.301312623286293, 44.940765208367331 ], [ -93.301348225325412, 44.940771840065949 ], [ -93.301390519477181, 44.940792966757854 ], [ -93.301431207521816, 44.940811061810692 ], [ -93.301458243656782, 44.940846493991863 ], [ -93.301478587679128, 44.94086013632316 ], [ -93.301527841627973, 44.940871883883624 ], [ -93.301542921188442, 44.940879620850922 ], [ -93.301461545099073, 44.940897810614779 ], [ -93.301320207680646, 44.940905894952422 ], [ -93.301294509968201, 44.940970569612574 ], [ -93.301312223938723, 44.940999676432455 ], [ -93.301302584856558, 44.94102404383932 ], [ -93.301309469915253, 44.941057183496035 ], [ -93.301298453821346, 44.941080576183388 ], [ -93.301255766457558, 44.941095196608146 ], [ -93.301323240032602, 44.941126386835172 ], [ -93.301387959584176, 44.941138083165932 ], [ -93.301443040053599, 44.941123462752117 ], [ -93.30150500558166, 44.94113515908348 ], [ -93.301589003297536, 44.941162450514057 ], [ -93.301619297555717, 44.941156602351448 ], [ -93.301674378025112, 44.941154652963782 ], [ -93.301685394119005, 44.941125412140835 ], [ -93.301726704471079, 44.941098120692658 ], [ -93.301772145858351, 44.941102019471757 ], [ -93.301823095292534, 44.94112443744649 ], [ -93.301852012538987, 44.941154652963782 ], [ -93.301875421738501, 44.941189741931673 ], [ -93.301940141290075, 44.94120046355647 ], [ -93.302020007970725, 44.941202412942573 ], [ -93.30213705396821, 44.941191691318146 ], [ -93.302176987308556, 44.941213134565011 ], [ -93.302190757425905, 44.94119948886339 ], [ -93.302230690766237, 44.941201438249536 ], [ -93.302298164341266, 44.94121898272185 ], [ -93.302417964362235, 44.941230679033758 ], [ -93.302462028737793, 44.94122190680006 ], [ -93.302552911512308, 44.941196564784057 ], [ -93.302596975887852, 44.94121898272185 ], [ -93.302660318427655, 44.941224830878106 ], [ -93.302720906944018, 44.941257970418945 ], [ -93.302756709249138, 44.94128136302448 ], [ -93.302931589739543, 44.941302806237857 ], [ -93.303003194349785, 44.941297932780977 ], [ -93.303040373666633, 44.941275514873993 ], [ -93.3030927001126, 44.941291109940643 ], [ -93.30316017368763, 44.941303780929175 ], [ -93.303124371382509, 44.941319375988151 ], [ -93.303106470229935, 44.941339844496632 ], [ -93.303176697828434, 44.941359338307457 ], [ -93.303215254157024, 44.941361287688174 ], [ -93.303295120837703, 44.941346667331175 ], [ -93.303362594412746, 44.941344717949967 ], [ -93.303442461093383, 44.941355439545823 ], [ -93.303483771445443, 44.941353490164886 ], [ -93.303549868008744, 44.941340819187339 ], [ -93.303620095607258, 44.94134179387801 ], [ -93.303569146173032, 44.941391503080816 ], [ -93.303470001328094, 44.941458756639648 ], [ -93.303386003612218, 44.941482149163384 ], [ -93.303313021990249, 44.941502617613821 ], [ -93.303200107027962, 44.941526984807219 ], [ -93.303153820046603, 44.941545906502256 ], [ -93.30313908275987, 44.941554299631569 ], [ -93.303126039414138, 44.941555258846265 ], [ -93.303117569709102, 44.94156389177784 ], [ -93.303099585171267, 44.94156938369909 ], [ -93.303056418438842, 44.941590150270066 ], [ -93.30303934090783, 44.941593994535744 ], [ -93.302971890782743, 44.941603459364281 ], [ -93.302935132262959, 44.941604778283356 ], [ -93.302853145518327, 44.941615329634899 ], [ -93.302815232247909, 44.94161909270484 ], [ -93.302795763266801, 44.941626630370038 ], [ -93.302774673701322, 44.941637331594642 ], [ -93.302750789133171, 44.941637691299633 ], [ -93.302721483953789, 44.941631936019462 ], [ -93.302693022456381, 44.941634444006745 ], [ -93.302628655986709, 44.941634214151264 ], [ -93.302593083225617, 44.94163073700269 ], [ -93.302543366057108, 44.941630197445136 ], [ -93.302523462250321, 44.941630077543451 ], [ -93.302506861628473, 44.941627799411485 ], [ -93.302449691119563, 44.941625701131969 ], [ -93.302440289746997, 44.941621324720131 ], [ -93.302416320481768, 44.941620665260785 ], [ -93.302406919109188, 44.941613830863488 ], [ -93.302392181822455, 44.941616168946858 ], [ -93.302373379077281, 44.941613111453201 ], [ -93.302358387699385, 44.941606277055001 ], [ -93.302322560847159, 44.941604388602713 ], [ -93.302248414365437, 44.941602876944245 ], [ -93.302203392097454, 44.941603489339705 ], [ -93.302159561373941, 44.941594047077231 ], [ -93.302115349513727, 44.941593507519322 ], [ -93.302093243583613, 44.941589280982249 ], [ -93.302042086565251, 44.941586553216922 ], [ -93.302012611991785, 44.941584514886848 ], [ -93.301974159530971, 44.941585354199276 ], [ -93.301929100700249, 44.941585594002824 ], [ -93.301866086094833, 44.941592308501725 ], [ -93.301832207274742, 44.941560654428585 ], [ -93.30176813308492, 44.941531922391448 ], [ -93.301721310603611, 44.941523165112329 ], [ -93.301708888369589, 44.941517729559102 ], [ -93.301680881878298, 44.941516370670712 ], [ -93.301645873764187, 44.941511654528426 ], [ -93.301624643036902, 44.941505739366349 ], [ -93.301567500760328, 44.941505739366349 ], [ -93.301551013067865, 44.941499504465142 ], [ -93.301513520506958, 44.941496466948919 ], [ -93.30142814588028, 44.941492310347527 ], [ -93.301398257232279, 44.941478561586848 ], [ -93.301295039760404, 44.941458524627478 ], [ -93.301246705976993, 44.94144557520584 ], [ -93.301212902443154, 44.941443443613529 ], [ -93.301179941000214, 44.941436932388029 ], [ -93.301125746041535, 44.941424632307871 ], [ -93.301078968174295, 44.941403742692138 ], [ -93.301032089925542, 44.941390479440095 ], [ -93.301004919948355, 44.941360826586973 ], [ -93.300954372191015, 44.941289394411513 ], [ -93.30089690925081, 44.941245815056469 ], [ -93.300888209504365, 44.94123927815037 ], [ -93.300876565228421, 44.941221372708114 ], [ -93.300869672352462, 44.941206167288478 ], [ -93.300863783293366, 44.941160693112273 ], [ -93.300861574896132, 44.94108071847544 ], [ -93.300851469806119, 44.941056860274927 ], [ -93.300848525276592, 44.941005322738476 ], [ -93.300851871332895, 44.940967616938011 ] ] ] ] } }
]
}
