{
"type": "FeatureCollection",
"name": "aragornpath",
"crs": { "type": "name", "properties": { "name": "urn:ogc:def:crs:OGC:1.3:CRS84" } },
"features": [
{ "type": "Feature", "properties": { "id": 56 }, "geometry": { "type": "MultiLineString", "coordinates": [ [ [ -93.305697401583146, 44.942391269823794 ], [ -93.305685156595203, 44.9424013317727 ], [ -93.305706753636528, 44.942408482030402 ], [ -93.305742632592299, 44.942420316937607 ], [ -93.305784433317498, 44.942434370887071 ], [ -93.305975819620599, 44.942498031758809 ], [ -93.306146931133966, 44.94250645718288 ], [ -93.306251085968185, 44.942501191292969 ], [ -93.306395414809884, 44.942518042138978 ], [ -93.306469811120053, 44.9425117230723 ], [ -93.306507009275137, 44.942507510360819 ], [ -93.306535279872989, 44.942508563538709 ], [ -93.306587357290084, 44.94252752073767 ], [ -93.306596284847302, 44.942548584284729 ], [ -93.306582893511461, 44.942573860530985 ], [ -93.306530816094366, 44.94259703041363 ], [ -93.306507009275137, 44.942626519341637 ], [ -93.306477250751072, 44.942717092382971 ], [ -93.306446004300781, 44.942770804235344 ], [ -93.30643856466979, 44.94281819700452 ], [ -93.306446004300781, 44.942858217534678 ], [ -93.306459395636622, 44.942927726810261 ], [ -93.306469811120053, 44.942946683870808 ], [ -93.306474274898648, 44.942960375077305 ], [ -93.306481714529681, 44.94296142824691 ], [ -93.306487666234489, 44.942959321907686 ], [ -93.306481714529681, 44.94294879021048 ], [ -93.306471299046251, 44.94290876974344 ], [ -93.306460883562835, 44.942838207273084 ], [ -93.30646534734143, 44.942761325676798 ], [ -93.306509985127533, 44.942692869374291 ], [ -93.306524864389544, 44.942634944746864 ], [ -93.306563550470813, 44.942598083589893 ], [ -93.306602236552138, 44.942585445473483 ], [ -93.306614139961752, 44.942559116055364 ], [ -93.306609676183129, 44.942521201672051 ], [ -93.306548671208816, 44.942495925402589 ], [ -93.306435588817365, 44.942501191292983 ], [ -93.306377559695449, 44.94250645718288 ], [ -93.306264477303998, 44.942491712689936 ], [ -93.306127588093332, 44.942488553155243 ], [ -93.306063607266623, 44.942489606333503 ], [ -93.305956476580008, 44.942479074550107 ], [ -93.30581819401182, 44.942433294738336 ], [ -93.305697401583146, 44.942391269823794 ] ], [ [ -93.305659325913922, 44.9423780229112 ], [ -93.3058227506489, 44.942265969829428 ], [ -93.305835290866455, 44.942261531727532 ], [ -93.30584434769024, 44.94226991480862 ], [ -93.305836684223962, 44.942276818521528 ], [ -93.305697401583146, 44.942391269823794 ] ], [ [ -93.305697401583146, 44.942391269823794 ], [ -93.305659325913922, 44.9423780229112 ] ], [ [ -93.302405243998891, 44.942196407021768 ], [ -93.302415708192058, 44.942175758359639 ], [ -93.302524492130033, 44.942183013626732 ], [ -93.302581363976017, 44.94219366248484 ], [ -93.30260021104128, 44.942266683172882 ], [ -93.302611122500068, 44.942304597724288 ], [ -93.30263096151613, 44.942307406208563 ], [ -93.302663695892591, 44.942299682876438 ], [ -93.302672623449823, 44.94231161893476 ], [ -93.302684526859423, 44.942345320733068 ], [ -93.30268551881025, 44.94237200130938 ], [ -93.302711309531105, 44.942384639472778 ], [ -93.302735116350362, 44.94246117051393 ], [ -93.302767850726823, 44.942507510360819 ], [ -93.302812488512913, 44.942536999334791 ], [ -93.302931522609157, 44.942568594647263 ], [ -93.303086266934287, 44.942587551826406 ], [ -93.303348141946003, 44.942598083589893 ], [ -93.303520741385569, 44.94260018994234 ], [ -93.303717147644363, 44.942635997922423 ], [ -93.303755833725646, 44.942688656676083 ], [ -93.303842133445414, 44.94285505802015 ], [ -93.303910578050747, 44.943072010946935 ], [ -93.303946288279633, 44.943145732628643 ], [ -93.304024274448025, 44.943223112457673 ], [ -93.304252785079001, 44.94325763044084 ], [ -93.304505679466331, 44.943260589124151 ], [ -93.304539816725224, 44.943331597477737 ], [ -93.304605304528025, 44.943260096010277 ], [ -93.30469796280218, 44.943268478945555 ], [ -93.304717469807258, 44.943266999604127 ], [ -93.304740840872057, 44.943272112434158 ], [ -93.304770599396122, 44.943265793450479 ], [ -93.304842019853879, 44.943270006106339 ], [ -93.30494617468807, 44.943276325089535 ], [ -93.305118774127664, 44.943307919995128 ], [ -93.305184242880571, 44.943282644072049 ], [ -93.305145556799303, 44.943029884229183 ], [ -93.305130677537292, 44.942865589734559 ], [ -93.305142580946907, 44.942743421728643 ], [ -93.305142580946907, 44.942595977237346 ], [ -93.305103894865638, 44.942507510360798 ], [ -93.304856899115933, 44.942052535699546 ], [ -93.304877730082765, 44.942037791090009 ], [ -93.304906000680631, 44.942042003835979 ], [ -93.30496551772876, 44.942038844276546 ], [ -93.305036938186475, 44.942031471970481 ], [ -93.305115798275239, 44.942034631530333 ], [ -93.305202097995021, 44.942063067561179 ], [ -93.305227392740477, 44.942075705792575 ], [ -93.305438678261325, 44.942318991204829 ], [ -93.305504147014261, 44.942352692998838 ], [ -93.305644749227483, 44.94238801749762 ], [ -93.305659325913922, 44.9423780229112 ] ], [ [ -93.305659325913922, 44.9423780229112 ], [ -93.30564261871983, 44.942372210308442 ], [ -93.305694601568277, 44.942261066200196 ], [ -93.305687161937257, 44.942250534374892 ], [ -93.305679722306223, 44.942255800287782 ], [ -93.305667818896609, 44.942266332112112 ], [ -93.305618717331924, 44.94235901208301 ], [ -93.305544321021756, 44.942344267552187 ], [ -93.305460997154398, 44.942305299845387 ], [ -93.305426774851725, 44.94227897029878 ], [ -93.305353866467755, 44.942189449750018 ], [ -93.305255663338357, 44.942084131278634 ], [ -93.30516489983998, 44.942029365597165 ], [ -93.30499081247423, 44.942011461420734 ], [ -93.304932783352299, 44.942020940103063 ], [ -93.30492534372128, 44.941956695669937 ], [ -93.30492534372128, 44.941929312774953 ], [ -93.304946174688126, 44.941897717110663 ], [ -93.304968493581157, 44.941829259778402 ], [ -93.305005691736227, 44.941781866192841 ], [ -93.305011643441063, 44.941731312991791 ], [ -93.304996764179023, 44.941706036374576 ], [ -93.305010155514864, 44.941675493780615 ], [ -93.305023546850677, 44.94162388729179 ], [ -93.304989324547989, 44.94158386590118 ], [ -93.304953614319132, 44.941551216851337 ], [ -93.304931295426101, 44.941522780566977 ], [ -93.304926831647478, 44.941469067547004 ], [ -93.30493575920471, 44.941419567268426 ], [ -93.304904512754447, 44.941337417775742 ], [ -93.304859874968344, 44.941301608985718 ], [ -93.304897073123428, 44.941263693771951 ], [ -93.304839044001511, 44.941250002160835 ], [ -93.304804821698838, 44.941255268165499 ], [ -93.304786966584373, 44.941248948959846 ], [ -93.304724473683862, 44.941240523351205 ], [ -93.304656029078529, 44.941213140114655 ], [ -93.304593536177975, 44.941199448491474 ], [ -93.30455633802292, 44.941200501693359 ], [ -93.304529555351266, 44.941195235683679 ], [ -93.304483429638964, 44.941115192276953 ], [ -93.304449207336305, 44.941024616708432 ], [ -93.304456646967296, 44.940986701311751 ], [ -93.304452183188701, 44.94090244478501 ], [ -93.304441767705285, 44.940838199100298 ], [ -93.304388202361977, 44.940762368035649 ], [ -93.30431678190422, 44.94071813320172 ], [ -93.304258752782303, 44.940709707515182 ], [ -93.304066810302118, 44.940707601093372 ], [ -93.303990926065751, 44.940715500174811 ], [ -93.303899418604303, 44.940716553385585 ], [ -93.303767737135303, 44.940708654304288 ], [ -93.303697804603772, 44.940700755221911 ], [ -93.303641263408053, 44.940684957053882 ], [ -93.303622664330504, 44.940670738698934 ], [ -93.303586210138519, 44.940628610219179 ], [ -93.303576538618231, 44.940611232212284 ], [ -93.303546036131067, 44.940601226690788 ], [ -93.303516277606988, 44.940599120264977 ], [ -93.303487263046023, 44.940583322068974 ], [ -93.303476103599507, 44.940564890834835 ], [ -93.303454528669576, 44.940493798876254 ], [ -93.303458248485057, 44.940300533625425 ], [ -93.303428489961021, 44.940145710312116 ], [ -93.303350373835357, 44.939964555973326 ], [ -93.30330722397548, 44.939903468916256 ], [ -93.303302760196857, 44.939887143915861 ], [ -93.303312431717174, 44.939863972939591 ], [ -93.303327310979213, 44.939854493901159 ], [ -93.303352605724655, 44.939846594701251 ], [ -93.303375668580827, 44.939837642273389 ], [ -93.303378644433224, 44.939825530162885 ], [ -93.303356325540179, 44.939806572071753 ], [ -93.303329542868511, 44.93979709302382 ], [ -93.303285649045549, 44.939736005788596 ], [ -93.303182238174415, 44.93968018463751 ], [ -93.303069899746077, 44.939643848198678 ], [ -93.303017822328982, 44.939635422354506 ], [ -93.302933010535398, 44.939633842508584 ], [ -93.302836295332199, 44.939649640965833 ], [ -93.302723212940776, 44.939694929852514 ], [ -93.302648816630622, 44.939724420271148 ], [ -93.302597483176612, 44.939743905003731 ], [ -93.302457618113536, 44.939763389729691 ], [ -93.302304361714604, 44.939769182484781 ], [ -93.302148129463305, 44.939762336501417 ], [ -93.302038022924251, 44.939755490517264 ], [ -93.301984457580957, 44.939749171146531 ], [ -93.301883278599135, 44.939721260584172 ], [ -93.301857239890609, 44.939712308136755 ], [ -93.301825249477218, 44.939708095219842 ], [ -93.301706959344088, 44.93968966370474 ], [ -93.301483770413668, 44.939750750989298 ], [ -93.30128141245001, 44.93986976568457 ], [ -93.301122204346314, 44.94004460098423 ], [ -93.30105227181474, 44.940183626264222 ], [ -93.301026977069313, 44.940318438335431 ], [ -93.301024001216902, 44.94044271793318 ], [ -93.301092445822249, 44.940554358698385 ], [ -93.301128156051092, 44.94068074420835 ], [ -93.30105971144576, 44.940765001060434 ], [ -93.301026977069313, 44.940800810185138 ], [ -93.30103008244906, 44.940898393431581 ], [ -93.301027087297399, 44.940898088537764 ], [ -93.301002184464124, 44.940893564764202 ], [ -93.300994598082127, 44.940890388195733 ], [ -93.300984193519469, 44.940886218949338 ], [ -93.300964145703631, 44.940877247032645 ], [ -93.300859949818715, 44.940863408628353 ], [ -93.300814571767901, 44.940857282385785 ], [ -93.300709891462702, 44.940849625644425 ], [ -93.300680897769695, 44.94084804138609 ], [ -93.300653931034432, 44.9408475922558 ], [ -93.300636006086862, 44.940847199266791 ], [ -93.300639495899702, 44.940860729315382 ], [ -93.300675663050541, 44.940926302285774 ], [ -93.300685180721828, 44.940951453542219 ], [ -93.300683277187574, 44.940973910011884 ], [ -93.300650282593807, 44.940984689114202 ], [ -93.300609039351627, 44.94099097692294 ], [ -93.300581755360639, 44.941004001667451 ], [ -93.300567161598025, 44.941021966827442 ], [ -93.300569065132279, 44.941047118041979 ], [ -93.300569065132279, 44.941070921859875 ], [ -93.30057414122362, 44.941088437870519 ], [ -93.300580486337807, 44.941106403004078 ], [ -93.300563989040924, 44.941118080337887 ], [ -93.300538608584205, 44.941123469875762 ], [ -93.300506248501861, 44.941130655925477 ], [ -93.300494192784925, 44.941142333254348 ], [ -93.300496096319179, 44.941152214069234 ], [ -93.30043645224589, 44.941196228587593 ], [ -93.300425665551771, 44.94121194805026 ], [ -93.300433914200212, 44.941223625362596 ], [ -93.300442162848654, 44.941225870999304 ], [ -93.300563989040967, 44.941249674743098 ], [ -93.300599521680383, 44.941261801174811 ], [ -93.300619191534338, 44.941278868000303 ], [ -93.300616653488675, 44.941314349015997 ], [ -93.30059317656621, 44.94132872106676 ], [ -93.300574775735058, 44.941348033504283 ], [ -93.300579851826399, 44.941362854672875 ], [ -93.300582389872076, 44.9414059707779 ], [ -93.300593811077604, 44.941424384937889 ], [ -93.300657262219431, 44.94147872913171 ], [ -93.300638861388279, 44.941491753765568 ], [ -93.300616018977223, 44.941497592393581 ], [ -93.300611577397305, 44.94150926964781 ], [ -93.300614115442968, 44.941523192524762 ], [ -93.300626171159919, 44.941536217148538 ], [ -93.300664241845013, 44.941555529516272 ], [ -93.300704216064375, 44.941570799755929 ], [ -93.300708023132884, 44.941581129621625 ], [ -93.30069913997302, 44.941595052481155 ], [ -93.300705485087221, 44.94160493321813 ], [ -93.300722616895513, 44.941613915704806 ], [ -93.30075941855776, 44.941617508699089 ], [ -93.300785433525917, 44.941621101693137 ], [ -93.300797489242868, 44.941629185928932 ], [ -93.300799392777122, 44.941644905273058 ], [ -93.300813986539751, 44.941661522860741 ], [ -93.300815255562583, 44.941684428176409 ], [ -93.300812083005496, 44.941696105392651 ], [ -93.300820331653938, 44.941709579100738 ], [ -93.300831118348057, 44.941717663324077 ], [ -93.300846981133489, 44.941722154558782 ], [ -93.300857767827608, 44.941729789656961 ], [ -93.300856498804777, 44.941741017740668 ], [ -93.300843174064994, 44.941741466863967 ], [ -93.300829214813788, 44.941742814233855 ], [ -93.300754976977856, 44.941759431793194 ], [ -93.300746728329415, 44.941770210748039 ], [ -93.300731500055377, 44.941775151101666 ], [ -93.300682642676165, 44.941795810757661 ], [ -93.300670586959214, 44.941806589705678 ], [ -93.300671221470637, 44.941821410755885 ], [ -93.300701678018726, 44.941833537066842 ], [ -93.300711195689985, 44.94184566337524 ], [ -93.300706754110081, 44.94185913704824 ], [ -93.300704850575812, 44.941873958084877 ], [ -93.300711195689985, 44.941883838773848 ], [ -93.300768936229062, 44.941912133464669 ], [ -93.300767667206216, 44.941918870293762 ], [ -93.300775281343249, 44.941927852731325 ], [ -93.300786702548763, 44.941931445705961 ], [ -93.300793682174358, 44.94193952989805 ], [ -93.300791144128695, 44.941948512332381 ], [ -93.300763225626298, 44.941954350913939 ], [ -93.300725789452613, 44.941965578953734 ], [ -93.300706119598644, 44.942025312088511 ], [ -93.300708023132913, 44.942038785719348 ], [ -93.300720713361258, 44.942056301434704 ], [ -93.300720078849849, 44.94207157154117 ], [ -93.300714368247085, 44.942080160974264 ], [ -93.300705643715091, 44.94208723462409 ], [ -93.300683911699011, 44.942082799558044 ], [ -93.300661069287955, 44.942089536367106 ], [ -93.300647268664576, 44.94209840649782 ], [ -93.300650758477389, 44.942117269556086 ], [ -93.300626647043487, 44.942134560687386 ], [ -93.300591748915494, 44.942140623810111 ], [ -93.300557168043198, 44.942146686932205 ], [ -93.30052988405221, 44.942153199173745 ], [ -93.300499427504135, 44.942166448214572 ], [ -93.300457867006202, 44.942182167411588 ], [ -93.300432486549482, 44.942191149807954 ], [ -93.300404568047085, 44.942196539245089 ], [ -93.300369035407641, 44.942201030442334 ], [ -93.300339847882412, 44.942202826921125 ], [ -93.300278934786263, 44.942213156673105 ], [ -93.300237691544069, 44.942218995227755 ], [ -93.300191372210534, 44.942221240825539 ], [ -93.300162819196714, 44.942218546108187 ], [ -93.300158377616782, 44.942206419878552 ], [ -93.300158377616782, 44.942198335724029 ] ] ] } }
]
}
