{
"type": "FeatureCollection",
"name": "bay_of_belfalas",
"crs": { "type": "name", "properties": { "name": "urn:ogc:def:crs:OGC:1.3:CRS84" } },
"features": [
{"type":"Feature","properties":{"id":1},"geometry":{"type":"MultiPolygon","coordinates":[[[[-93.311110266440792,44.939277579175737],[-93.311094613516531,44.939279720152172],[-93.311092843850886,44.939284137454877],[-93.311074122651632,44.939284401174433],[-93.311068534233954,44.939282225488071],[-93.311063877219212,44.939286247211271],[-93.311045808002007,44.939286445000917],[-93.311040592145531,44.939290400793951],[-93.311020287561249,44.939290400793951],[-93.311002218344044,44.939302004451896],[-93.310986011932727,44.939300553994777],[-93.310971109485564,44.939308465578591],[-93.310951922584835,44.939309124877191],[-93.310945216483603,44.939315190423983],[-93.310920441165152,44.93931532228369],[-93.310904979876227,44.939324816181696],[-93.310889332306672,44.939323102005794],[-93.310878528032461,44.939327717094656],[-93.31085393899464,44.939329167551087],[-93.310850399663423,44.939323365725151],[-93.310830467640358,44.939323497584837],[-93.310820222207923,44.939317563898634],[-93.310798054817738,44.939316377161326],[-93.310758563332726,44.939315849722497],[-93.310735650820206,44.939322838286401],[-93.310716463919434,44.939333518920151],[-93.3107064047676,44.93934327653443],[-93.310684982499794,44.939357253654698],[-93.310666913282617,44.93935778109315],[-93.310655363886056,44.939369384737461],[-93.310645863575957,44.939381383958107],[-93.310632078812333,44.939394306192924],[-93.310619970573981,44.93939483363102],[-93.31060395044328,44.939410656771578],[-93.310605068126833,44.939433600317656],[-93.310588302873725,44.939434127755383],[-93.310574518110116,44.939451005760269],[-93.310571537620675,44.939492673313609],[-93.310576380916018,44.939504276930684],[-93.310601715076217,44.93951245220493],[-93.310645677295383,44.939513770797447],[-93.310649030345999,44.939516407982374],[-93.310609404511837,44.939529616598485],[-93.310596871780859,44.939535923147126],[-93.310548438827553,44.939546208163705],[-93.310527575401508,44.939544362135223],[-93.310511927831953,44.939540406359704],[-93.310504476608386,44.93952827531308],[-93.310487338794132,44.939522473507267],[-93.310445239380869,44.939517199137825],[-93.310438160718448,44.939461554510821],[-93.310410591191186,44.939448632291146],[-93.310401649722891,44.93941856834023],[-93.310362344518481,44.939380065362556],[-93.310339618286534,44.939371626350294],[-93.310328837817366,44.939361240199219],[-93.31032173534993,44.939362000600426],[-93.310313911565174,44.939373472384339],[-93.31030497009688,44.939367011264949],[-93.310295469786766,44.939370571473681],[-93.310292675577927,44.939377691890485],[-93.310282057584331,44.939384021149102],[-93.310278704533715,44.939389559249847],[-93.310275351483099,44.939403701183231],[-93.310265012910378,44.939412898382791],[-93.310250343313939,44.939412403909742],[-93.310238433349738,44.939420971253959],[-93.310227989643195,44.939422688948447],[-93.310219048174886,44.939434556298515],[-93.310215136282494,44.939451170584491],[-93.310210572408039,44.939462971998999],[-93.310201351518856,44.939467455217276],[-93.310187194194043,44.939481432307325],[-93.310173409430419,44.93948037743273],[-93.310167448451537,44.939491453615076],[-93.310151800882011,44.939490926177861],[-93.310135487704514,44.93950138472988],[-93.310105230734607,44.939508331603115],[-93.310049253417375,44.939516375017547],[-93.310022056451274,44.93952916536275],[-93.310020567309437,44.939550419697575],[-93.310010134493538,44.93955303187559],[-93.310003242111705,44.939557646945993],[-93.310001006744628,44.939593512623297],[-93.310004546075803,44.939611049876468],[-93.310015909191776,44.939617774686418],[-93.310021125048294,44.939623972059593],[-93.309996163449313,44.939629114560233],[-93.309976045145604,44.939628587124282],[-93.309945867690089,44.939643355328826],[-93.309926494508758,44.939628059688339],[-93.309901905470909,44.939630960585994],[-93.309867257281255,44.939616456096289],[-93.309858315812946,44.939600633012454],[-93.309845648732832,44.939598259549491],[-93.309838197509237,44.939577689533138],[-93.309783058454698,44.939567668240421],[-93.30975176331566,44.939551845143143],[-93.309716276863313,44.939541626057171],[-93.309696344840205,44.939542285353085],[-93.309683957180994,44.939540768972456],[-93.309667843909963,44.939537406563062],[-93.309651544358402,44.939543010578589],[-93.309630680932344,44.939543274296959],[-93.309607768419795,44.939558042523437],[-93.309591132313471,44.939558787673555],[-93.309580198892547,44.939560811565478],[-93.309557845221789,44.939575843505658],[-93.309516377551233,44.939577619857552],[-93.30950550037609,44.93957966741965],[-93.309474577798213,44.939578216969544],[-93.309469734502869,44.939581645306085],[-93.309454086933357,44.939581645306085],[-93.309451292724503,44.939575052351017],[-93.309441233572656,44.939573470041687],[-93.309437507960851,44.939578216969544],[-93.309427262528402,44.939577425814925],[-93.30941962502429,44.93957017356378],[-93.309392241777601,44.939567931958685],[-93.309371966115776,44.939576207453264],[-93.309357966149108,44.939578612546853],[-93.309344740227203,44.939587710824071],[-93.309335239917147,44.93959984185814],[-93.309321455153508,44.939599973717193],[-93.309311396001661,44.939605379938058],[-93.309292395381519,44.939610918017443],[-93.309277120373167,44.939608544554915],[-93.309251153966798,44.939603864922319],[-93.309236511204631,44.939606434810351],[-93.309207451432613,44.939598523267598],[-93.309168332508747,44.939596809099868],[-93.309151474115382,44.939592128103079],[-93.309146723960339,44.939582700178825],[-93.309136851089107,44.939582172742448],[-93.309130051847575,44.939587315246825],[-93.309118223030154,44.939588040471776],[-93.309078545264541,44.939583161685626],[-93.309034583045374,44.939584612135597],[-93.309028622066521,44.939569975775086],[-93.309020984562324,44.93955718543895],[-93.309011670532854,44.939554020819259],[-93.30899900345274,44.939558504030437],[-93.308986150092068,44.939567206733471],[-93.30898074795499,44.93957881033549],[-93.308977394904332,44.939592523680282],[-93.308977022343157,44.939615994589737],[-93.308980002832612,44.939619950360061],[-93.308980375393773,44.939626015873998],[-93.308968825997198,44.939638938053754],[-93.308968825997198,44.93966583727574],[-93.308975345817856,44.939679550599756],[-93.308978326307297,44.939685879825113],[-93.308974041853759,44.939697747120789],[-93.308954109830651,44.93969906570905],[-93.308949266535336,44.939719371964372],[-93.308940697628216,44.939743106539424],[-93.308936599455237,44.939755764975438],[-93.30892728542571,44.939777653514454],[-93.308929893353991,44.93978846592222],[-93.308912010417373,44.93980217921694],[-93.308897107970211,44.939803102227053],[-93.308889390444762,44.939794054855405],[-93.308879970155942,44.939796245580204],[-93.308851655506302,44.939818925255111],[-93.308815517071949,44.939846351826709],[-93.308806948164829,44.939866394313064],[-93.308784594494071,44.939867185463697],[-93.308755534722081,44.939881953606857],[-93.308758515211522,44.939914654481775],[-93.308723494460651,44.939956321698638],[-93.308693689566326,44.939983748204618],[-93.308631099288192,44.940021195912792],[-93.308631099288192,44.940021195912792],[-93.308638550511802,44.939989022531208],[-93.308642276123564,44.939975836713842],[-93.308651217591859,44.939935751810552],[-93.30864823710246,44.939900413780478],[-93.308637805389424,44.939896194312752],[-93.308637805389424,44.939884063341296],[-93.308659413937832,44.939873514668385],[-93.308668355406127,44.939859801390703],[-93.308669845650826,44.939833957127696],[-93.308687728587429,44.939812332327271],[-93.308688473709807,44.939793344690919],[-93.308700395667543,44.939778576524965],[-93.308699650545179,44.939748512746817],[-93.308689218832171,44.93973216226437],[-93.308669100528491,44.939691022320225],[-93.308659413937789,44.939685220530855],[-93.308635570022346,44.939666760288063],[-93.308635818396425,44.939660079436813],[-93.30862017082687,44.939656035763299],[-93.308586143572512,44.93963546576763],[-93.308586143572512,44.939628784912756],[-93.308570247628865,44.939626675168952],[-93.30856304477939,44.939617357132882],[-93.30854466509453,44.93960663259891],[-93.308524943281441,44.939596072399937],[-93.308514860200219,44.939597314559578],[-93.308493003277704,44.939589578827665],[-93.3084751203411,44.939599424304468],[-93.308471891477552,44.939610500463857],[-93.308457734152711,44.939619818501036],[-93.308441341460835,44.939626499356962],[-93.308408307702933,44.939619994313048],[-93.308388934521616,44.939615774824695],[-93.308364345483781,44.939605929350705],[-93.308345220676571,44.939612786020284],[-93.308320383264629,44.939609093967533],[-93.308272447059551,44.939605401914548],[-93.308263257217135,44.939601534049281],[-93.308254849568812,44.939612241258544],[-93.308233700696917,44.939614719952573],[-93.308230337814265,44.939626444924265],[-93.308208118162611,44.939629136536709],[-93.30819520270839,44.939623158929102],[-93.30818154213182,44.939628784912756],[-93.308164221427219,44.939626249153498],[-93.308142795769143,44.939628784912756],[-93.308132115682028,44.939624565425056],[-93.308119448601914,44.93961559901269],[-93.308088153462833,44.939614719952573],[-93.308072754267428,44.939619642689017],[-93.308062511137933,44.939630304616493],[-93.308054374582568,44.939631246280427],[-93.308038975387191,44.93963722388721],[-93.308033511156566,44.939642498245604],[-93.308016124968191,44.939647772603536],[-93.307996255038631,44.939655332515706],[-93.307973156245509,44.9396648263575],[-93.307956266805363,44.939672386267425],[-93.307944593221762,44.939669397465941],[-93.307937887120502,44.939674935539152],[-93.30789864400964,44.9396766057516],[-93.307888212296604,44.939681264765021],[-93.30787579359064,44.939677045281172],[-93.307842014710374,44.939676342033842],[-93.307813608490704,44.939673461518289],[-93.307813608490704,44.939673461518289],[-93.307804261844225,44.939674583915455],[-93.307797230094138,44.939686834084903],[-93.307785385411151,44.939688297237389],[-93.307776443942842,44.939698494320794],[-93.30777048296396,44.939709043025864],[-93.307756077265026,44.939706230038034],[-93.30774862604143,44.939722053092787],[-93.307726769118901,44.939717481988524],[-93.307703421951686,44.939728382313447],[-93.307687029259796,44.939743150492326],[-93.307677591043259,44.939751941073176],[-93.307663185344282,44.939762841391563],[-93.307662650647998,44.939774632956109],[-93.30765176013476,44.939776203069357],[-93.307636360939355,44.939792026104818],[-93.307619968247494,44.939807497513051],[-93.307613510520383,44.939830352994854],[-93.307602582059118,44.939844417902215],[-93.307602582059189,44.939860768352709],[-93.307593243334168,44.939868373985732],[-93.307586189367285,44.939869558915561],[-93.307580476762524,44.9398678008031],[-93.307559364962387,44.939856548882062],[-93.307547443004623,44.939855669825647],[-93.307541978774012,44.939863053899181],[-93.307521860470302,44.939862878087915],[-93.30751091940806,44.93987536874085],[-93.307498264928967,44.93987747042096],[-93.307484852726517,44.939887667470778],[-93.307466969789886,44.939887315848409],[-93.307466969789886,44.939887315848409],[-93.307452564090966,44.939893996673206],[-93.307450080349781,44.939888898149078],[-93.307439648636773,44.939886612603651],[-93.307432026990512,44.9398913752268],[-93.307424746189596,44.939892590183838],[-93.307419778707185,44.939887491659597],[-93.307382274215129,44.939888194904348],[-93.307363149407948,44.939899095196871],[-93.307339553866555,44.939899974252619],[-93.307309003524281,44.939916323716503],[-93.307294349776797,44.939918786042625],[-93.307277957084906,44.939925818485897],[-93.307256100162391,44.939926170108052],[-93.307251560674487,44.939932940728049],[-93.307234491613968,44.939935839716092],[-93.307228779009236,44.939942520535254],[-93.307205928590221,44.939952014329549],[-93.30720493509375,44.939959750012633],[-93.307180097681808,44.939959046768756],[-93.307172890716174,44.939969588528555],[-93.307142841563874,44.939974869753833],[-93.307126650370279,44.939989135175281],[-93.307110056180093,44.939992099221506],[-93.307104981971989,44.939998459326205],[-93.307094408610581,44.94000036233173],[-93.30709142812114,44.940022162872111],[-93.307074538681022,44.940021459628994],[-93.307064603716242,44.940028843681219],[-93.307047714276123,44.940025679087526],[-93.307045975657275,44.940032535706976],[-93.307025608979458,44.94004255691852],[-93.307009961409932,44.940051699074914],[-93.306998287826332,44.940046248943396],[-93.306990408510515,44.940055529080993],[-93.306969724802585,44.940059434744576],[-93.306951593491846,44.940071917300216],[-93.306936691044655,44.940069631762064],[-93.306933213807,44.940074378648909],[-93.306915082496275,44.940073675406431],[-93.306904650783238,44.940080707830745],[-93.306887761343077,44.940080180398944],[-93.306869878406474,44.940090729033884],[-93.30685398246284,44.940099871182603],[-93.306841563756834,44.940097058213929],[-93.30681573284842,44.940122374927093],[-93.306813044667877,44.94013209875979],[-93.306801823897729,44.940134330037765],[-93.306790895436464,44.940141362454646],[-93.30678864796117,44.940146704894474],[-93.306774999492816,44.940149449732985],[-93.306768541765706,44.940156482148005],[-93.306746684843162,44.940165975906929],[-93.306730292151286,44.940162459700105],[-93.306718866941779,44.94016949211354],[-93.306701480753404,44.94016667914827],[-93.306683101068572,44.940158591872354],[-93.306649322188306,44.940154724044326],[-93.306638393727056,44.940139955971333],[-93.306656276663645,44.940121671685212],[-93.306672420981428,44.940106200361647],[-93.306690800666289,44.940088443496478],[-93.306697010019249,44.940065060685477],[-93.306688565299169,44.940034469625132],[-93.306680368953252,44.940004054359321],[-93.3066607473978,44.939984011921005],[-93.306633064169787,44.93997987101978],[-93.306598819450656,44.939985242597238],[-93.306581267679519,44.939982898451994],[-93.306557092598581,44.939991571788902],[-93.306544839475336,44.939984539353674],[-93.306511722926047,44.939994384762748],[-93.306491190665497,44.940001651611233],[-93.306449719379188,44.940000469742003],[-93.306423964070504,44.940004464584582],[-93.306392834514142,44.939997666565397],[-93.306382237218372,44.939983015659273],[-93.306369652929632,44.939979030612157],[-93.306364685447221,44.939983015659273],[-93.306331237732493,44.939977389710307],[-93.306311698968429,44.939986180255303],[-93.306293981614601,44.9399758660157],[-93.306281728491328,44.939981843586615],[-93.306271627943829,44.939974576735636],[-93.306261030648045,44.939973990699215],[-93.306258546906861,44.939979851063043],[-93.306247287280101,44.939979499441236],[-93.306220462196549,44.939961212671918],[-93.306195294297723,44.939964731323151],[-93.306180060685065,44.939960746274764],[-93.306171119216771,44.939971294931652],[-93.306163776606013,44.939981420437704],[-93.306150918121716,44.93998325007378],[-93.306142149516518,44.939996975432102],[-93.306131710523132,44.939998487016027],[-93.306120782061868,44.940010442152499],[-93.306092771831743,44.940011386634652],[-93.306078392878803,44.940013489539822],[-93.306068126748528,44.940019115485235],[-93.306054548963317,44.940040212775621],[-93.306050906142872,44.940055215288524],[-93.306044613998537,44.940073265181645],[-93.306014809104198,44.940084517060207],[-93.306002224815472,44.940094362452136],[-93.305981858137685,44.940103621807289],[-93.305968114769698,44.94010069163177],[-93.305937978709864,44.940110654227936],[-93.305922082766187,44.940121437271237],[-93.305902212836642,44.940136439762917],[-93.30588202983634,44.940148625405584],[-93.305865122301455,44.940151442250659],[-93.305840616054994,44.940144878662764],[-93.305830018759224,44.940155192871991],[-93.305817728839855,44.940180249099832],[-93.305809192129374,44.940185249925712],[-93.305790941231095,44.94017920726106],[-93.305765331099664,44.940166913562052],[-93.305749140786688,44.940153369653324],[-93.305738543490904,44.940141284316681],[-93.305708033060327,44.940136934007555],[-93.305679375256204,44.940141492684589],[-93.305638457919756,44.940156078435329],[-93.30560843224842,44.940145451674425],[-93.305572813559849,44.940142326156156],[-93.30555838946286,44.940151494342622],[-93.305536606132662,44.940147743721056],[-93.305523065143632,44.940153786389011],[-93.305476554789976,44.940155453331791],[-93.305445351641325,44.94017212275687],[-93.305408849844781,44.940183791351544],[-93.305366460661702,44.940182957880566],[-93.305352919672686,44.940164204780558],[-93.305335257513065,44.940161287631113],[-93.305317375572415,44.940174150673386],[-93.305298166977849,44.940177123583446],[-93.305271379369088,44.940190042383428],[-93.305232467873935,44.940189448841558],[-93.305200436361332,44.940194418105328],[-93.305120367904394,44.940194209737626],[-93.305120367904408,44.940194209737626],[-93.305089164755756,44.940210462416154],[-93.30505766723779,44.940211712622016],[-93.305038238862195,44.94022213100304],[-93.305008801929532,44.940234633057777],[-93.304970533917029,44.940257970219349],[-93.304920491131455,44.94028630818849],[-93.30486575702146,44.940323036453279],[-93.304848665015697,44.940325897974901],[-93.304934032120499,44.940253802869748],[-93.30496759022374,44.940225048149394],[-93.304979364996825,44.94020879547498],[-93.305011745622792,44.940180874203079],[-93.305041771294114,44.940167538665449],[-93.305073563181423,44.940143784731369],[-93.305089459125099,44.940123364674896],[-93.305095346511621,44.940079190650373],[-93.305090636602415,44.94003501659185],[-93.305098878943539,44.940004178078027],[-93.305099467682197,44.939963337858536],[-93.305124194705655,44.939953336167704],[-93.305125372182985,44.939937500153661],[-93.305143623081264,44.9399241645595],[-93.305151276683759,44.939904577899959],[-93.305176003707217,44.939906661587457],[-93.305198375776044,44.939922497610013],[-93.305190722173535,44.939932082568909],[-93.305192488389523,44.939960837436004],[-93.30520249694662,44.939975839969641],[-93.305246652345673,44.939990842499355],[-93.305277266755667,44.939994176394315],[-93.305339673052956,44.939994176394315],[-93.305382062236035,44.939986258393461],[-93.305410321691397,44.939962087647274],[-93.305419741509866,44.939938750365464],[-93.305422685203197,44.939902910949918],[-93.305442407948064,44.939894784567691],[-93.305449472811944,44.93988853350367],[-93.305454182721164,44.939871238889623],[-93.305458009522425,44.939866863143081],[-93.30547949848328,44.939852485687808],[-93.305488329563104,44.939845192774349],[-93.305490978887022,44.93980622776381],[-93.305486857716431,44.939794142354096],[-93.305469195556853,44.939778514665349],[-93.30546301380096,44.939772680327131],[-93.305450650289188,44.939763095341632],[-93.305450061550573,44.939732465051129],[-93.305445351641325,44.939717254084464],[-93.305429750067006,44.939708085828634],[-93.305417386555291,44.939703501700187],[-93.305407966736809,44.939707877459171],[-93.30539089331586,44.939714962020652],[-93.305378824173459,44.939722671689495],[-93.305354337162484,44.939721729744974],[-93.305336729359695,44.93972308842833],[-93.305317300984143,44.93971454528176],[-93.30530554667618,44.939711348591871],[-93.305287864051436,44.939712669956741],[-93.305281093556943,44.939708294198105],[-93.305267552567912,44.939716837345607],[-93.305256955272128,44.939714336912324],[-93.305245180499057,44.939720379625889],[-93.305238998743178,44.939723921905973],[-93.305228853841214,44.939739723788399],[-93.305209856179829,44.939741216564371],[-93.305203391490892,44.939752123095715],[-93.305191310912235,44.939753093615913],[-93.305189773654803,44.939756439050633],[-93.305171882536641,44.93975788610971],[-93.305153042899747,44.939743925365818],[-93.305161285240885,44.939725172122415],[-93.305161873979543,44.939692041377427],[-93.305170999428682,44.939676830400053],[-93.305173943121929,44.939649742348195],[-93.30519013343492,44.939637031796366],[-93.305211916765103,44.939623904502184],[-93.305210444918487,44.93959327413743],[-93.30520632374791,44.93956056005635],[-93.30521544919705,44.939558476356289],[-93.305231050771368,44.939546390894428],[-93.30523811563522,44.939535972390779],[-93.305237232527233,44.939470127404022],[-93.305242825544411,44.939439496957235],[-93.305216626674337,44.939421160355401],[-93.305215154827692,44.939409699976295],[-93.305205735009253,44.939403240488886],[-93.305196020821441,44.939382195057114],[-93.305188661588289,44.939357190573681],[-93.305183068571068,44.939337395349909],[-93.305168055735422,44.939329268887654],[-93.305167761366093,44.939322184278595],[-93.305141562495976,44.939304264381178],[-93.305140385018689,44.939296554656146],[-93.305130376461548,44.939286552849168],[-93.305113303040585,44.939278426379708],[-93.30510358885283,44.939283427284124],[-93.305097407096966,44.93927925986381],[-93.305079744937345,44.93928676122016],[-93.305073268728819,44.939290492378724],[-93.305064143363026,44.93929051189798],[-93.305053546067256,44.93928446913916],[-93.305040299447541,44.939289053301081],[-93.305035589538292,44.939284260768147],[-93.305019693594659,44.93928092683197],[-93.305008801929574,44.939273217103818],[-93.305003208912325,44.939259047870983],[-93.304990551031267,44.939247379088371],[-93.304989079184637,44.939240711211539],[-93.304979659366182,44.939234043333926],[-93.304978187519566,44.939222791288707],[-93.304959055262472,44.939216035808059],[-93.304946984370915,44.939215915037742],[-93.304941391353694,44.93920966389981],[-93.30493962513772,44.939191952338625],[-93.304923140455415,44.93916694777235],[-93.304919019284839,44.939151736655873],[-93.304912837528974,44.93913423344835],[-93.304904300818492,44.939129232530945],[-93.304903417710506,44.939117980465184],[-93.304890759829462,44.939120272552827],[-93.304884377818368,44.939111420962234],[-93.304872508931183,44.939111104201672],[-93.304867724958967,44.939102844899566],[-93.304850136862328,44.939102352592393],[-93.304833063441379,44.939094851211948],[-93.304833063441379,44.939083390767706],[-93.304840717043874,44.939074430782433],[-93.304863677851358,44.939062136846879],[-93.30488104564165,44.939061303359637],[-93.304898707801257,44.939047550818231],[-93.304899590909244,44.938992332247643],[-93.304885682723551,44.938981012572434],[-93.304873980777799,44.938980455038717],[-93.304858557179685,44.93896892560506],[-93.304843071998476,44.938968161083046],[-93.304822760514909,44.938959201079804],[-93.304802154662028,44.938960868057251],[-93.304780665701159,44.938954616891536],[-93.304768890928088,44.938939405718813],[-93.304764181018854,44.938904815913773],[-93.30475770489366,44.938901898700344],[-93.304738820532222,44.938891850244971],[-93.304722380574432,44.938890854962466],[-93.304702657829537,44.938897731252347],[-93.304696476073659,44.9389081498718],[-93.30467940265271,44.938923152680481],[-93.304675867790976,44.938937136634578],[-93.3046596799078,44.938936280134882],[-93.304649376981345,44.938942739674822],[-93.304638190946946,44.93893815548526],[-93.30462494432723,44.938945240141706],[-93.304605515951636,44.938939197346564],[-93.304573724064369,44.938941697813597],[-93.304552235103486,44.93894628200286],[-93.304529568665316,44.93894899084183],[-93.304519265738861,44.938942322930345],[-93.304505534948291,44.938951752126485],[-93.304483352680975,44.938950657819589],[-93.304455681964242,44.938959409451989],[-93.304453840821921,44.938965210405122],[-93.304445673407145,44.938964827128515],[-93.30443684232732,44.938975245735804],[-93.304432721156729,44.938986497829532],[-93.304420946383686,44.938991082015242],[-93.304410349087917,44.939006084802266],[-93.30440092926942,44.939035881992638],[-93.304398574314774,44.939047967561955],[-93.304386505172403,44.939054427089339],[-93.304382678371141,44.939063387077738],[-93.304365604950192,44.939085682856735],[-93.304353130565843,44.939099459163678],[-93.304328514414991,44.939098810273975],[-93.304305553607506,44.939111937688196],[-93.304293190095805,44.939124648356263],[-93.304292306987819,44.939140692966021],[-93.304285229648912,44.939150196221867],[-93.304267285595017,44.939149861312451],[-93.304244619156862,44.939169031486621],[-93.304230195059844,44.939163197086451],[-93.304215182224155,44.939168614743764],[-93.304186334030149,44.939171740315061],[-93.304169260609186,44.939178408199894],[-93.304161018268019,44.939192577452637],[-93.304146888540345,44.939209247157258],[-93.304135113767245,44.939222166175],[-93.30412275025553,44.939232584735599],[-93.304113330437048,44.939240502840377],[-93.304098023232072,44.939233834962735],[-93.304072118731312,44.939251754882136],[-93.30407093833405,44.939265528534747],[-93.304058577742268,44.939265507374621],[-93.304059166480926,44.939273425474852],[-93.304049157923814,44.939295096059404],[-93.304037383150728,44.939331352596035],[-93.304027374593616,44.939340104170405],[-93.304024490134339,44.939365013489486],[-93.304016777297861,44.939365108661285],[-93.304015599820531,44.939407616270763],[-93.304004413786103,44.939428036581788],[-93.303982434209772,44.939461514763067],[-93.303971836914002,44.939475406118838],[-93.303965949527495,44.939490130952308],[-93.303952997277108,44.939502077512536],[-93.30394396995105,44.939515968858515],[-93.303925130314155,44.939534305430044],[-93.303919635420058,44.939547641114771],[-93.303907075662082,44.939570978555551],[-93.30389373091927,44.939582369445837],[-93.303887058547858,44.939597649904847],[-93.303869396388251,44.939610429921999],[-93.303854089183233,44.939629877768716],[-93.303836296192799,44.939638397775688],[-93.303821779638398,44.939654595822489],[-93.303809083383939,44.93965525256835],[-93.303795738641099,44.939650251696321],[-93.303750732841763,44.939646176911381],[-93.303733463174623,44.939642472561182],[-93.303721426739926,44.939652844741126],[-93.30370415707273,44.939660623874872],[-93.303677990910373,44.939670255181831],[-93.303646068192222,44.939680997791548],[-93.303609366156664,44.939695190530728],[-93.303584839372249,44.939696556050329],[-93.303560243179604,44.939706928220509],[-93.303528843784719,44.939703223874233],[-93.303500276130436,44.939712518514057],[-93.30347494149018,44.939713966477775],[-93.303457647158567,44.939724541728992],[-93.303429412367606,44.939726190817304],[-93.303406386144729,44.939736562982127],[-93.303379465950172,44.939745652335567],[-93.303339924092256,44.93974804644813],[-93.303340970738731,44.939743230801383],[-93.30336923019415,44.939713225608635],[-93.303387546507807,44.939691369964542],[-93.303404292851724,44.939680997791548],[-93.303424179135121,44.939668032572669],[-93.30344877532778,44.939652474306158],[-93.303470754904211,44.939650992566278],[-93.303489071217868,44.939648029086371],[-93.303533030370687,44.939633211684637],[-93.303579606139735,44.939622469065995],[-93.303601585716166,44.939605799481335],[-93.303626705232048,44.939589870762589],[-93.303643974899231,44.93957949857127],[-93.30366176788965,44.939575053345834],[-93.303677467587093,44.939569496813583],[-93.303705203719232,44.939570237684563],[-93.303720903416675,44.939556902005116],[-93.303735033144378,44.939520599306434],[-93.30374235966984,44.939489853125302],[-93.303743406316343,44.939456143437923],[-93.303731893204883,44.939432435514071],[-93.303744191301206,44.939403911905195],[-93.303744191301206,44.939330009761768],[-93.303736341452506,44.93931834099358],[-93.303721688401538,44.939295373887369],[-93.30369447559265,44.939279630301186],[-93.303677467587093,44.939263886710705],[-93.303671187708105,44.93923332561095],[-93.303656011333928,44.939208135843771],[-93.303629496289375,44.939170165953257],[-93.303620425353103,44.939158558892288],[-93.303610656652467,44.939153866675476],[-93.303611703298969,44.939145963993681],[-93.303582048314922,44.939131640380133],[-93.303579955021945,44.939122502900673],[-93.303565616430333,44.939116147188905],[-93.303539484690774,44.939115588050377],[-93.303509829706741,44.93910274618333],[-93.303493133381352,44.939095032509755],[-93.303474941490222,44.939094596535448],[-93.303459704908093,44.939085403031456],[-93.303422609165438,44.939084471213739],[-93.303348297264236,44.939088175599942],[-93.30328305629935,44.939107191445324],[-93.303248865847181,44.939112130624927],[-93.303224792977758,44.9391227498596],[-93.303180833824939,44.939127935996737],[-93.303156424181793,44.939137716284435],[-93.303121260783513,44.939137097959318],[-93.303105824159417,44.939136826516481],[-93.303079641792337,44.939147452919478],[-93.303063958299617,44.939147198787758],[-93.303049625212694,44.939152827237628],[-93.303021045793272,44.939152384922714],[-93.303004306202951,44.939159314787325],[-93.302935569662793,44.93915831193349],[-93.30289684374246,44.93916176935619],[-93.30286195552597,44.939174117292623],[-93.302805785497355,44.939192145275051],[-93.302750983598912,44.93921522412333],[-93.302736009064333,44.939215112422559],[-93.30269344544017,44.939192639192299],[-93.302746824411429,44.939114106296621],[-93.302763570755374,44.93910521577336],[-93.302792876857239,44.939062244891531],[-93.302815903080159,44.939060022258836],[-93.302871375344424,44.939026682758119],[-93.302890214981318,44.93899260235959],[-93.302912194557763,44.938982230060375],[-93.302979179933473,44.938982970938952],[-93.303026279025758,44.938965189850443],[-93.303051398541641,44.938962226335164],[-93.303105824159417,44.938960744577457],[-93.303141410140299,44.938953335788376],[-93.303170192918969,44.938936295569889],[-93.303183799323392,44.938916291828669],[-93.303182229353681,44.93889702896017],[-93.303181615604515,44.938876808805922],[-93.303171239565486,44.938876284325325],[-93.303166529656252,44.938858503203775],[-93.30315867980751,44.938836647234332],[-93.303151353282047,44.938825904466647],[-93.303151876605327,44.938811827733538],[-93.303138270200861,44.938790712627373],[-93.303140363493853,44.938780710732281],[-93.303151353282047,44.938767004428755],[-93.303152923251787,44.938746259746942],[-93.303183799323392,44.93872884902607],[-93.303195835758103,44.93872884902607],[-93.303204208930069,44.938737739607596],[-93.303218338657757,44.938750705036533],[-93.303255494608351,44.938751075477313],[-93.303272764275548,44.938740332693612],[-93.303274334245287,44.938713660946078],[-93.303306780286647,44.938683284774079],[-93.303342889590752,44.938679209920522],[-93.303372719015854,44.938661799179293],[-93.303375858955349,44.938635127395294],[-93.303360682581186,44.938601787647855],[-93.303351262762718,44.938579931580684],[-93.30335387937896,44.93855844594723],[-93.303372719015854,44.938552518874531],[-93.30338109218782,44.938559186831284],[-93.303399408501491,44.93856733655516],[-93.303421911401145,44.938555852853],[-93.303438134421853,44.938540294285126],[-93.303437611098644,44.938517573829216],[-93.303474592608183,44.938495347287578],[-93.303549253391523,44.938495594249197],[-93.303559370974298,44.93847559035445],[-93.303568441910599,44.938477813009769],[-93.303571581850093,44.938453116834744],[-93.303571581850093,44.938430396344351],[-93.303560417620815,44.938407675844957],[-93.303557975445642,44.938363963554558],[-93.303542275748228,44.938349886708181],[-93.303507736413877,44.93835210936836],[-93.303499712124065,44.938347170123393],[-93.303486105719614,44.938348898859189],[-93.303476337018992,44.9383409960666],[-93.303463760723858,44.938329949625746],[-93.303445286506289,44.938327660101621],[-93.303430633455363,44.938321486042717],[-93.303409700525435,44.938323955666363],[-93.303393775815394,44.938328082468267],[-93.303378301130579,44.938326178327557],[-93.30336120590448,44.938328647950989],[-93.303350390557327,44.938332352385949],[-93.303333644213424,44.93833457504681],[-93.303326757210812,44.93832971051124],[-93.303309920226198,44.938327660101621],[-93.303298407114724,44.938315311983153],[-93.303273636481023,44.938300741199939],[-93.303255843490604,44.938287158263115],[-93.303262821133913,44.938264931632276],[-93.303263867780387,44.938229862930562],[-93.303262123369592,44.938199486502626],[-93.30325933231228,44.938177753763824],[-93.303280963006486,44.938182939986334],[-93.303285847356818,44.93820417879742],[-93.303293173882281,44.938208871091831],[-93.303316548987368,44.938214551237188],[-93.303333295331285,44.938226405451772],[-93.303360508140159,44.938229615967799],[-93.303375510073266,44.938231838632625],[-93.303390512006388,44.938236283962048],[-93.303403071764322,44.938241223216565],[-93.303418422579583,44.938240976253851],[-93.3034285401624,44.938233567371896],[-93.303435866687863,44.938218996567933],[-93.303447030917141,44.938208624128976],[-93.303460986203731,44.938200968279965],[-93.303476685901131,44.93819652294782],[-93.303496921066724,44.938195288133258],[-93.303520296171811,44.938197757762332],[-93.303547857862867,44.93819701687363],[-93.303567395264082,44.938195288133258],[-93.303587979311857,44.938177259837843],[-93.303594608072999,44.938160466352095],[-93.303592863662161,44.938141450193164],[-93.303593910308678,44.938105393562857],[-93.303572279614414,44.938083660788436],[-93.303572279614414,44.938069583873357],[-93.303563906442449,44.938056741772371],[-93.303556231034833,44.938033280234301],[-93.303503783434053,44.937997762650738],[-93.30348296578012,44.937994259970814],[-93.30344109992032,44.937995988717233],[-93.303420864754742,44.938000681028655],[-93.303392605299365,44.938018709379513],[-93.30337271901594,44.938019203306865],[-93.303353879379017,44.938010559577791],[-93.303342017385404,44.937994506934594],[-93.303328062098799,44.937974008937552],[-93.303311315754854,44.937953510933184],[-93.30329826163296,44.937936431538027],[-93.30328410294598,44.937934000777652],[-93.303252703551109,44.937919676861767],[-93.303240143793161,44.937929308460781],[-93.303223048567077,44.937918935969471],[-93.303196882404663,44.937921899538608],[-93.303196255910294,44.937916287174644],[-93.303170018477942,44.937911774010111],[-93.303152574369676,44.937888065448583],[-93.303153272134011,44.93788016259257],[-93.303142573080976,44.937859582233244],[-93.303095590282709,44.937821385066798],[-93.303067179021909,44.937808228564258],[-93.303049072660698,44.937804920763078],[-93.303024883497244,44.937780224298649],[-93.303023953144788,44.937773638573013],[-93.303019301382591,44.937752564245876],[-93.302995112219165,44.93772161131389],[-93.302961190450944,44.937704614420433],[-93.302938360720262,44.93770020768094],[-93.30290626356107,44.937701854114522],[-93.302892618819456,44.937693252262065],[-93.30285183794328,44.93768538977654],[-93.30285183794328,44.937671559728976],[-93.302828579132282,44.937650485364379],[-93.302820050901602,44.937613495445312],[-93.302792605504635,44.937593518683869],[-93.302787953742396,44.937589457473265],[-93.302822066665243,44.937575407877638],[-93.302834471364434,44.937567065928611],[-93.302832610659536,44.937530624768655],[-93.302815244080676,44.937514818957119],[-93.302763144343984,44.937513062755585],[-93.302751980114721,44.937500769343238],[-93.302730892126064,44.937502086494696],[-93.302721162031588,44.937490809571813],[-93.302706082727653,44.937487597827094],[-93.302689156877264,44.937476739290503],[-93.302643438996654,44.937466962445725],[-93.302609326073835,44.937470913902303],[-93.302571491741247,44.937477499662677],[-93.302551644222518,44.937486280675309],[-93.302522546610476,44.937491775326826],[-93.3025136145435,44.937489917887575],[-93.302493327627971,44.937485699187114],[-93.302462699033811,44.937479329915433],[-93.302451786393874,44.937477060612011],[-93.302417673471069,44.937453790921843],[-93.302412091356402,44.937439741293012],[-93.302429457935304,44.937440180343962],[-93.302452406628831,44.937446766107847],[-93.302501405190711,44.937445888006046],[-93.302573352446103,44.937441497496799],[-93.302591959494947,44.937430521222232],[-93.302620490303084,44.937425691660764],[-93.302651502051106,44.937416032536582],[-93.302701741082913,44.937410324871536],[-93.302735854005732,44.937400665744768],[-93.302778650218002,44.937398031437198],[-93.302802839381457,44.937408129615598],[-93.302885950866141,44.937407251513193],[-93.302925025668671,44.937423057354309],[-93.302943012482515,44.937434911732311],[-93.302994491984222,44.937438424140133],[-93.303034807256637,44.937453790921843],[-93.303075122529066,44.937473109155839],[-93.303156373308866,44.93747574345997],[-93.303186144586959,44.937463010988878],[-93.303186144586959,44.937427886916012],[-93.30320227069592,44.937423496405401],[-93.303222738449634,44.937427886916012],[-93.30325933231228,44.937434472681318],[-93.303282281005821,44.937435350783289],[-93.303299027349752,44.937416910638838],[-93.303301508289607,44.937374761715006],[-93.303288483355431,44.937346223363583],[-93.303285382180633,44.937330856553096],[-93.303315153458726,44.937310221115403],[-93.303330039097773,44.937309343011513],[-93.30335112708643,44.937323392672226],[-93.30339578400357,44.93734183284672],[-93.303392682828786,44.937383981794731],[-93.303393923298685,44.937403739103459],[-93.303420593401981,44.937422618303231],[-93.303484477602908,44.937422618303231],[-93.303512388176117,44.937409446769166],[-93.303512388176117,44.937353687241476],[-93.303529134520062,44.937335686122552],[-93.303548982038762,44.937325148879587],[-93.303584955666508,44.937343589053505],[-93.303601081775469,44.937348857673541],[-93.303659383861742,44.937309343011513],[-93.303693496784561,44.937269828322279],[-93.303724508532582,44.93726148632885],[-93.30374187511147,44.937250510019865],[-93.303800177197743,44.937218898238292],[-93.303805759312368,44.937203092340951],[-93.303818784246545,44.937160065153982],[-93.303843593644956,44.937152601250929],[-93.303859719753916,44.937163138525563],[-93.303899414791402,44.937156113676011],[-93.303962678757344,44.937095524313087],[-93.303968881106954,44.937059521907706],[-93.303985007215914,44.93704810650619],[-93.303996171445206,44.937007713528679],[-93.304012297554166,44.936994541899438],[-93.304045790242029,44.936975223504426],[-93.304056954471349,44.936932196146692],[-93.304084244809602,44.936894437418474],[-93.30411773749745,44.936894437418474],[-93.304149989715384,44.936874240879213],[-93.304188444282929,44.936860191108586],[-93.304220696500877,44.936857556776225],[-93.30423558213991,44.936865459772974],[-93.304266593887931,44.936871606547484],[-93.304303807985562,44.936869850326275],[-93.304353426782399,44.936847019445516],[-93.304375755240969,44.936836482112867],[-93.304421652628051,44.936829457223375],[-93.304448942966317,44.936814236626503],[-93.304459693705624,44.936773258076414],[-93.304457212765783,44.93674925634064],[-93.304490291963646,44.936707106926718],[-93.304535775860771,44.936702423656605],[-93.304553142439659,44.936690130070701],[-93.304601934256524,44.936676665664102],[-93.304636667414314,44.936652663887955],[-93.304652380033318,44.936628662101782],[-93.304691248090819,44.936620466367614],[-93.304743347827511,44.936615783090417],[-93.304814468102947,44.936608172764174],[-93.30483431562169,44.936614026861385],[-93.304841758441185,44.936653834706533],[-93.304851682200578,44.93666495748186],[-93.304840104481329,44.93672349836914],[-93.304850028240665,44.936745743890668],[-93.304878145558888,44.936755695831721],[-93.30491287871665,44.936765062362895],[-93.304941823014815,44.936762135322063],[-93.304972421272865,44.936742816848863],[-93.304987306911926,44.936743987665601],[-93.30503609872882,44.936708277744195],[-93.305045118813482,44.93666667305439],[-93.305026174969441,44.936658517980611],[-93.305022867049658,44.936647980613387],[-93.305039406648589,44.936625735054001],[-93.305062562087102,44.936591781288833],[-93.305084063565729,44.936568364887371],[-93.30511052692404,44.936544948476353],[-93.305132028402653,44.936542606834735],[-93.30516014572089,44.936532069446223],[-93.305183301159389,44.936510994663429],[-93.305206456597915,44.936508653020411],[-93.305237881835907,44.936478211652584],[-93.305246151635359,44.936450111914091],[-93.305264345194232,44.936440745331559],[-93.305318925870736,44.936412645574741],[-93.305345389229061,44.936392741572014],[-93.30539335406597,44.936385716628216],[-93.305451242662272,44.936384545804167],[-93.305509131258589,44.936362300142726],[-93.305533940657,44.936338883647686],[-93.305540556496581,44.93630141723574],[-93.305562057975209,44.936283854846735],[-93.305590175293403,44.936258096666478],[-93.305618292611612,44.936247559225755],[-93.305657987649056,44.936262779972836],[-93.305720838125069,44.936255755013157],[-93.305786996520823,44.936258096666478],[-93.305844885117139,44.936245217572001],[-93.305914351432691,44.936249900879425],[-93.305952392510264,44.936262779972836],[-93.306045014264356,44.936266292452359],[-93.306081401382045,44.936248730052625],[-93.306119442459604,44.936235850956038],[-93.306140943938203,44.936213605236993],[-93.306165753336629,44.936201896960348],[-93.306215372133479,44.936180822056365],[-93.306256721130808,44.936174967915001],[-93.306281530529247,44.936178480399889],[-93.306336111205766,44.936181992884556],[-93.306379114163008,44.936186676197131],[-93.306398961681751,44.936177309571619],[-93.30641880920048,44.936169113773026],[-93.306451888398342,44.936150380514725],[-93.306518046794139,44.936135159737873],[-93.306537894312868,44.936091839043179],[-93.306569319550874,44.936063739115625],[-93.306592474989372,44.936021589198525],[-93.30659578290917,44.935978268418154],[-93.306585859149791,44.935950168435014],[-93.30657924331021,44.935899822597541],[-93.306587513109704,44.93587172257601],[-93.306609014588332,44.935877576748311],[-93.306650363585675,44.935854160055598],[-93.306648709625804,44.935814351656077],[-93.306666903184635,44.935771030719366],[-93.311110266440792,44.939277579175737]]]]}}
]
}
