{
"type": "FeatureCollection",
"name": "belfalas",
"crs": { "type": "name", "properties": { "name": "urn:ogc:def:crs:OGC:1.3:CRS84" } },
"features": [
{ "type": "Feature", "properties": { "id": 1 }, "geometry": { "type": "MultiPolygon", "coordinates": [ [ [ [ -93.303214549427949, 44.940847464323646 ], [ -93.302741190416157, 44.94084365293056 ], [ -93.302740417742783, 44.940830526695954 ], [ -93.302721100909025, 44.940816306605072 ], [ -93.302721873582385, 44.940786225631996 ], [ -93.302743508436222, 44.940773099384252 ], [ -93.302764370616671, 44.940748487661665 ], [ -93.302762825269994, 44.940724969783538 ], [ -93.302758961903223, 44.940695435690401 ], [ -93.30275509853648, 44.940670823934518 ], [ -93.302739645069451, 44.94063582053019 ], [ -93.302743508436222, 44.94060409867658 ], [ -93.302769779330148, 44.940582768454817 ], [ -93.302777506063634, 44.940523700107057 ], [ -93.3027952775507, 44.940500729066521 ], [ -93.302827729831463, 44.940465178628507 ], [ -93.302853228052058, 44.940421424213049 ], [ -93.302855546072124, 44.940392436894449 ], [ -93.302872544885815, 44.940374388179251 ], [ -93.30289804310641, 44.940349776285736 ], [ -93.302917359940167, 44.940321882793668 ], [ -93.302920450633607, 44.940306568713829 ], [ -93.302947494200893, 44.940258438722026 ], [ -93.302959084301165, 44.94022616972768 ], [ -93.302980719155002, 44.94021905960782 ], [ -93.303000808662119, 44.940203745500561 ], [ -93.303018580149185, 44.940176945803024 ], [ -93.303047169063177, 44.940120064770881 ], [ -93.303060614096523, 44.940084951560266 ], [ -93.303058759163463, 44.940075763158738 ], [ -93.30306262253022, 44.940015600420828 ], [ -93.303043305696448, 44.939997551587169 ], [ -93.30305257777664, 44.939967470185131 ], [ -93.303065713223603, 44.939948874401431 ], [ -93.303074212630477, 44.939930278611712 ], [ -93.303086189067429, 44.939897189029828 ], [ -93.303114005308075, 44.93987038918921 ], [ -93.303137185508589, 44.939839760784587 ], [ -93.303152638975632, 44.939833744488908 ], [ -93.303194363336587, 44.939811320108532 ], [ -93.303222179577233, 44.939810226236098 ], [ -93.303233769677476, 44.939806944618667 ], [ -93.303246132451108, 44.939796005892532 ], [ -93.303311809685951, 44.93977194068767 ], [ -93.303338853253237, 44.939765377448232 ], [ -93.303387531674375, 44.939765103979916 ], [ -93.303425779005252, 44.939758130537136 ], [ -93.303456492770948, 44.939740491825219 ], [ -93.303486627031646, 44.939738440811858 ], [ -93.303501694162009, 44.93973146736586 ], [ -93.303511545747199, 44.939732287771321 ], [ -93.303523135847499, 44.939726544932888 ], [ -93.303538202977833, 44.939723673513456 ], [ -93.303554429118194, 44.939728595946676 ], [ -93.303583404368851, 44.939720391891072 ], [ -93.303602528034318, 44.939721622499484 ], [ -93.303636139325079, 44.939709726617032 ], [ -93.303670909625851, 44.939697010326157 ], [ -93.303702782401615, 44.93968388382941 ], [ -93.303714952006885, 44.93968306342326 ], [ -93.303731757652272, 44.939669936923302 ], [ -93.30377522052828, 44.939670757329651 ], [ -93.30379666221377, 44.939674859361148 ], [ -93.303813467859158, 44.939674859361148 ], [ -93.303829693999518, 44.939669526720138 ], [ -93.303852294695048, 44.93965434920073 ], [ -93.303863170810232, 44.939648604835895 ], [ -93.303873156875511, 44.939630147202017 ], [ -93.303886485490835, 44.939621532928825 ], [ -93.303927050841764, 44.939583999294861 ], [ -93.303936612674491, 44.939554464614801 ], [ -93.303960372380047, 44.939524314613244 ], [ -93.303979191328565, 44.939512164989189 ], [ -93.304004414761081, 44.939468116608914 ], [ -93.304029333476635, 44.939447196169894 ], [ -93.304034838774299, 44.939422173673982 ], [ -93.304035798873116, 44.939392008630747 ], [ -93.304052223924685, 44.939362899029526 ], [ -93.304056570212296, 44.939342593860438 ], [ -93.30407250660015, 44.939321878478509 ], [ -93.304081488927864, 44.939283934442727 ], [ -93.3040927892756, 44.939272243572589 ], [ -93.304123503041339, 44.939270192542494 ], [ -93.304157693837126, 44.939245375072545 ], [ -93.304174499482485, 44.939227531099945 ], [ -93.3041829023052, 44.939204969747301 ], [ -93.304197969435535, 44.939197791133253 ], [ -93.30424519909414, 44.939197175823431 ], [ -93.304266640779588, 44.939182203282499 ], [ -93.3042935877627, 44.939182203282499 ], [ -93.304314160190671, 44.93916558991058 ], [ -93.304314160190671, 44.939140157085014 ], [ -93.304328068311008, 44.939132773359347 ], [ -93.30433849940124, 44.939139336671097 ], [ -93.304349509996499, 44.939138516257167 ], [ -93.304368085264741, 44.939129266572806 ], [ -93.304376746732132, 44.939116365076686 ], [ -93.304408454285891, 44.939081655372682 ], [ -93.304420209608068, 44.939064268748176 ], [ -93.304423770648938, 44.939037051544631 ], [ -93.304433538223407, 44.939022427568212 ], [ -93.304470047039231, 44.938986329270804 ], [ -93.304487432189632, 44.938986329270804 ], [ -93.304513509915225, 44.938977714901036 ], [ -93.304572619426565, 44.938978125109145 ], [ -93.304593481607057, 44.938971971987122 ], [ -93.304671280155134, 44.938972792403419 ], [ -93.304691707706866, 44.938960691261713 ], [ -93.304699241272033, 44.938942744648529 ], [ -93.304717205927446, 44.938925926103067 ], [ -93.304735750087843, 44.938924285269103 ], [ -93.304746181178118, 44.938930848604684 ], [ -93.304747340188115, 44.938950538606932 ], [ -93.304745022168092, 44.938968587769729 ], [ -93.304767043358581, 44.93898581651073 ], [ -93.30479138256915, 44.93898745734294 ], [ -93.30480992672959, 44.938991559423258 ], [ -93.304841220000299, 44.938996481919247 ], [ -93.304863241190787, 44.939001404414803 ], [ -93.304879467331148, 44.939016171898977 ], [ -93.304891057431448, 44.939035861871957 ], [ -93.304884103371293, 44.939046527271174 ], [ -93.304865559210853, 44.939048168101635 ], [ -93.304837742970193, 44.939058833498571 ], [ -93.304814562769678, 44.93908016428648 ], [ -93.304797177619278, 44.939099033823027 ], [ -93.304793700589215, 44.939117903353385 ], [ -93.304804131679433, 44.939126927909172 ], [ -93.304829629900041, 44.939132670807588 ], [ -93.304858605150699, 44.939137593291463 ], [ -93.304882944361268, 44.939157283222819 ], [ -93.304895693471551, 44.939176973147404 ], [ -93.304899170501614, 44.939213071324943 ], [ -93.304911919611911, 44.939225377516664 ], [ -93.304952484962868, 44.939250810304486 ], [ -93.304969870113268, 44.939268859372895 ], [ -93.304979142193474, 44.939294087038526 ], [ -93.305006958434092, 44.939318699384586 ], [ -93.305078237550731, 44.939318699384586 ], [ -93.305103446018805, 44.939312546299057 ], [ -93.305112718098997, 44.939316033047596 ], [ -93.305128944239399, 44.939344747439314 ], [ -93.305152124439928, 44.93936197606746 ], [ -93.305164873550225, 44.939384127153176 ], [ -93.305169509590328, 44.939413661920845 ], [ -93.305188053750754, 44.939435812986638 ], [ -93.305210074941243, 44.939453861996867 ], [ -93.305212392961323, 44.939465347727719 ], [ -93.305218188011452, 44.939503086541428 ], [ -93.305218188011452, 44.939540004922165 ], [ -93.305199643851026, 44.939549029411623 ], [ -93.305191530780831, 44.939560515123411 ], [ -93.305186894740743, 44.939592511022745 ], [ -93.305198484840986, 44.939613841612392 ], [ -93.305172986620391, 44.939632710973569 ], [ -93.305159078500097, 44.939649939515284 ], [ -93.305154442459994, 44.939672910896206 ], [ -93.30514748839984, 44.939695882267962 ], [ -93.305142852359737, 44.939725416875277 ], [ -93.305135318794569, 44.9397694111059 ], [ -93.305152414192463, 44.939787357460695 ], [ -93.305189647389554, 44.93978602430311 ], [ -93.305207612044981, 44.939783357987835 ], [ -93.305214710981389, 44.939773923332773 ], [ -93.305252378807239, 44.939761155780801 ], [ -93.305252263571631, 44.93975144640811 ], [ -93.305277587275327, 44.939737825507841 ], [ -93.305285700345522, 44.939737671681826 ], [ -93.305322209161346, 44.939748336950686 ], [ -93.305387890569804, 44.939749721432889 ], [ -93.305407686150815, 44.939739722695222 ], [ -93.305419855756099, 44.939738697188531 ], [ -93.305430286846331, 44.93975387468565 ], [ -93.305425071301201, 44.939778897036994 ], [ -93.30543608189646, 44.939798176546155 ], [ -93.305455785066883, 44.939808841803782 ], [ -93.305467954672181, 44.939820737665691 ], [ -93.305470272692219, 44.93984124776668 ], [ -93.305439558926537, 44.939867500685239 ], [ -93.305437820411498, 44.939876525123204 ], [ -93.305425071301201, 44.939885959761405 ], [ -93.305393198525479, 44.93990688004056 ], [ -93.305401311595645, 44.939938465545616 ], [ -93.305392619020438, 44.939958975604547 ], [ -93.305370018324936, 44.939974563244419 ], [ -93.305257884104861, 44.939979280555661 ], [ -93.305241368211981, 44.93997784485228 ], [ -93.305204569643635, 44.939955899096176 ], [ -93.30522079578401, 44.939929236016717 ], [ -93.305185445978211, 44.939894779095695 ], [ -93.305151834687408, 44.939889651575918 ], [ -93.305137347062086, 44.939895804599594 ], [ -93.305134449537022, 44.939912622860945 ], [ -93.305114746366556, 44.939932312526516 ], [ -93.305113007851531, 44.939942157356754 ], [ -93.305104315276324, 44.939947489972432 ], [ -93.305075340025667, 44.939946259368874 ], [ -93.305063749925409, 44.939963487816513 ], [ -93.305066067945475, 44.939981536660895 ], [ -93.305068385965512, 44.94001681393123 ], [ -93.305054477845175, 44.940057833985776 ], [ -93.305074181015641, 44.940089009207618 ], [ -93.305068385965512, 44.940126747611409 ], [ -93.305041728734878, 44.940153820798862 ], [ -93.304998845363912, 44.940171869583402 ], [ -93.304965234073137, 44.940208787534097 ], [ -93.30493509981244, 44.940230117894799 ], [ -93.304881785351228, 44.940285084556997 ], [ -93.304806449699527, 44.940335949182604 ], [ -93.304682435626674, 44.940357279496062 ], [ -93.304623326115333, 44.940350716323529 ], [ -93.304561898583927, 44.940337589976224 ], [ -93.304505107092638, 44.940342512356814 ], [ -93.304459905701577, 44.940334308388927 ], [ -93.304363707869371, 44.940350716323529 ], [ -93.304277941127395, 44.940366303857054 ], [ -93.304199128445575, 44.940393376931546 ], [ -93.304152768044517, 44.940398299307354 ], [ -93.304091340513139, 44.94041798880636 ], [ -93.304026435951613, 44.940450804623055 ], [ -93.30399514268089, 44.940465571734435 ], [ -93.303867651577988, 44.940499207918407 ], [ -93.30373552443497, 44.940527921718427 ], [ -93.303588330161574, 44.940554994716699 ], [ -93.303503142924598, 44.94057181278496 ], [ -93.303473008663886, 44.940595193993623 ], [ -93.303465475098719, 44.940608730478502 ], [ -93.303450407968356, 44.940612832442987 ], [ -93.303428966282894, 44.940623087352911 ], [ -93.303393036972039, 44.940625548531024 ], [ -93.303371595286578, 44.94063908500874 ], [ -93.303329291420596, 44.940666157954603 ], [ -93.303330450430636, 44.940678463834871 ], [ -93.303308429240133, 44.940688718733064 ], [ -93.303285249039604, 44.940690769712482 ], [ -93.303267863889175, 44.940687898341288 ], [ -93.303252217253828, 44.940692820691837 ], [ -93.303247001708726, 44.940721944590678 ], [ -93.30327192042428, 44.940749427692928 ], [ -93.303229616558326, 44.940803983662889 ], [ -93.303253376263882, 44.940824083217713 ], [ -93.303214549427949, 44.940847464323646 ] ] ] ] } }
]
}
