{
"type": "FeatureCollection",
"name": "boromirpath",
"crs": { "type": "name", "properties": { "name": "urn:ogc:def:crs:OGC:1.3:CRS84" } },
"features": [
{ "type": "Feature", "properties": { "id": 36 }, "geometry": { "type": "MultiLineString", "coordinates": [ [ [ -93.301189813243923, 44.940906451153424 ], [ -93.301117798199826, 44.940910993463859 ], [ -93.30105291335812, 44.940908469958103 ], [ -93.301027244629509, 44.940932190907759 ], [ -93.300994445698564, 44.940975090472705 ], [ -93.300964498848529, 44.941018494705773 ], [ -93.300952734014587, 44.941050164634206 ], [ -93.300960666364759, 44.941078995609601 ], [ -93.300982190663177, 44.941104798373985 ], [ -93.301017886238895, 44.941135080332124 ], [ -93.301049972149627, 44.941157034741771 ], [ -93.301095427189836, 44.941184288480002 ], [ -93.301137138873798, 44.941202836155561 ], [ -93.301207193112219, 44.941222519396547 ], [ -93.301254787213153, 44.941228954300797 ], [ -93.301404521463326, 44.941238795917656 ], [ -93.30147831905802, 44.941240688536098 ], [ -93.301547838531278, 44.94124447377277 ], [ -93.301639818142064, 44.94124901605646 ], [ -93.301739284465327, 44.941262264381827 ], [ -93.301834472667196, 44.941274755657219 ], [ -93.301879927707404, 44.941278162368228 ], [ -93.301928056573502, 44.941278540891652 ], [ -93.30201736235837, 44.941275891227576 ], [ -93.302093299013777, 44.941271348946017 ], [ -93.302152657948653, 44.941268320758113 ], [ -93.302227525073704, 44.941270213375567 ], [ -93.302274584409446, 44.941276269751029 ], [ -93.302363890194343, 44.941283461696045 ], [ -93.302401858522032, 44.941287625453278 ], [ -93.302522715452483, 44.941286489883147 ], [ -93.302583678682865, 44.941287246929896 ], [ -93.302602930229298, 44.9412895180701 ], [ -93.302651593860602, 44.941309201281364 ], [ -93.302721113333845, 44.941349703252556 ], [ -93.302754268774933, 44.941353867004977 ], [ -93.302782076564242, 44.941361815986042 ], [ -93.302838226908037, 44.941390205195162 ], [ -93.302903468259871, 44.941415944732633 ], [ -93.303030742372457, 44.941455311061738 ], [ -93.303069780230501, 44.941463638550971 ], [ -93.303145182120744, 44.94146590968419 ], [ -93.303163898902, 44.941467045250768 ], [ -93.303254274217252, 44.941492027709742 ], [ -93.303286894893148, 44.941497705539817 ], [ -93.303332884698548, 44.941495812929858 ], [ -93.30337887450392, 44.941484457268785 ], [ -93.303510961503108, 44.941467423772956 ], [ -93.303559090369205, 44.941468559339505 ], [ -93.303626470781751, 44.941470073428192 ], [ -93.303654278571074, 44.941479536481609 ], [ -93.303703476967513, 44.941533665117213 ], [ -93.303748932007736, 44.94158892926594 ], [ -93.303774065971155, 44.941607098289523 ], [ -93.303809360472954, 44.941621860616948 ], [ -93.303856954573902, 44.941638894066962 ], [ -93.30389278384088, 44.941650249697489 ], [ -93.303982089625777, 44.94168999438665 ], [ -93.304037170439187, 44.941713841186946 ], [ -93.304094390313338, 44.941738823538529 ], [ -93.304130219580315, 44.941758506595754 ], [ -93.304173535559826, 44.941785003008299 ], [ -93.304228616373251, 44.941820205366021 ], [ -93.304261237049175, 44.941842159513691 ], [ -93.304265515170599, 44.941860706976733 ], [ -93.304283162421498, 44.941875847758439 ], [ -93.30431524833223, 44.941904425973036 ], [ -93.304342521356361, 44.941932814913848 ], [ -93.304362842433136, 44.941964421251434 ], [ -93.304401612908634, 44.942015332022102 ], [ -93.30443262928901, 44.942050912756962 ], [ -93.304458298017579, 44.942065296452029 ], [ -93.304501079231898, 44.942072866816403 ], [ -93.30454546474175, 44.942075894961874 ], [ -93.304621401397156, 44.942077409034553 ], [ -93.304659904490023, 44.942071352743611 ], [ -93.30472193725079, 44.942059240159807 ], [ -93.304758836048123, 44.942053183866946 ], [ -93.304787178602623, 44.942050912756962 ], [ -93.304808569209769, 44.942048263128527 ], [ -93.304834237938366, 44.942020631281885 ], [ -93.304874880091958, 44.942043342389688 ], [ -93.304927821844686, 44.942043720908082 ], [ -93.304971137824168, 44.942040692760912 ], [ -93.305014988568843, 44.942036150539849 ], [ -93.305070069382268, 44.942032365355374 ], [ -93.305109642005505, 44.942032365355374 ], [ -93.305151888454645, 44.942040692760905 ], [ -93.305183439600185, 44.942053562385269 ], [ -93.305219803632369, 44.942070595707193 ], [ -93.305230498935927, 44.942081572734196 ], [ -93.305430501112866, 44.942312468333149 ], [ -93.305476490918252, 44.942340857072196 ], [ -93.305511250654888, 44.942353348112924 ], [ -93.305574887711188, 44.942366974699716 ], [ -93.305619273221026, 44.942376437605304 ], [ -93.305650824366595, 44.942389685670506 ], [ -93.305955640518562, 44.942493020474195 ], [ -93.306042272477541, 44.942502861874374 ], [ -93.3061096528901, 44.942503997420438 ], [ -93.306185589545521, 44.942502861874374 ], [ -93.306236927002701, 44.942497941174494 ], [ -93.306264200026817, 44.942498319689889 ], [ -93.306315537483997, 44.942507404058496 ], [ -93.306356714402781, 44.942513460303445 ], [ -93.306478640863574, 44.942513460303445 ], [ -93.306504844357349, 44.942506647027834 ], [ -93.306533186911793, 44.942506268512503 ], [ -93.30656741188325, 44.942516488425674 ], [ -93.30658880249041, 44.942530493488924 ], [ -93.306836933533461, 44.942586135192933 ], [ -93.30725618943373, 44.942713316028168 ], [ -93.307487207991031, 44.942967676853435 ], [ -93.307555657933946, 44.943255345476373 ], [ -93.307551379812509, 44.943685331677855 ], [ -93.307547101691057, 44.944072165103599 ], [ -93.307611273512521, 44.944166034269884 ], [ -93.307650846135758, 44.944212968795462 ], [ -93.307717157017962, 44.944272772409555 ], [ -93.307782398369781, 44.944337875007243 ], [ -93.307827318644811, 44.944374968314754 ], [ -93.30789255999666, 44.944415846625901 ], [ -93.307929993559171, 44.94444309881716 ], [ -93.307954592757397, 44.944477921042719 ], [ -93.307975983364557, 44.944518799280544 ], [ -93.308012347396712, 44.94458692961225 ], [ -93.308050850489607, 44.944620237744992 ], [ -93.308094701234268, 44.944653545858408 ], [ -93.308182402723617, 44.944687610954404 ], [ -93.308310746366587, 44.944740601063558 ], [ -93.308400586916633, 44.944777694110861 ], [ -93.308473314980972, 44.94483446913685 ], [ -93.308503261830992, 44.944840525136307 ], [ -93.308554599288172, 44.944867777125957 ], [ -93.308619840639935, 44.944906384089158 ], [ -93.308681873400687, 44.944937421040748 ], [ -93.308746045222151, 44.944966186980892 ], [ -93.308775992072185, 44.944985111933647 ], [ -93.308800591270398, 44.945018419835357 ], [ -93.308795243618619, 44.945052484714843 ], [ -93.308758879586449, 44.94512137140935 ], [ -93.308691499173918, 44.945223565803886 ], [ -93.308665830445349, 44.945284125359244 ], [ -93.308678664809619, 44.945341656877652 ], [ -93.308708611659654, 44.945411300217529 ], [ -93.308789895966854, 44.945508195158553 ], [ -93.308725724145376, 44.945571782374714 ], [ -93.308597380502434, 44.945677760911792 ], [ -93.308558877409553, 44.945774655403042 ], [ -93.30859310238101, 44.945853382056768 ], [ -93.308558877409553, 44.945898801230953 ], [ -93.308439090009472, 44.945913940947698 ], [ -93.308332136973689, 44.945901829174623 ], [ -93.308066893444945, 44.945862465894486 ], [ -93.307874377980539, 44.945877605620801 ], [ -93.307651915666099, 44.945956332133335 ], [ -93.307438009594549, 44.94595330419255 ], [ -93.307309665951593, 44.945935136544428 ], [ -93.307211269158671, 44.945971471834902 ], [ -93.30714281921577, 44.946007807102383 ], [ -93.307125706730048, 44.94612589656284 ], [ -93.307125706730048, 44.946231874076929 ], [ -93.307129984851485, 44.946331795553867 ], [ -93.307151375458631, 44.946425661025287 ], [ -93.307172766065776, 44.946504386786167 ], [ -93.307159931701491, 44.946607335695198 ], [ -93.307104316122889, 44.946707256518579 ], [ -93.307100038001437, 44.946714069295652 ], [ -93.307076508333566, 44.946709905931982 ], [ -93.307036935710329, 44.946709905931982 ], [ -93.306928378378998, 44.946704607105048 ], [ -93.30688399286916, 44.946710662907215 ], [ -93.306786665606609, 44.946709148956735 ], [ -93.306744953922646, 44.94671369080806 ], [ -93.306693081700288, 44.946719746609261 ], [ -93.306655113372614, 44.946720503584366 ], [ -93.306580781012741, 44.946717097196313 ], [ -93.306546021276105, 44.946710662907215 ], [ -93.30652356113859, 44.946704228617392 ], [ -93.306371687827777, 44.946704228617392 ], [ -93.306323024196502, 44.946698551302241 ], [ -93.306269012913418, 44.946689467596833 ], [ -93.306154573165145, 44.946693630961995 ], [ -93.306048689659704, 44.946689467596833 ], [ -93.306007512740933, 44.946683411792435 ], [ -93.305978635421255, 44.946677734475223 ], [ -93.305943875684633, 44.94667357110891 ], [ -93.30590590735693, 44.946671678669588 ], [ -93.305870078089953, 44.946668272278636 ], [ -93.305825157814908, 44.946668272278636 ], [ -93.305755103576459, 44.946658053104557 ], [ -93.305720343839823, 44.946659567056386 ], [ -93.305678632155875, 44.946659567056386 ], [ -93.305635850941556, 44.946672057157457 ], [ -93.305596278318319, 44.946687953645799 ], [ -93.305583978719199, 44.946690981547839 ], [ -93.305516598306653, 44.946692495498802 ], [ -93.305434244469097, 44.946695901888312 ], [ -93.305418201513746, 44.94669817281455 ], [ -93.305422479635169, 44.946706878030938 ], [ -93.305442265946795, 44.946707256518579 ], [ -93.305452426485189, 44.946707635006213 ], [ -93.305488451285427, 44.946743052269888 ], [ -93.305433065324593, 44.946722712553019 ], [ -93.305368796709644, 44.946695716190398 ], [ -93.305389174563174, 44.946678334963913 ], [ -93.305558467500077, 44.946672048136016 ], [ -93.305584592953338, 44.946672048136008 ], [ -93.30565095160452, 44.946652817834646 ], [ -93.305752318363034, 44.946644312122366 ], [ -93.305746570763276, 44.946610289260654 ], [ -93.305723580364457, 44.946589579682779 ], [ -93.305723580364457, 44.946567390841061 ], [ -93.305744480727029, 44.946548160504626 ], [ -93.305767471125861, 44.946540764219669 ], [ -93.305823902104834, 44.946524492389401 ], [ -93.305863612793758, 44.946505262038606 ], [ -93.305857342684959, 44.946480114647059 ], [ -93.305838532358663, 44.946462363540519 ], [ -93.305815541959831, 44.946444612428472 ], [ -93.305823902104834, 44.946423902790833 ], [ -93.305853162612465, 44.946406151666913 ], [ -93.305909593591409, 44.946386921276464 ], [ -93.30594512420781, 44.946385442015391 ], [ -93.306014095404322, 44.946366211617999 ], [ -93.30602663562189, 44.94632775080391 ], [ -93.306005735259305, 44.946311478913259 ], [ -93.305980654824211, 44.946284852173164 ], [ -93.305980654824211, 44.946258225420706 ], [ -93.306024545585615, 44.946227160860573 ], [ -93.306066346310772, 44.946210888941422 ], [ -93.306083066600848, 44.946212368207 ], [ -93.306149947761114, 44.946196096283629 ], [ -93.306183388341225, 44.946163552423087 ], [ -93.306158307906117, 44.946133967079312 ], [ -93.306131137434775, 44.946096985378148 ], [ -93.306147857724824, 44.946070358538556 ], [ -93.306175028196179, 44.946057045114124 ], [ -93.306227279102629, 44.946037814606726 ], [ -93.306277439972845, 44.946028938985748 ], [ -93.306317150661727, 44.946006749927314 ], [ -93.306321330734249, 44.945959413240651 ], [ -93.306300430371678, 44.945917993607793 ], [ -93.306279530009121, 44.945882491041559 ], [ -93.306312970589246, 44.945851426278097 ], [ -93.306354771314403, 44.945820361497816 ], [ -93.306377761713236, 44.94577450393431 ], [ -93.306367311531943, 44.945699060766231 ], [ -93.306300430371664, 44.945601428283894 ], [ -93.306235639247689, 44.945567404804066 ], [ -93.306216828921336, 44.945505274919306 ], [ -93.306231459175152, 44.945456458534089 ], [ -93.306200108631288, 44.945385452808793 ], [ -93.306137407543531, 44.945352908488665 ], [ -93.306122777289715, 44.945305571262828 ], [ -93.306149947761099, 44.945243441094682 ], [ -93.30619174848627, 44.945169476521109 ], [ -93.305888693228837, 44.945125097731228 ], [ -93.306187568413748, 44.945125097731228 ], [ -93.306227279102629, 44.945101429029251 ], [ -93.306264899755277, 44.945070363843101 ], [ -93.30635686135065, 44.945043736527317 ], [ -93.306381941785745, 44.944991961155715 ], [ -93.306310880552957, 44.944956458016748 ], [ -93.306087246673357, 44.944938706439054 ], [ -93.305863612793758, 44.944956458016748 ], [ -93.305372454273126, 44.944947582228586 ], [ -93.305299303004091, 44.944950540824806 ], [ -93.305276312605244, 44.944953499420862 ], [ -93.305267952460213, 44.944966813101225 ], [ -93.305276312605244, 44.94498752326453 ], [ -93.305265862423923, 44.94500527482716 ], [ -93.305234511880059, 44.944989002561641 ], [ -93.305109109704603, 44.94492243415467 ], [ -93.305020138020893, 44.9446991212399 ], [ -93.304740227979735, 44.944714900486211 ], [ -93.304566832379038, 44.944700874489698 ], [ -93.304488368935935, 44.944693882036582 ], [ -93.304498819117256, 44.944677609682792 ], [ -93.304527034606721, 44.944664295935347 ], [ -93.304536439769905, 44.944650242531921 ], [ -93.304515539407319, 44.944633230512657 ], [ -93.304478963772794, 44.944630271900095 ], [ -93.304467468573392, 44.944645064961392 ], [ -93.304452838319577, 44.944633230512657 ], [ -93.304105892300726, 44.944563703077122 ], [ -93.304022290850398, 44.944544472069445 ], [ -93.303978400088994, 44.944446837623431 ], [ -93.303909428892482, 44.944337368501657 ], [ -93.303842547732216, 44.944253047549303 ], [ -93.303589653344972, 44.944174643745654 ], [ -93.303405730154267, 44.944143578057997 ], [ -93.303269877797518, 44.944105115754731 ], [ -93.303215536854822, 44.944059256820999 ], [ -93.303163285948358, 44.943923159124587 ], [ -93.303104764933138, 44.943794457745284 ], [ -93.303058784135459, 44.943698301354054 ], [ -93.303008623265242, 44.9436450454373 ], [ -93.302862320727201, 44.94365244209537 ], [ -93.302722288297929, 44.943686466710147 ], [ -93.302636596811325, 44.943682028718072 ], [ -93.302571805687336, 44.943650962763819 ], [ -93.30253836510721, 44.943608062132711 ], [ -93.302515374708349, 44.943550368129969 ], [ -93.302519554780872, 44.943513384764387 ], [ -93.302561355506043, 44.943480839382964 ], [ -93.302676307500249, 44.943446814646286 ], [ -93.302720198261653, 44.943418707239928 ], [ -93.302730648442946, 44.943396517172538 ], [ -93.30271810822542, 44.943341781636327 ], [ -93.302638686847615, 44.943301839455351 ], [ -93.302484024164514, 44.943290004729711 ], [ -93.302402512750447, 44.943257459221662 ], [ -93.302369072170322, 44.943207161582002 ], [ -93.302358621989029, 44.943143549798165 ], [ -93.302381612387848, 44.943072541212011 ], [ -93.302423413113019, 44.942997094492995 ], [ -93.302502834490824, 44.942924606375442 ], [ -93.302548815288489, 44.942853597518486 ], [ -93.30256553557858, 44.94277371244943 ], [ -93.30255299536104, 44.942689389200389 ], [ -93.302504924527113, 44.942599148393164 ], [ -93.302475664019482, 44.942534056575305 ], [ -93.302442223439357, 44.942464526597441 ], [ -93.302404602786709, 44.942344698140097 ], [ -93.302387882496618, 44.94224262184953 ], [ -93.302408488005966, 44.942200192811953 ], [ -93.302441163762751, 44.942188693266885 ], [ -93.302497848871724, 44.942192099923659 ], [ -93.302582876535183, 44.94220496951408 ], [ -93.302650256947715, 44.942223516859912 ], [ -93.302681273328091, 44.942236386443284 ] ] ] } }
]
}
