{
"type": "FeatureCollection",
"name": "cair_andros",
"crs": { "type": "name", "properties": { "name": "urn:ogc:def:crs:OGC:1.3:CRS84" } },
"features": [
{ "type": "Feature", "properties": { "id": 1 }, "geometry": { "type": "MultiPolygon", "coordinates": [ [ [ [ -93.300926545759097, 44.941410178528152 ], [ -93.300875832578868, 44.941368368812313 ], [ -93.300865389710381, 44.941353030875774 ], [ -93.300852075052987, 44.941333627456217 ], [ -93.300842937543081, 44.941310343344085 ], [ -93.300833016817961, 44.941287983195764 ], [ -93.30083327788968, 44.941273199621854 ], [ -93.300838760395635, 44.941252133022445 ], [ -93.300841110041091, 44.94124400205218 ], [ -93.300846070403608, 44.941243447667802 ], [ -93.300855468985262, 44.941246219589658 ], [ -93.300870611144603, 44.941255089738625 ], [ -93.300885492232226, 44.941267840575364 ], [ -93.300900895463272, 44.941280037025265 ], [ -93.300914471192328, 44.941292233472574 ], [ -93.300927263706257, 44.941317365537635 ], [ -93.300948671586724, 44.941342128002731 ], [ -93.300978172690279, 44.941371140728108 ], [ -93.300979739120521, 44.94139387043267 ], [ -93.300965380176336, 44.941400523027404 ], [ -93.300944494439321, 44.941400892615981 ], [ -93.300934573714258, 44.941410132329587 ], [ -93.300926545759097, 44.941410178528152 ] ] ] ] } }
]
}
