{
"type": "FeatureCollection",
"name": "dol_baran",
"crs": { "type": "name", "properties": { "name": "urn:ogc:def:crs:OGC:1.3:CRS84" } },
"features": [
{ "type": "Feature", "properties": { "id": 1 }, "geometry": { "type": "MultiPolygon", "coordinates": [ [ [ [ -93.306615145491875, 44.942898809031043 ], [ -93.306637275407425, 44.942898674577826 ], [ -93.306639364927378, 44.942879380536802 ], [ -93.306673936984325, 44.942871851153186 ], [ -93.306730543978688, 44.942870237713713 ], [ -93.306742701185513, 44.942869162087362 ], [ -93.306748399876227, 44.942862708328889 ], [ -93.306783351845894, 44.942849800809761 ], [ -93.306782592020454, 44.942842809235685 ], [ -93.306748399876227, 44.942835010940527 ], [ -93.306735102931242, 44.94283366640677 ], [ -93.306670517769902, 44.942842809235685 ], [ -93.306658740475783, 44.942843347049113 ], [ -93.306637465363806, 44.942843615955809 ], [ -93.306574779766009, 44.942841195795388 ], [ -93.306563002471876, 44.942834473127022 ], [ -93.306553124741328, 44.942835010940527 ], [ -93.306528050502223, 44.942837431101196 ], [ -93.306509054866567, 44.942837162194472 ], [ -93.306510574517404, 44.94284603611613 ], [ -93.306589216449154, 44.942872657872904 ], [ -93.306608591997559, 44.942882607415193 ], [ -93.306615145491875, 44.942898809031043 ] ] ] ] } }
]
}
