{
"type": "FeatureCollection",
"name": "druwaith_iaur",
"crs": { "type": "name", "properties": { "name": "urn:ogc:def:crs:OGC:1.3:CRS84" } },
"features": [
{ "type": "Feature", "properties": { "id": 1 }, "geometry": { "type": "MultiPolygon", "coordinates": [ [ [ [ -93.306433756017753, 44.942462888426817 ], [ -93.306228879929904, 44.942458315080721 ], [ -93.306342841299838, 44.942439013395507 ], [ -93.306410404112015, 44.942369296806824 ], [ -93.306532505579767, 44.942307646529763 ], [ -93.306605373848171, 44.942234714439202 ], [ -93.3066090224996, 44.942229863375466 ], [ -93.306486921031819, 44.942195293050837 ], [ -93.306522737462359, 44.942162451223169 ], [ -93.306523551472154, 44.942103105416741 ], [ -93.306359935505313, 44.942099648377578 ], [ -93.306340399270468, 44.942062773280263 ], [ -93.306310494720478, 44.942013623798303 ], [ -93.306302954820353, 44.941986142142937 ], [ -93.306376215701036, 44.942005732067464 ], [ -93.306465756777428, 44.941983837445477 ], [ -93.306506457266678, 44.941951571671545 ], [ -93.306815780985048, 44.941535572033565 ], [ -93.306911834139711, 44.941534131586373 ], [ -93.3069842810106, 44.941525200812933 ], [ -93.307029458553671, 44.94151655812766 ], [ -93.307091730302233, 44.941496679946574 ], [ -93.307105161463667, 44.941498120394712 ], [ -93.307146675962727, 44.941474497040716 ], [ -93.307164584177997, 44.941471904232976 ], [ -93.307190632491128, 44.941456059294246 ], [ -93.30724435713698, 44.941425233673677 ], [ -93.307249241195692, 44.941397577028035 ], [ -93.307287499655573, 44.941379715437307 ], [ -93.307319305554188, 44.941360804667539 ], [ -93.307324944105716, 44.941353787311861 ], [ -93.30737988976621, 44.941326130631801 ], [ -93.307393727932535, 44.941326130631801 ], [ -93.307413264167408, 44.941315759373346 ], [ -93.307431986392459, 44.941315471282806 ], [ -93.307493037126335, 44.941291559763009 ], [ -93.307508910317139, 44.941287238402928 ], [ -93.30756947519717, 44.941277229757816 ], [ -93.307578101148877, 44.941268224414785 ], [ -93.307634528211025, 44.941256660460425 ], [ -93.307650548019751, 44.941240567693526 ], [ -93.30770305165089, 44.941223858417963 ], [ -93.307761660355453, 44.941212046685742 ], [ -93.307790150697898, 44.941199658768866 ], [ -93.307810907947456, 44.941194761219613 ], [ -93.307815745670794, 44.941196739050362 ], [ -93.307836142250778, 44.94117805193072 ], [ -93.307854050466048, 44.941154716536367 ], [ -93.307878470759618, 44.941158749815088 ], [ -93.307931381395633, 44.941152987988261 ], [ -93.308018183416792, 44.941127068137433 ], [ -93.308029469574763, 44.941117552740614 ], [ -93.308050848017004, 44.941076242976045 ], [ -93.308066507019987, 44.941062815323207 ], [ -93.308086857264627, 44.94106223913959 ], [ -93.308105575801633, 44.941055276843358 ], [ -93.308120231665811, 44.941042936985021 ], [ -93.308117789636455, 44.94102824429585 ], [ -93.308111277558183, 44.941006061208995 ], [ -93.308134069832164, 44.94096889731702 ], [ -93.308128778768548, 44.940935190510451 ], [ -93.308146686983847, 44.940906669351001 ], [ -93.308145465969133, 44.940875555342686 ], [ -93.308136918866396, 44.94082629146174 ], [ -93.308169886262718, 44.940821105787585 ], [ -93.308206516703052, 44.940847034153613 ], [ -93.308251694246138, 44.940853084103985 ], [ -93.308266346422258, 44.940861726889146 ], [ -93.30827367251031, 44.940899755128385 ], [ -93.308280998598377, 44.940925683458879 ], [ -93.308320071068067, 44.940944697560461 ], [ -93.308339607302926, 44.940984454297976 ], [ -93.308376237743275, 44.940993097063362 ], [ -93.30839516347072, 44.941014703971142 ], [ -93.308455603697297, 44.941035014457022 ], [ -93.308509328343121, 44.941026803835925 ], [ -93.308545958783455, 44.941010382590221 ], [ -93.30856854755497, 44.941012111142634 ], [ -93.308624103722835, 44.941011679004532 ], [ -93.308648524016377, 44.941014271833055 ], [ -93.308676607353974, 44.94100476479457 ], [ -93.30873307928286, 44.940957445647776 ], [ -93.308753226025047, 44.940932597678369 ], [ -93.308766757329352, 44.94092807086291 ], [ -93.308791077480066, 44.940912071086828 ], [ -93.308798403568133, 44.940889167723412 ], [ -93.308782530377286, 44.940868425046759 ], [ -93.308786494678714, 44.940845741260446 ], [ -93.308807561178213, 44.940831261065675 ], [ -93.30882648690573, 44.940809654088881 ], [ -93.308857012272654, 44.94076471155109 ], [ -93.308871511821962, 44.940731112659726 ], [ -93.308893490086135, 44.9407190127326 ], [ -93.308900816174216, 44.940691355746772 ], [ -93.30889226907145, 44.940651598806291 ], [ -93.308903258203543, 44.940610545414962 ], [ -93.308927067989785, 44.940579431246199 ], [ -93.308951488283341, 44.940578999104829 ], [ -93.308972245532857, 44.940553502759315 ], [ -93.309000328870454, 44.940541402794778 ], [ -93.30904550641354, 44.940486088638679 ], [ -93.309052221994236, 44.940449788694778 ], [ -93.309066874170384, 44.940428181574426 ], [ -93.309063211126357, 44.940400524448492 ], [ -93.309049779964909, 44.940361631592609 ], [ -93.309083968375901, 44.940314960130792 ], [ -93.309077863302505, 44.940281252940309 ], [ -93.309052221994264, 44.940269152918397 ], [ -93.309052221994264, 44.940251002880743 ], [ -93.309014370539245, 44.940220752805232 ], [ -93.308980182128295, 44.940213838500014 ], [ -93.308954540820054, 44.9402103813471 ], [ -93.30890753175494, 44.940227234965604 ], [ -93.308826334278876, 44.940194824156393 ], [ -93.308764062530315, 44.940203467040639 ], [ -93.30872621107531, 44.940205195617324 ], [ -93.308677370488169, 44.940191367002313 ], [ -93.308630971930441, 44.940193959867891 ], [ -93.308612656710267, 44.940182724116255 ], [ -93.308552216483662, 44.940133459640805 ], [ -93.308550566663058, 44.940107887731074 ], [ -93.308565647645139, 44.940091109443927 ], [ -93.308597394026734, 44.940070366478956 ], [ -93.30861509873958, 44.940062587865157 ], [ -93.308671265414759, 44.940029096599275 ], [ -93.308689580634947, 44.940013683407969 ], [ -93.308693854186316, 44.940003455961019 ], [ -93.308713390421147, 44.939987034422622 ], [ -93.308721123514133, 44.939984729644927 ], [ -93.308736421805577, 44.93997283463699 ], [ -93.308752462890851, 44.939955487769907 ], [ -93.308758567964233, 44.93993834597417 ], [ -93.308769760598778, 44.939933160219844 ], [ -93.308776679681955, 44.939915586271098 ], [ -93.308776272677079, 44.939897148024016 ], [ -93.308807612053798, 44.939886776507421 ], [ -93.308833253362039, 44.939874100206829 ], [ -93.308839358435435, 44.93986214414803 ], [ -93.308860115684936, 44.939848315450391 ], [ -93.308865610250976, 44.939835206994367 ], [ -93.308885756993192, 44.939823250927454 ], [ -93.308898781149736, 44.939831317671654 ], [ -93.308944365697712, 44.939818641358819 ], [ -93.308959831883627, 44.93978579817162 ], [ -93.308967157971679, 44.939730483287569 ], [ -93.308998090343522, 44.939721264135045 ], [ -93.308993206284825, 44.939694759063293 ], [ -93.308989822776439, 44.939659144040299 ], [ -93.308997276333727, 44.939650968048383 ], [ -93.308989955585872, 44.939612475445799 ], [ -93.309002974402233, 44.939597957827743 ], [ -93.309018440588147, 44.939619853359595 ], [ -93.309058327067632, 44.939620429557692 ], [ -93.309081119341627, 44.939615243774647 ], [ -93.309140542055928, 44.939623886746141 ], [ -93.309197522740902, 44.939638291695729 ], [ -93.309226013083389, 44.939639444091547 ], [ -93.309269155601996, 44.939647510861576 ], [ -93.309289505846621, 44.939649239455008 ], [ -93.309322880247805, 44.939637715497824 ], [ -93.309351624366116, 44.939623493310442 ], [ -93.30936602276644, 44.939609481792928 ], [ -93.309383930981724, 44.939605448405381 ], [ -93.309405909245896, 44.939602567414092 ], [ -93.309423817461166, 44.939611786585679 ], [ -93.309506846459271, 44.939615243774647 ], [ -93.309554059026823, 44.939610057991118 ], [ -93.30960045758458, 44.939588162455536 ], [ -93.309615923770494, 44.939588162455536 ], [ -93.309664764357606, 44.939572028897665 ], [ -93.309741281277397, 44.939590467249161 ], [ -93.30975756147312, 44.93960083881926 ], [ -93.309771399639473, 44.939601415017549 ], [ -93.309809658099368, 44.939612362783848 ], [ -93.309816984187435, 44.9396284963304 ], [ -93.309839776461416, 44.939642325080975 ], [ -93.309848730569058, 44.939656730025945 ], [ -93.309915479371455, 44.939667965880517 ], [ -93.30993338758671, 44.939682370819057 ], [ -93.309945190728612, 44.939683523213972 ], [ -93.309978972134672, 44.939665949188829 ], [ -93.310038191346578, 44.939663500348836 ], [ -93.310055896059396, 44.939656009778794 ], [ -93.31006749569886, 44.939640020289453 ], [ -93.310026795209609, 44.939616396170912 ], [ -93.310022109082382, 44.939594624707233 ], [ -93.310043889415084, 44.939577214684618 ], [ -93.310043143752267, 44.939567326396087 ], [ -93.310060983620559, 44.939553014341485 ], [ -93.310123967399946, 44.939540984981043 ], [ -93.310134244501242, 44.939532847381095 ], [ -93.310161106824125, 44.939530542585167 ], [ -93.310202214318295, 44.939515273309823 ], [ -93.310212213893081, 44.939514765532614 ], [ -93.310223378572729, 44.939506054122745 ], [ -93.31022785562655, 44.939491072940584 ], [ -93.310232332680343, 44.939463703463083 ], [ -93.310266114086446, 44.939446993670408 ], [ -93.310292162399577, 44.939435757772593 ], [ -93.310296293443486, 44.939417417054266 ], [ -93.310305186556135, 44.939410404969458 ], [ -93.310333676898622, 44.939410404969458 ], [ -93.310344259025825, 44.939424233772549 ], [ -93.310362167241109, 44.939429995772862 ], [ -93.310367051299806, 44.939438638772238 ], [ -93.310382517485735, 44.939461110564537 ], [ -93.310398797681415, 44.939485310946409 ], [ -93.310415891886933, 44.93949510633616 ], [ -93.31041426386733, 44.939512392314015 ], [ -93.31040286773036, 44.939521035300984 ], [ -93.310398797681415, 44.939531983082617 ], [ -93.310429730053244, 44.939553878639629 ], [ -93.310456592376184, 44.939555607235874 ], [ -93.310522934173662, 44.939586433860271 ], [ -93.310541656398698, 44.939587298157903 ], [ -93.310564855677598, 44.939575630138648 ], [ -93.310607998196218, 44.939569868152965 ], [ -93.31063811655828, 44.939554886987452 ], [ -93.310643188447827, 44.939562640253925 ], [ -93.310652768734414, 44.939556039384939 ], [ -93.310678410042655, 44.93954941309908 ], [ -93.310700388306842, 44.939544227309618 ], [ -93.310699981301923, 44.939530110435918 ], [ -93.310659687817576, 44.93950533387369 ], [ -93.310605963171739, 44.939503029076661 ], [ -93.310594567034769, 44.939496114685014 ], [ -93.310598637083672, 44.939467304710874 ], [ -93.310629162450624, 44.939456645016762 ], [ -93.310617766313612, 44.939438782822222 ], [ -93.310627941435953, 44.939425818322704 ], [ -93.310644006343409, 44.939424222817223 ], [ -93.310663350861603, 44.939410260919416 ], [ -93.310670676949684, 44.939395855912601 ], [ -93.310709342414484, 44.939388077207433 ], [ -93.310715854492756, 44.939373960295335 ], [ -93.310728878649329, 44.939371367392738 ], [ -93.310741088796092, 44.939356386175433 ], [ -93.310766323099415, 44.939348319364512 ], [ -93.31082248977458, 44.939352928970891 ], [ -93.310860748234504, 44.939363876784576 ], [ -93.310892494616112, 44.939354081372429 ], [ -93.310920170948833, 44.939352928970891 ], [ -93.310965755496795, 44.939337371547843 ], [ -93.311004823489952, 44.93933623593805 ], [ -93.311028434250261, 44.939320085517295 ], [ -93.311065064690567, 44.939318356913972 ], [ -93.311076460827579, 44.939322966522752 ], [ -93.31110576517986, 44.939313747304801 ], [ -93.31113832557125, 44.939330457136251 ], [ -93.311136697551689, 44.939365605386563 ], [ -93.311104137160257, 44.939370214991541 ], [ -93.311089484984151, 44.939389805808673 ], [ -93.311069948749306, 44.93940478701726 ], [ -93.311028434250261, 44.939408244218683 ], [ -93.311019480142605, 44.939426106422729 ], [ -93.311038202367683, 44.939441663821718 ], [ -93.31103657434808, 44.93946586421179 ], [ -93.311012154054552, 44.939482573998973 ], [ -93.310985291731654, 44.939489488392248 ], [ -93.310978779653354, 44.939518298355267 ], [ -93.310952731340237, 44.939526365142328 ], [ -93.310926683027105, 44.939532127132388 ], [ -93.310902262733563, 44.939542498713031 ], [ -93.310885982537854, 44.939565546663324 ], [ -93.310892494616155, 44.939589747001158 ], [ -93.310866446303024, 44.93960472815759 ], [ -93.31088761055743, 44.939651976394522 ], [ -93.310875400410637, 44.939680210078507 ], [ -93.310864818283449, 44.939681650572226 ], [ -93.310820861755019, 44.939675600498411 ], [ -93.310792778417422, 44.939711036636005 ], [ -93.310762253050513, 44.93972745825333 ], [ -93.31076713710921, 44.939800923325969 ], [ -93.310758590006472, 44.939820802094175 ], [ -93.310774463197276, 44.939850188086737 ], [ -93.310797662476119, 44.939897724219321 ], [ -93.310836734945809, 44.939908960026735 ], [ -93.310836734945809, 44.939944396020316 ], [ -93.310818419725678, 44.939950446065815 ], [ -93.310819640740348, 44.939962546154902 ], [ -93.31083124037977, 44.939981992721286 ], [ -93.310836734945809, 44.940013107213829 ], [ -93.310817198710993, 44.940027800162781 ], [ -93.310800104505475, 44.940026503726259 ], [ -93.310746379859665, 44.940021317979891 ], [ -93.31068655014046, 44.940058482485227 ], [ -93.310608405201066, 44.940062803937778 ], [ -93.310597416069001, 44.940081818325133 ], [ -93.310608405201066, 44.940144911474405 ], [ -93.310621836362529, 44.94015528294436 ], [ -93.310656024773508, 44.940159604389635 ], [ -93.310698760287224, 44.940157875811565 ], [ -93.31074760087435, 44.940161332967641 ], [ -93.310786673344055, 44.940172568723447 ], [ -93.31080743059357, 44.940187261631607 ], [ -93.310785452329355, 44.940191583074458 ], [ -93.310796441461449, 44.940203683112721 ], [ -93.310867260312762, 44.940222697453422 ], [ -93.310873365386172, 44.940230476045521 ], [ -93.310914879885203, 44.940234797485118 ], [ -93.310953952354893, 44.940247761801977 ], [ -93.310982035692504, 44.940252083240281 ], [ -93.310980814677805, 44.940270233277595 ], [ -93.310964941487001, 44.940276283288767 ], [ -93.310892901621017, 44.940278876150501 ], [ -93.310835513931139, 44.940280604724911 ], [ -93.310802546534831, 44.940291840457405 ], [ -93.310773242182563, 44.940327276214674 ], [ -93.310732948698231, 44.940329869074098 ], [ -93.310653582744195, 44.940322954782033 ], [ -93.310597416069029, 44.940327276214674 ], [ -93.310522934173676, 44.940330733360561 ], [ -93.310509503012227, 44.940343697655756 ], [ -93.310472872571893, 44.940348883373012 ], [ -93.310455778366389, 44.940379133381015 ], [ -93.310469209527866, 44.940405926231946 ], [ -93.310492408806724, 44.940429261930632 ], [ -93.310477756630604, 44.940457783327254 ], [ -93.310419147926069, 44.940465561887507 ], [ -93.310394727632499, 44.940491490414075 ], [ -93.310406937779305, 44.940563225943265 ], [ -93.310411821838017, 44.940621997153379 ], [ -93.310433800102203, 44.940653111299085 ], [ -93.310455778366389, 44.940715339539935 ], [ -93.310433800102203, 44.940758553556392 ], [ -93.310410600823332, 44.940769789195336 ], [ -93.310391064588487, 44.940789667628096 ], [ -93.310367865309615, 44.940798310422792 ], [ -93.310347108060071, 44.94081386744999 ], [ -93.310336118927992, 44.940832881588612 ], [ -93.310358097192236, 44.940862267063189 ], [ -93.310330013854639, 44.940898566746291 ], [ -93.310344666030772, 44.940936594961144 ], [ -93.31037641241241, 44.94096943749004 ], [ -93.31035321313351, 44.940991044406708 ], [ -93.310325129795899, 44.941022158352425 ], [ -93.310343445016088, 44.941040308146299 ], [ -93.310339781972047, 44.941054136556843 ], [ -93.310294604428975, 44.941064507862571 ], [ -93.310276289208801, 44.941096486043392 ], [ -93.31023843775381, 44.941086979018515 ], [ -93.310185934122643, 44.941097350318302 ], [ -93.310171281946509, 44.941129328480827 ], [ -93.310196923254722, 44.941167356542827 ], [ -93.310198144269407, 44.941195877572795 ], [ -93.310212796445512, 44.941224398588581 ], [ -93.310237216739097, 44.941265019404803 ], [ -93.310257973988598, 44.941289219026352 ], [ -93.310251868915202, 44.941319468538921 ], [ -93.310283615296854, 44.941338482510098 ], [ -93.310360539221548, 44.941349718035561 ], [ -93.310399611691238, 44.941352310848814 ], [ -93.31040815879399, 44.941367867725894 ], [ -93.31030803559041, 44.941386017410473 ], [ -93.310260416017982, 44.941383424598754 ], [ -93.310221343548292, 44.941417995412237 ], [ -93.310185934122629, 44.941414538331834 ], [ -93.31015174571165, 44.941433552271519 ], [ -93.31015174571165, 44.941433552271519 ], [ -93.310116336285972, 44.941456887552526 ], [ -93.310100463095182, 44.94148454416959 ], [ -93.310104126139208, 44.94150701516115 ], [ -93.310074821786969, 44.941516522116473 ], [ -93.31006993772823, 44.941532078949052 ], [ -93.31011511527133, 44.941576156618474 ], [ -93.3101805158621, 44.941595793126595 ], [ -93.310198144269407, 44.941591713434882 ], [ -93.310250647900574, 44.941611591583076 ], [ -93.310240879783123, 44.941622827055099 ], [ -93.310257973988612, 44.941647890792439 ], [ -93.310255531959285, 44.941685054244907 ], [ -93.310299488487686, 44.941693696904814 ], [ -93.310316582693162, 44.941709253689389 ], [ -93.310333676898637, 44.941734317389013 ], [ -93.310376412412396, 44.94175073842765 ], [ -93.310405716764649, 44.941768023726404 ], [ -93.310415484882057, 44.941787901813541 ], [ -93.310453336337076, 44.9417956801936 ], [ -93.310456999381103, 44.94181642253524 ], [ -93.310444789234339, 44.941825065175372 ], [ -93.310409379808689, 44.941829386494959 ], [ -93.310375191397682, 44.941839757660631 ], [ -93.310289720370236, 44.941848400297275 ], [ -93.310222564562977, 44.941860499986355 ], [ -93.310199365284078, 44.941873463936133 ], [ -93.310183492093273, 44.941913220030514 ], [ -93.310130988462149, 44.941946926262879 ], [ -93.310107789183249, 44.941977175428924 ], [ -93.31007848483101, 44.941989275090876 ], [ -93.310027202214542, 44.941996189182277 ], [ -93.309990571774179, 44.942056687446517 ], [ -93.309949057275162, 44.942096443414016 ], [ -93.309875796394465, 44.942138792131729 ], [ -93.309866028277071, 44.942166448420309 ], [ -93.309846492042226, 44.942199290245696 ], [ -93.309807419572536, 44.942223489473427 ], [ -93.309790325367061, 44.942261516810703 ], [ -93.309756136956068, 44.942263245325428 ], [ -93.309670665928621, 44.942278801955673 ], [ -93.309577868813122, 44.942264973840111 ], [ -93.309509491991136, 44.942278801955673 ], [ -93.309421578934362, 44.942287444526208 ], [ -93.309297035437197, 44.942315100743187 ], [ -93.309189586145564, 44.942290901554053 ], [ -93.309133419470399, 44.942297815609145 ], [ -93.309072368736523, 44.94228053046988 ], [ -93.309030854237463, 44.94222694650513 ], [ -93.308984455679706, 44.942162991384961 ], [ -93.308930731033868, 44.942168176937898 ], [ -93.308872122329333, 44.942168176937898 ], [ -93.308791535360598, 44.942119778425607 ], [ -93.308723158538669, 44.942124963982437 ], [ -93.308654781716683, 44.942107678791153 ], [ -93.308616930261664, 44.942075701173536 ], [ -93.308558321557143, 44.942067058571126 ], [ -93.308532680248902, 44.942054958925567 ], [ -93.308471629515012, 44.942048044841243 ], [ -93.308434999074677, 44.942057551706974 ], [ -93.308382495443539, 44.942066194310812 ], [ -93.308348307032546, 44.942087800814718 ], [ -93.308297024416092, 44.942116321387445 ], [ -93.308256730931717, 44.942166448420309 ], [ -93.308257951946402, 44.942190647661889 ], [ -93.308218879476698, 44.942234724825703 ], [ -93.308173701933626, 44.942260652553308 ], [ -93.308072357715375, 44.942318557769362 ], [ -93.308012527996169, 44.942356585043655 ], [ -93.307983223643888, 44.94236436334667 ], [ -93.307930720012749, 44.942387698249348 ], [ -93.307808618544968, 44.942430911007058 ], [ -93.307737799693641, 44.942439553554699 ], [ -93.307709716356072, 44.9424516531192 ], [ -93.307646223592798, 44.942453381628212 ], [ -93.307594940976344, 44.942455110137153 ], [ -93.307560752565379, 44.942462024172464 ], [ -93.307513132992952, 44.94247758074885 ], [ -93.307481386611329, 44.94247758074885 ], [ -93.307427661965519, 44.942460295663707 ], [ -93.307381263407763, 44.942466345444103 ], [ -93.307322654703199, 44.942462024172464 ], [ -93.307294571365645, 44.942453381628198 ], [ -93.30723596266111, 44.942456838646066 ], [ -93.307181017000573, 44.942456838646066 ], [ -93.307086998870417, 44.942423996967996 ], [ -93.306985654652152, 44.942405847611546 ], [ -93.306916056815496, 44.942371277392887 ], [ -93.306851343037593, 44.94236349909081 ], [ -93.3068171546266, 44.942375598671362 ], [ -93.306780524186266, 44.942395476548135 ], [ -93.306715810408363, 44.942401526335352 ], [ -93.30664743358642, 44.942406711866745 ], [ -93.306580277779133, 44.942403254845871 ], [ -93.306528995162665, 44.942413625907875 ], [ -93.306486259648935, 44.942428318242499 ], [ -93.306433756017753, 44.942462888426817 ] ] ] ] } }
]
}
