{
"type": "FeatureCollection",
"name": "eastemnet",
"crs": { "type": "name", "properties": { "name": "urn:ogc:def:crs:OGC:1.3:CRS84" } },
"features": [
{ "type": "Feature", "properties": { "id": 1 }, "geometry": { "type": "MultiPolygon", "coordinates": [ [ [ [ -93.302308902124111, 44.942061209698124 ], [ -93.302341060535355, 44.942028431813085 ], [ -93.302404091021458, 44.941947397516941 ], [ -93.302445253787866, 44.941935561037148 ], [ -93.302490275563628, 44.941917351063466 ], [ -93.302528865657152, 44.941898230584883 ], [ -93.302554592386159, 44.941877289101036 ], [ -93.302622768218043, 44.941859989608609 ], [ -93.30269351672284, 44.941839958610885 ], [ -93.302729534143452, 44.941827211608697 ], [ -93.30274754285378, 44.941811733102213 ], [ -93.302786132947276, 44.941792612588451 ], [ -93.302818291358562, 44.941774402569422 ], [ -93.30285945412497, 44.941773492068329 ], [ -93.302898044218495, 44.941765297557758 ], [ -93.302970079059733, 44.941743445523841 ], [ -93.303084563003836, 44.941733430005513 ], [ -93.303132157452495, 44.941726145991083 ], [ -93.303217055658251, 44.941747087530068 ], [ -93.303255645751776, 44.941744356025417 ], [ -93.303336684948178, 44.941764387056509 ], [ -93.303395856424885, 44.941783507579657 ], [ -93.303428014836172, 44.941808091100086 ], [ -93.30349876334094, 44.941830853609602 ], [ -93.303516772051239, 44.941829943109376 ], [ -93.303537353434464, 44.941841779610968 ], [ -93.30355278947188, 44.941853616110102 ], [ -93.303577229864459, 44.941849063610697 ], [ -93.303613247285057, 44.941870915604433 ], [ -93.303673705098234, 44.941889125592837 ], [ -93.303740594593691, 44.941933740040035 ], [ -93.303770180332052, 44.941941024028125 ], [ -93.303789475378821, 44.941942845024997 ], [ -93.303855078537808, 44.94197653345681 ], [ -93.30392839971546, 44.941992922416489 ], [ -93.303956699117393, 44.942005669381899 ], [ -93.303978566837046, 44.942022968830415 ], [ -93.303978566837046, 44.942056657215218 ], [ -93.303994646042696, 44.942078509129921 ], [ -93.303983069014649, 44.942175021653689 ], [ -93.303957342285599, 44.942229651312211 ], [ -93.303943835752918, 44.942238756250255 ], [ -93.303916822687455, 44.942317969150231 ], [ -93.30390781833232, 44.942357120313297 ], [ -93.303916822687455, 44.942382614079563 ], [ -93.303936117734224, 44.942409018325534 ], [ -93.303942549416476, 44.942457274329904 ], [ -93.304000434556741, 44.942519187634588 ], [ -93.30401972960351, 44.942539218395346 ], [ -93.30406861038864, 44.942630267219776 ], [ -93.304071183061538, 44.942687627905016 ], [ -93.304049315341871, 44.94275636960311 ], [ -93.304031306631558, 44.942801893861173 ], [ -93.304041597323163, 44.942942108349214 ], [ -93.304098196126986, 44.942987632459989 ], [ -93.304123922856022, 44.943100532098967 ], [ -93.304129068201803, 44.943134219851459 ], [ -93.30415608126728, 44.943187938118591 ], [ -93.304204962052395, 44.943217073428904 ], [ -93.304269278874926, 44.943227999166446 ], [ -93.304347745398431, 44.943241656335459 ], [ -93.304409489548036, 44.943239835379792 ], [ -93.304450652314443, 44.943235282990329 ], [ -93.304496960426675, 44.943227999166446 ], [ -93.304539409529553, 44.943229820122504 ], [ -93.30460501268854, 44.943220715341646 ], [ -93.304613373875469, 44.94322481249322 ], [ -93.304561920417456, 44.943269881141148 ], [ -93.304537480024877, 44.943326330710853 ], [ -93.304576713286608, 44.943348637380353 ], [ -93.304464802015431, 44.943359563092869 ], [ -93.30444936597803, 44.943393250693347 ], [ -93.30444936597803, 44.943439684921088 ], [ -93.304466088351887, 44.943455162988641 ], [ -93.304439075286425, 44.943456983937502 ], [ -93.304431357267703, 44.943484298163334 ], [ -93.3044004851929, 44.943487940059129 ], [ -93.304385049155499, 44.94350888095547 ], [ -93.304388908164853, 44.943531642790646 ], [ -93.304421066576097, 44.943553494143949 ], [ -93.304466088351901, 44.943558956980979 ], [ -93.304520114482827, 44.94355804650818 ], [ -93.304462229342533, 44.943613585322616 ], [ -93.304491815080908, 44.943638168059394 ], [ -93.304523973492167, 44.943638168059394 ], [ -93.304466088351901, 44.943665482199023 ], [ -93.304395339847105, 44.94367367643838 ], [ -93.304307868968451, 44.943657287958501 ], [ -93.304216539080443, 44.943669124083321 ], [ -93.304242265809449, 44.943687333501366 ], [ -93.304284714912328, 44.943695527737603 ], [ -93.304309155304907, 44.943704632443172 ], [ -93.304351604407785, 44.943721931379748 ], [ -93.304388908164853, 44.943729215140955 ], [ -93.304437788949969, 44.943749245479516 ], [ -93.304469947361241, 44.943756529237262 ], [ -93.30436060876292, 44.943771096749998 ], [ -93.304414634893845, 44.943800231764335 ], [ -93.304466088351901, 44.943809336453292 ], [ -93.304470590529462, 44.943817075437771 ], [ -93.304387621828397, 44.943835284808884 ], [ -93.304431357267688, 44.943844844726414 ], [ -93.304451295482693, 44.943840747619099 ], [ -93.30450789428653, 44.94384029238492 ], [ -93.30454069586601, 44.943833008637817 ], [ -93.30459665150164, 44.943833463872025 ], [ -93.304668686342865, 44.943846210428767 ], [ -93.304610801202585, 44.943860322684728 ], [ -93.304641673277402, 44.94386760642837 ], [ -93.304699558417681, 44.943884905315848 ], [ -93.304669329511071, 44.943887636718657 ], [ -93.304570281604384, 44.943873069235501 ], [ -93.304500176267823, 44.943877166340521 ], [ -93.304424925585494, 44.943894009991382 ], [ -93.3043670404452, 44.943920413542223 ], [ -93.30431301431426, 44.943931339145927 ], [ -93.304252556501098, 44.943944085680947 ], [ -93.304204962052424, 44.943983235735075 ], [ -93.304141931566335, 44.944013281107374 ], [ -93.30410334147281, 44.944035132277335 ], [ -93.304048029005443, 44.944051520649346 ], [ -93.304014584257729, 44.944053341579277 ], [ -93.303969562481967, 44.944047878789299 ], [ -93.303912963678144, 44.944039684603354 ], [ -93.303865369229456, 44.944016922969624 ], [ -93.30381648844434, 44.943978683404588 ], [ -93.303735449247938, 44.943904935600109 ], [ -93.303729017565686, 44.943884905315862 ], [ -93.30369428648153, 44.943863964556677 ], [ -93.303650551042224, 44.943832553403588 ], [ -93.303519987892471, 44.94379977652985 ], [ -93.303432517013832, 44.943752432123638 ], [ -93.303361768509035, 44.943728759905909 ], [ -93.30320483546204, 44.943716013323076 ], [ -93.30316238635919, 44.943718744733921 ], [ -93.303090351517952, 44.943686878265993 ], [ -93.303031823209423, 44.943637257587852 ], [ -93.302970722228039, 44.943615406266446 ], [ -93.302892898872742, 44.943620413861666 ], [ -93.302708309592063, 44.943668213612277 ], [ -93.302672292171465, 44.943665482199023 ], [ -93.30259446881621, 44.943639989002442 ], [ -93.302563596741379, 44.943600383478142 ], [ -93.30255073337689, 44.94357033788976 ], [ -93.302552019713332, 44.94353551230175 ], [ -93.302569706839535, 44.943511839994557 ], [ -93.302625019306902, 44.943492264810075 ], [ -93.302685477120107, 44.943471323907673 ], [ -93.302727926222957, 44.943454935370021 ], [ -93.302765229980054, 44.943416695430663 ], [ -93.302766516316481, 44.943362522139623 ], [ -93.302742075923902, 44.943319729755935 ], [ -93.302700269989273, 44.943300154505955 ], [ -93.302626305643358, 44.943282400203692 ], [ -93.302530473577804, 44.943275571624447 ], [ -93.302476447446864, 44.943270108760466 ], [ -93.302426280325278, 44.943237331565612 ], [ -93.302397980923345, 44.943208196265594 ], [ -93.302399267259815, 44.943132171272474 ], [ -93.302420813395386, 44.943064795745308 ], [ -93.30246326249825, 44.9430019725474 ], [ -93.302491561900155, 44.942973747610026 ], [ -93.302522433974971, 44.942934596867445 ], [ -93.302554592386258, 44.942907282380077 ], [ -93.302589323470386, 44.94285720578614 ], [ -93.302607332180713, 44.94282078641767 ], [ -93.302603473171374, 44.94275295528228 ], [ -93.302631772573264, 44.942825338839981 ], [ -93.302706380087429, 44.942825794082211 ], [ -93.302722459293065, 44.942812136814254 ], [ -93.302744327012704, 44.942807584390891 ], [ -93.302833084227814, 44.942766157321635 ], [ -93.30291283708776, 44.942736794161029 ], [ -93.303027964200083, 44.942680344011642 ], [ -93.30308263349923, 44.942612057466405 ], [ -93.302957858863465, 44.94259931063565 ], [ -93.302948854508344, 44.942540128884289 ], [ -93.303020889349582, 44.942498246377248 ], [ -93.302975867573792, 44.942464330629015 ], [ -93.302997092125196, 44.942427228143259 ], [ -93.303033752714057, 44.942375330147492 ], [ -93.302940493321373, 44.942362128018281 ], [ -93.302905119068996, 44.942326163581917 ], [ -93.302948854508344, 44.942280638946599 ], [ -93.302871674321295, 44.942241487731373 ], [ -93.30291026441482, 44.942224188348696 ], [ -93.302929559461575, 44.942185037094958 ], [ -93.302822150367959, 44.942156811755929 ], [ -93.302686120288314, 44.942153169775708 ], [ -93.302621803465755, 44.942123123429916 ], [ -93.3025008878394, 44.942118570951926 ], [ -93.302308902124111, 44.942061209698124 ] ] ] ] } }
]
}
