{
"type": "FeatureCollection",
"name": "eastfold",
"crs": { "type": "name", "properties": { "name": "urn:ogc:def:crs:OGC:1.3:CRS84" } },
"features": [
{ "type": "Feature", "properties": { "id": 1 }, "geometry": { "type": "MultiPolygon", "coordinates": [ [ [ [ -93.302813253207702, 44.941645784661461 ], [ -93.302831690696777, 44.941636376128287 ], [ -93.30286284862413, 44.941630103771978 ], [ -93.302908481977838, 44.941629597686095 ], [ -93.302932882497572, 44.941625450087841 ], [ -93.302957073419165, 44.94162566353058 ], [ -93.303056942501883, 44.941611691367271 ], [ -93.303083812641077, 44.941602181661423 ], [ -93.303107287527965, 44.941588918217541 ], [ -93.303122402734601, 44.941585994924445 ], [ -93.303141269002538, 44.94157850855705 ], [ -93.303168996699341, 44.941562726482047 ], [ -93.303199349533969, 44.94155049058795 ], [ -93.303250607600802, 44.941537839354972 ], [ -93.303281805760648, 44.941536104456894 ], [ -93.303321070253048, 44.94152691329576 ], [ -93.303344938940512, 44.941518314081044 ], [ -93.303387816822166, 44.941504960003847 ], [ -93.303405825532494, 44.941503543662144 ], [ -93.30344126327681, 44.941484003810253 ], [ -93.303491867148381, 44.941470967793357 ], [ -93.303535316735164, 44.941441831596933 ], [ -93.303568761482893, 44.941427465827985 ], [ -93.303607637428925, 44.94139428291129 ], [ -93.30362821881215, 44.941367574696116 ], [ -93.303662521117488, 44.941337629106762 ], [ -93.303687676141394, 44.941308492842673 ], [ -93.3037505637012, 44.941303636797215 ], [ -93.303800873749026, 44.941306874160894 ], [ -93.303856900847748, 44.941322251635889 ], [ -93.303893489973433, 44.941336010425815 ], [ -93.303911784536311, 44.941362718655675 ], [ -93.303966668224845, 44.941413707059979 ], [ -93.304005544170906, 44.941431512523828 ], [ -93.303987249608028, 44.941470360789438 ], [ -93.303908354305761, 44.941502734324025 ], [ -93.303991823248765, 44.941564243989461 ], [ -93.304119885188726, 44.94162332557972 ], [ -93.304157617724584, 44.941666220394836 ], [ -93.304169051826364, 44.941692928471092 ], [ -93.30421593164364, 44.94174067924309 ], [ -93.30429025330524, 44.9417843833047 ], [ -93.304382869529633, 44.941905783301294 ], [ -93.304431321536114, 44.941984389662167 ], [ -93.304434180061563, 44.942007860266429 ], [ -93.30448105987881, 44.942054194448403 ], [ -93.30457410488188, 44.942084982715997 ], [ -93.304529130748222, 44.942087680482366 ], [ -93.304476533880006, 44.94208875958887 ], [ -93.304433084293265, 44.942090917801835 ], [ -93.304385823339246, 44.942100629759153 ], [ -93.30430654690025, 44.942125988751073 ], [ -93.30428215414976, 44.942124370092337 ], [ -93.304252425485132, 44.942124370092337 ], [ -93.304212024992182, 44.942126528303959 ], [ -93.304186107694818, 44.942129226068374 ], [ -93.304144944928396, 44.942131923832662 ], [ -93.304109880349614, 44.942137858913647 ], [ -93.304074053497345, 44.942145412652195 ], [ -93.30403365300441, 44.942161599231454 ], [ -93.304032890730937, 44.942140017124764 ], [ -93.304042800285814, 44.942123290986501 ], [ -93.304040513465452, 44.942058005045368 ], [ -93.304026792543354, 44.942039120668383 ], [ -93.304025267996423, 44.942022394500725 ], [ -93.304018407535366, 44.941994337692428 ], [ -93.303988678870738, 44.94197113685982 ], [ -93.303939131096385, 44.941960885326132 ], [ -93.303904066517589, 44.941944159135694 ], [ -93.303864428298084, 44.941933368042491 ], [ -93.303836986453803, 44.941917720953754 ], [ -93.303796585960825, 44.941903152970745 ], [ -93.303752374100625, 44.941885887208322 ], [ -93.303747800459888, 44.941875635659422 ], [ -93.303733317264317, 44.941874016993644 ], [ -93.303625074434137, 44.941823298776008 ], [ -93.303583149394242, 44.94181574499509 ], [ -93.303549609362349, 44.941799018762346 ], [ -93.303528265705708, 44.941797939650392 ], [ -93.303492438853482, 44.941781213412469 ], [ -93.30347643111098, 44.941779594744034 ], [ -93.303464234735742, 44.94177312006979 ], [ -93.303384958296746, 44.941733192895882 ], [ -93.303355991905548, 44.94172887644298 ], [ -93.30329348548247, 44.941707294173611 ], [ -93.303249273622271, 44.941711610628147 ], [ -93.303147128979688, 44.941691107466276 ], [ -93.303052607071635, 44.941697582149772 ], [ -93.302968756991916, 44.941700819491231 ], [ -93.302904726021964, 44.941673841640089 ], [ -93.302871185990057, 44.941667366953922 ], [ -93.302813253207702, 44.941645784661461 ] ] ] ] } }
]
}
