{
"type": "FeatureCollection",
"name": "field_of_celebrant",
"crs": { "type": "name", "properties": { "name": "urn:ogc:def:crs:OGC:1.3:CRS84" } },
"features": [
{ "type": "Feature", "properties": { "id": 1 }, "geometry": { "type": "MultiPolygon", "coordinates": [ [ [ [ -93.303117163593399, 44.943754053897834 ], [ -93.30310649102077, 44.943732031907757 ], [ -93.303125620250754, 44.94373289614299 ], [ -93.30315085455409, 44.943738945789285 ], [ -93.303222894420074, 44.943737793475755 ], [ -93.303352321975922, 44.943749316609996 ], [ -93.303387731401585, 44.94375623048942 ], [ -93.303427617881027, 44.943772650949761 ], [ -93.303455701218624, 44.943788495249123 ], [ -93.30350087876171, 44.943811829572965 ], [ -93.303597006675034, 44.943839270000609 ], [ -93.303616061146329, 44.943842653912135 ], [ -93.303646179508348, 44.943855617414322 ], [ -93.303661238689401, 44.943867140524908 ], [ -93.303692171061243, 44.943891339049635 ], [ -93.303712521305854, 44.943912656789145 ], [ -93.303744267687492, 44.943947226079644 ], [ -93.303772724212052, 44.943972627693185 ], [ -93.30378985223544, 44.9439783384233 ], [ -93.303810202480079, 44.943993318434607 ], [ -93.303830552724733, 44.944012907674242 ], [ -93.303889568434144, 44.944051125877472 ], [ -93.303917516103439, 44.944059864206785 ], [ -93.303956389557356, 44.944061340233354 ], [ -93.303971240749263, 44.944066778048807 ], [ -93.304002071179028, 44.944067692650528 ], [ -93.304020081336361, 44.94407407599229 ], [ -93.304060781825612, 44.944069082662644 ], [ -93.304077062021321, 44.944062937025571 ], [ -93.304091171524263, 44.944061400616206 ], [ -93.304121561222914, 44.944046420622669 ], [ -93.304143268150526, 44.944037202163159 ], [ -93.304169859136834, 44.944023374471143 ], [ -93.304191566064418, 44.944008010364968 ], [ -93.304222769772835, 44.943995334974296 ], [ -93.304256686847225, 44.943964990845856 ], [ -93.304282192487165, 44.943953467754902 ], [ -93.304325606342374, 44.943949242620967 ], [ -93.304373361583075, 44.943940024145874 ], [ -93.304416775438298, 44.943917746158249 ], [ -93.304482981567475, 44.943898540989558 ], [ -93.304532093491218, 44.943890474816804 ], [ -93.304611323776967, 44.943891435075535 ], [ -93.30465582297856, 44.943901613816983 ], [ -93.304713889009875, 44.943903214247882 ], [ -93.304738671085559, 44.943912688797788 ], [ -93.304768518111018, 44.943912816832238 ], [ -93.304778286228427, 44.943918194278773 ], [ -93.304786245435196, 44.943943289022641 ], [ -93.304813504649118, 44.943964217607473 ], [ -93.30486366681032, 44.943970432304667 ], [ -93.304916487000796, 44.943969408030107 ], [ -93.304943982442438, 44.943955580321763 ], [ -93.30495121808498, 44.943933046271368 ], [ -93.304995355504431, 44.943946873985148 ], [ -93.304996802632971, 44.943976577951645 ], [ -93.305023816029518, 44.943997138670973 ], [ -93.305099548756942, 44.944006794039737 ], [ -93.305121255684554, 44.944018573188409 ], [ -93.305142962612152, 44.944009354724436 ], [ -93.305175523003555, 44.944046228571445 ], [ -93.305224001808512, 44.944060568394441 ], [ -93.305234855272346, 44.944073883941158 ], [ -93.305289846155617, 44.944065689758929 ], [ -93.305318788725756, 44.944084126667299 ], [ -93.30537269426263, 44.94412701806317 ], [ -93.30541520366252, 44.944136876677987 ], [ -93.305431122076101, 44.944154033224436 ], [ -93.305353700700934, 44.944192955519696 ], [ -93.305343570801412, 44.944215489468071 ], [ -93.305282791404125, 44.944341474561881 ], [ -93.305268320119055, 44.944383469531694 ], [ -93.305371066243026, 44.944461313784764 ], [ -93.305303051203211, 44.944499211606598 ], [ -93.305313181102747, 44.944526866758103 ], [ -93.305313181102747, 44.944594468183453 ], [ -93.305295815560655, 44.944628268866261 ], [ -93.305262531604981, 44.944660021004736 ], [ -93.305091770441166, 44.944653875430916 ], [ -93.305084534798638, 44.944626220340602 ], [ -93.305067169256588, 44.944612904922003 ], [ -93.305029543915367, 44.944611880658904 ], [ -93.305016519758837, 44.944598565236973 ], [ -93.304954293233024, 44.944580128493811 ], [ -93.304910879377815, 44.944585249811951 ], [ -93.304874701165133, 44.944608807869507 ], [ -93.304866018394094, 44.944621099026115 ], [ -93.304863124137071, 44.944641584281307 ], [ -93.30479800335425, 44.944618026237201 ], [ -93.304727094057441, 44.944571934383845 ], [ -93.30466776178865, 44.944540182196654 ], [ -93.30461855941941, 44.944530963816433 ], [ -93.304546202994032, 44.944507405726938 ], [ -93.304554885765072, 44.944493066015568 ], [ -93.304544755865535, 44.944472580707377 ], [ -93.304502789138837, 44.944454143923757 ], [ -93.304400043014851, 44.944443901263625 ], [ -93.304376888958743, 44.944434682867971 ], [ -93.304323345203969, 44.944432634335385 ], [ -93.304284272734307, 44.944417270338761 ], [ -93.30424375313612, 44.944403954871689 ], [ -93.304172843839268, 44.94440702767205 ], [ -93.304099040285394, 44.944425464470811 ], [ -93.304062862072726, 44.94440702767205 ], [ -93.304058520687192, 44.944386542333149 ], [ -93.304044049402123, 44.94435376577573 ], [ -93.304013659703472, 44.944345571633455 ], [ -93.303964457334274, 44.944378348195563 ], [ -93.303944197535159, 44.944332256149735 ], [ -93.303923937736059, 44.944286164066924 ], [ -93.303879076752352, 44.944248266104431 ], [ -93.303840004282648, 44.944223683628913 ], [ -93.303780672013843, 44.944203198224606 ], [ -93.303718445488045, 44.944190906978498 ], [ -93.303572285508864, 44.944145839053633 ], [ -93.303515847497067, 44.944136620610081 ], [ -93.303453620971268, 44.944133035659412 ], [ -93.303379817417422, 44.944123305077916 ], [ -93.303350874847268, 44.944106404590322 ], [ -93.303331338612423, 44.944109477406627 ], [ -93.303257535058592, 44.944069530781967 ], [ -93.303215568331893, 44.944009098655933 ], [ -93.303208332689351, 44.943980418980644 ], [ -93.303205438432315, 44.943934326615334 ], [ -93.303176495862203, 44.943864675859771 ], [ -93.303134529135477, 44.943790927908843 ], [ -93.303117163593399, 44.943754053897834 ] ] ] ] } }
]
}
