{
"type": "FeatureCollection",
"name": "gandalfthewhitepath",
"crs": { "type": "name", "properties": { "name": "urn:ogc:def:crs:OGC:1.3:CRS84" } },
"features": [
{ "type": "Feature", "properties": { "id": 88 }, "geometry": { "type": "MultiLineString", "coordinates": [ [ [ -93.305594246179766, 44.942371734192378 ], [ -93.305543339870965, 44.942362066967078 ], [ -93.305481703332504, 44.942341669720584 ], [ -93.305426470590248, 44.942309940656095 ], [ -93.305407259201644, 44.942287277027859 ], [ -93.305249565720146, 44.942103701309421 ], [ -93.305220748637225, 44.942073105299286 ], [ -93.305181525385493, 44.942050441577557 ], [ -93.305150306879, 44.942039109713328 ], [ -93.305105480305585, 44.942032310593731 ], [ -93.305029435225677, 44.942034576967025 ], [ -93.304960594416499, 44.942041376086358 ], [ -93.304931277036971, 44.942043146690203 ], [ -93.304914467071953, 44.942043571635125 ], [ -93.304889552302356, 44.94204406740419 ], [ -93.304867739371545, 44.942042438448667 ], [ -93.304779487055143, 44.942050795698265 ], [ -93.304739263210237, 44.942056461629491 ], [ -93.304689233552409, 44.942063827339261 ], [ -93.304631999623851, 44.942074875902151 ], [ -93.304591575660325, 44.942076858977316 ], [ -93.304515930817701, 44.942072042937511 ], [ -93.304493117293703, 44.942070626455141 ], [ -93.304458696889128, 44.94206212756017 ], [ -93.304440686212317, 44.942053911960514 ], [ -93.304422275298222, 44.942039463834114 ], [ -93.304390656554475, 44.941998952401498 ], [ -93.304315812186417, 44.941901781506047 ], [ -93.304272586562035, 44.941870052198439 ], [ -93.304250173275335, 44.941833790111133 ], [ -93.304150914434203, 44.941770331403234 ], [ -93.304078871726944, 44.941730669675181 ], [ -93.303904368280428, 44.941653612525208 ], [ -93.303773090458293, 44.941606018351493 ], [ -93.303677033515271, 44.941498364717788 ], [ -93.303637009789014, 44.941471167978385 ], [ -93.303577774674139, 44.941468901582851 ], [ -93.303500929119707, 44.941466635187233 ], [ -93.303432088310529, 44.941475700769182 ], [ -93.303358444654236, 44.941490432336792 ], [ -93.303304012386505, 44.941497231520572 ], [ -93.30327039245644, 44.941494965126068 ], [ -93.303159926971958, 44.941465501989391 ], [ -93.303081480468492, 44.941465501989391 ], [ -93.302999832066916, 44.941447370820846 ], [ -93.302876558990022, 44.941404309272599 ], [ -93.302770896352698, 44.941357848092217 ], [ -93.302758889234809, 44.941354165192145 ], [ -93.302720066220346, 44.941348499191605 ], [ -93.302706458153395, 44.941343116490572 ], [ -93.302650024699361, 44.941307987271422 ], [ -93.30262440951455, 44.941296088660067 ], [ -93.302614003345724, 44.941292122455735 ], [ -93.302565174399689, 44.941286456449063 ], [ -93.302530753995114, 44.941286739749408 ], [ -93.302381865733437, 44.941286173148718 ], [ -93.302243383640558, 44.94127257473037 ], [ -93.302177344492236, 44.941270591627422 ], [ -93.302146125985743, 44.941268891824841 ], [ -93.30202565456969, 44.941273141331195 ], [ -93.301916790034255, 44.941278524038793 ], [ -93.301857154682111, 44.941276824236446 ], [ -93.301715470691164, 44.941260109510715 ], [ -93.301672245066811, 44.941251610495762 ], [ -93.301609407816571, 44.941248494189971 ], [ -93.301572986225665, 44.941245661184546 ], [ -93.30147252667274, 44.941241128375587 ], [ -93.301411290371561, 44.941237445468047 ], [ -93.301346051697735, 44.941235462363892 ], [ -93.301320036275669, 44.941233762560273 ], [ -93.301274008990475, 44.941229796351628 ], [ -93.301234385501459, 44.941225546842062 ], [ -93.30117675133566, 44.941215064717149 ], [ -93.301125520966039, 44.941198066672648 ], [ -93.301079093443576, 44.941173419499201 ], [ -93.30106148300402, 44.941163503966671 ], [ -93.301026662362176, 44.941139706681597 ], [ -93.300998645753793, 44.941118459097311 ], [ -93.300977833416113, 44.941099477915358 ], [ -93.300957821552984, 44.941075397302363 ], [ -93.300952218231316, 44.941046783854972 ], [ -93.300964225349205, 44.941017603789966 ], [ -93.30098383697505, 44.940989273615585 ], [ -93.301001847651875, 44.940965192956369 ], [ -93.301024661175845, 44.940935729547817 ], [ -93.301039870191829, 44.940919298024951 ], [ -93.301054278733275, 44.940907116030814 ], [ -93.30108389629072, 44.940911365563949 ], [ -93.301115515034468, 44.940911365563949 ], [ -93.301141530456533, 44.940908815844111 ], [ -93.301182354657314, 44.94090654942638 ], [ -93.301187657801066, 44.94090584117081 ], [ -93.301177751928819, 44.940897483754561 ], [ -93.301138228499127, 44.940900458428281 ], [ -93.30112502066946, 44.940902441544011 ], [ -93.301093501985022, 44.940903078974046 ], [ -93.301056680156861, 44.940900954207223 ], [ -93.301042017433105, 44.940899501175146 ], [ -93.301034402949625, 44.940898746602599 ], [ -93.300919273700842, 44.940895863621101 ], [ -93.300919906888666, 44.940887824157649 ], [ -93.300971195105021, 44.940885672830653 ], [ -93.301031221313792, 44.940888899821118 ], [ -93.301161911287338, 44.940890513316269 ], [ -93.301161151461912, 44.940880832344639 ], [ -93.301127244252228, 44.940877297221022 ], [ -93.301003867598411, 44.940875991858213 ], [ -93.30093120929196, 44.940875134680368 ], [ -93.300930734400993, 44.940870344616435 ], [ -93.301018494237894, 44.940856898820762 ], [ -93.301087638351788, 44.940856360988867 ], [ -93.301149816169783, 44.940857974488488 ], [ -93.301176410059739, 44.940868193295898 ], [ -93.301202624036975, 44.940899925370438 ], [ -93.301236056355805, 44.940891051147979 ], [ -93.301210602203994, 44.940868731127814 ], [ -93.301191606568295, 44.940851251587894 ], [ -93.301173750670742, 44.940842108441814 ], [ -93.301098845776849, 44.940843721937938 ], [ -93.301035780266361, 44.940842377357889 ], [ -93.300970625235962, 44.940851117127657 ], [ -93.300816062850757, 44.940856898824435 ], [ -93.3007167523443, 44.940850047983041 ], [ -93.300668604111053, 44.940846693995226 ], [ -93.30063814756295, 44.940846020299773 ], [ -93.300639495899702, 44.940860729315382 ], [ -93.300675663050541, 44.940926302285774 ], [ -93.300685180721828, 44.940951453542219 ], [ -93.300683277187574, 44.940973910011884 ], [ -93.300650282593807, 44.940984689114202 ], [ -93.300609039351627, 44.94099097692294 ], [ -93.300581755360639, 44.941004001667451 ], [ -93.300567161598025, 44.941021966827442 ], [ -93.300569065132279, 44.941047118041979 ], [ -93.300569065132279, 44.941070921859875 ], [ -93.30057414122362, 44.941088437870519 ], [ -93.300580486337807, 44.941106403004078 ], [ -93.300563989040924, 44.941118080337887 ], [ -93.300538608584205, 44.941123469875762 ], [ -93.300506248501861, 44.941130655925477 ], [ -93.300494192784925, 44.941142333254348 ], [ -93.300496096319179, 44.941152214069234 ], [ -93.30043645224589, 44.941196228587593 ], [ -93.300425665551771, 44.94121194805026 ], [ -93.300433914200212, 44.941223625362596 ], [ -93.300442162848654, 44.941225870999304 ], [ -93.300563989040967, 44.941249674743098 ], [ -93.300599521680383, 44.941261801174811 ], [ -93.300619191534338, 44.941278868000303 ], [ -93.300616653488675, 44.941314349015997 ], [ -93.30059317656621, 44.94132872106676 ], [ -93.300574775735058, 44.941348033504283 ], [ -93.300579851826399, 44.941362854672875 ], [ -93.300582389872076, 44.9414059707779 ], [ -93.300593811077604, 44.941424384937889 ], [ -93.300657262219431, 44.94147872913171 ], [ -93.300638861388279, 44.941491753765568 ], [ -93.300616018977223, 44.941497592393581 ], [ -93.300611577397305, 44.94150926964781 ], [ -93.300614115442968, 44.941523192524762 ], [ -93.300626171159919, 44.941536217148538 ], [ -93.300664241845013, 44.941555529516272 ], [ -93.300704216064375, 44.941570799755929 ], [ -93.300708023132884, 44.941581129621625 ], [ -93.30069913997302, 44.941595052481155 ], [ -93.300705485087221, 44.94160493321813 ], [ -93.300722616895513, 44.941613915704806 ], [ -93.30075941855776, 44.941617508699089 ], [ -93.300785433525917, 44.941621101693137 ], [ -93.300797489242868, 44.941629185928932 ], [ -93.300799392777122, 44.941644905273058 ], [ -93.300813986539751, 44.941661522860741 ], [ -93.300815255562583, 44.941684428176409 ], [ -93.300812083005496, 44.941696105392651 ], [ -93.300820331653938, 44.941709579100738 ], [ -93.300831118348057, 44.941717663324077 ], [ -93.300846981133489, 44.941722154558782 ], [ -93.300857767827608, 44.941729789656961 ], [ -93.300856498804777, 44.941741017740668 ], [ -93.300843174064994, 44.941741466863967 ], [ -93.300829214813788, 44.941742814233855 ], [ -93.300754976977856, 44.941759431793194 ], [ -93.300746728329415, 44.941770210748039 ], [ -93.300731500055377, 44.941775151101666 ], [ -93.300682642676165, 44.941795810757661 ], [ -93.300670586959214, 44.941806589705678 ], [ -93.300671221470637, 44.941821410755885 ], [ -93.300701678018726, 44.941833537066842 ], [ -93.300711195689985, 44.94184566337524 ], [ -93.300706754110081, 44.94185913704824 ], [ -93.300704850575812, 44.941873958084877 ], [ -93.300711195689985, 44.941883838773848 ], [ -93.300768936229062, 44.941912133464669 ], [ -93.300767667206216, 44.941918870293762 ], [ -93.300775281343249, 44.941927852731325 ], [ -93.300786702548763, 44.941931445705961 ], [ -93.300793682174358, 44.94193952989805 ], [ -93.300791144128695, 44.941948512332381 ], [ -93.300763225626298, 44.941954350913939 ], [ -93.300725789452613, 44.941965578953734 ], [ -93.300706119598644, 44.942025312088511 ], [ -93.300708023132913, 44.942038785719348 ], [ -93.300720713361258, 44.942056301434704 ], [ -93.300720078849849, 44.94207157154117 ], [ -93.300714368247085, 44.942080160974264 ], [ -93.300705643715091, 44.94208723462409 ], [ -93.300683911699011, 44.942082799558044 ], [ -93.300661069287955, 44.942089536367106 ], [ -93.300647268664576, 44.94209840649782 ], [ -93.300650758477389, 44.942117269556086 ], [ -93.300626647043487, 44.942134560687386 ], [ -93.300591748915494, 44.942140623810111 ], [ -93.300557168043198, 44.942146686932205 ], [ -93.30052988405221, 44.942153199173745 ], [ -93.300499427504135, 44.942166448214572 ], [ -93.300457867006202, 44.942182167411588 ], [ -93.300432486549482, 44.942191149807954 ], [ -93.300404568047085, 44.942196539245089 ], [ -93.300369035407641, 44.942201030442334 ], [ -93.300339847882412, 44.942202826921125 ], [ -93.300278934786263, 44.942213156673105 ], [ -93.300237691544069, 44.942218995227755 ], [ -93.300191372210534, 44.942221240825539 ], [ -93.300162819196714, 44.942218546108187 ], [ -93.300158377616782, 44.942206419878552 ], [ -93.300158377616782, 44.942198335724029 ] ] ] } },
{ "type": "Feature", "properties": { "id": 34 }, "geometry": { "type": "MultiLineString", "coordinates": [ [ [ -93.306486125647879, 44.942509785471962 ], [ -93.306474425156338, 44.942511740984664 ], [ -93.306435201904591, 44.942512590867558 ], [ -93.306356355163857, 44.94251410177047 ], [ -93.306337010362853, 44.942511740984664 ], [ -93.306260698458104, 44.942498237288049 ], [ -93.306130621347748, 44.942505508509704 ], [ -93.306058845465273, 44.942503714312238 ], [ -93.305953182827935, 44.942492382537495 ], [ -93.305608978782033, 44.942374531947479 ], [ -93.305594246179766, 44.942371734192378 ] ], [ [ -93.306486125647879, 44.942509785471962 ], [ -93.306447344944871, 44.942585895691785 ], [ -93.306433130337069, 44.942659678602901 ], [ -93.306416546627972, 44.942787121589653 ], [ -93.306411808425366, 44.942869288628479 ], [ -93.306409439324071, 44.942944748050351 ], [ -93.306481767766982, 44.94296673665314 ], [ -93.306459936850644, 44.942925942969694 ], [ -93.30645229515558, 44.94289889859175 ], [ -93.306447592573974, 44.942878511283041 ], [ -93.306451119510172, 44.942863948915232 ], [ -93.306461700318721, 44.942849386543749 ], [ -93.306479334999693, 44.942837736643902 ], [ -93.306498733148743, 44.942831079557202 ], [ -93.306516955652384, 44.942827334945605 ], [ -93.306545758964631, 44.942823174265754 ], [ -93.306577501390336, 44.942822342129745 ], [ -93.306628054142408, 44.942823590333759 ], [ -93.306486388872074, 44.942808611883919 ], [ -93.306468754191116, 44.942803619066446 ], [ -93.306455234269052, 44.942792385225516 ], [ -93.306447004751277, 44.942778238904211 ], [ -93.306445829105854, 44.942764508647826 ], [ -93.306459349027961, 44.94273538385071 ], [ -93.30647051765925, 44.942719157171624 ], [ -93.306482861935891, 44.942700850143552 ], [ -93.306492267099088, 44.942678798488345 ], [ -93.306497557503377, 44.942659243239845 ], [ -93.306508726134624, 44.942628038042294 ], [ -93.306519894765913, 44.942608066706946 ], [ -93.306534002510674, 44.942597248897407 ], [ -93.306556339773209, 44.942586015016118 ], [ -93.306575150099562, 44.942576445411781 ], [ -93.306588670021625, 44.94256812401543 ], [ -93.306596311716717, 44.942558138338207 ], [ -93.306597928229166, 44.942543991959177 ], [ -93.306595136071351, 44.942535566540592 ], [ -93.306582203971956, 44.942524852734927 ], [ -93.306544583319251, 44.942510290277426 ], [ -93.306510489602715, 44.942505713504296 ], [ -93.306486125647879, 44.942509785471962 ] ], [ [ -93.305594246179766, 44.942371734192378 ], [ -93.305594755650532, 44.942370633375589 ], [ -93.305639481401272, 44.942273994156238 ], [ -93.30579347298584, 44.942260578998415 ], [ -93.305738983655914, 44.942372930848329 ], [ -93.305897713443059, 44.94242826824582 ], [ -93.306077765141936, 44.942463482925547 ], [ -93.306305198866824, 44.942466836703446 ], [ -93.306499465173502, 44.942483605589977 ], [ -93.306486125647879, 44.942509785471962 ] ], [ [ -93.3055676980714, 44.942429096862114 ], [ -93.305594246179766, 44.942371734192378 ] ], [ [ -93.305569216677014, 44.945022250523195 ], [ -93.304474790525489, 44.944678469313061 ], [ -93.304634132264013, 44.944088842645471 ], [ -93.305137316701504, 44.943625842963741 ], [ -93.304963997617477, 44.943412149543505 ], [ -93.304569836474812, 44.943333992955047 ], [ -93.30461666058217, 44.943267213507184 ], [ -93.304713104266, 44.943275128112468 ], [ -93.304747348762433, 44.94327859075193 ], [ -93.304774604586143, 44.943271665472793 ], [ -93.304895508624611, 44.943280074740215 ], [ -93.305001736450293, 44.943294419958292 ], [ -93.305114952948742, 44.943315195784983 ], [ -93.305168765728837, 44.943300355909535 ], [ -93.30519951588893, 44.943281064065708 ], [ -93.305142208772409, 44.942864556523453 ], [ -93.305153390648798, 44.942744847145846 ], [ -93.305154788383362, 44.942596446744439 ], [ -93.304877338075485, 44.942058244737055 ], [ -93.304871741744151, 44.942046758721936 ], [ -93.304934673764237, 44.942083666311468 ], [ -93.304978502138312, 44.942092889261232 ], [ -93.305027809059098, 44.942094146454465 ], [ -93.305068083781194, 44.942092050327496 ], [ -93.30510065892409, 44.942093308003685 ], [ -93.305144191160579, 44.942101902123596 ], [ -93.305193942287872, 44.942122653773694 ], [ -93.305232144046357, 44.942153466816059 ], [ -93.305416045534841, 44.942372930659857 ], [ -93.305454247293326, 44.942396197551133 ], [ -93.305497779529716, 44.942414433756618 ], [ -93.305553749547968, 44.942425752777808 ], [ -93.3055676980714, 44.942429096862114 ] ], [ [ -93.3055676980714, 44.942429096862114 ], [ -93.305608831153208, 44.942438958299697 ], [ -93.305634595129845, 44.942449019647668 ], [ -93.305941986023655, 44.942552148362751 ], [ -93.306013947475634, 44.942560952024969 ], [ -93.306079690036739, 44.942564725022642 ], [ -93.306155205140712, 44.94256409618972 ], [ -93.306190741660217, 44.942560952024969 ], [ -93.306233385483651, 44.942557807860041 ], [ -93.306261814699255, 44.942560952024969 ], [ -93.306309789000608, 44.942569755685831 ], [ -93.306350655998045, 44.942573528682928 ], [ -93.3063826388656, 44.94257478634858 ], [ -93.306371533703242, 44.94261272585225 ], [ -93.306241233131701, 44.942595957003434 ], [ -93.306023275812024, 44.942594280118279 ], [ -93.305847962315752, 44.942569126835124 ], [ -93.305701078035099, 44.942515466460904 ], [ -93.305549455551827, 44.942468513592317 ], [ -93.3055676980714, 44.942429096862114 ] ] ] } }
]
}
