{
"type": "FeatureCollection",
"name": "great_west_road",
"crs": { "type": "name", "properties": { "name": "urn:ogc:def:crs:OGC:1.3:CRS84" } },
"features": [
{ "type": "Feature", "properties": { "id": 1 }, "geometry": { "type": "MultiLineString", "coordinates": [ [ [ -93.300958316472645, 44.941035225718338 ], [ -93.300951718959041, 44.941056652521603 ], [ -93.300964040785928, 44.941085221580217 ], [ -93.301001297333315, 44.941120658181241 ], [ -93.301037971747192, 44.941149913963258 ], [ -93.301082796030769, 44.941176285359646 ], [ -93.301124127513049, 44.941197300057453 ], [ -93.301170698197311, 44.941212958062586 ], [ -93.301221925950003, 44.941225319642577 ], [ -93.301279557171753, 44.941231912484128 ], [ -93.301432658296235, 44.941239741482526 ], [ -93.301536278068724, 44.941243449955067 ], [ -93.301595073557593, 44.941247158427373 ], [ -93.30163756930699, 44.941249218689656 ], [ -93.301685886391894, 44.941254987423683 ], [ -93.301802895236108, 44.941271469517666 ], [ -93.301854705122338, 44.94127682619721 ], [ -93.301897200871707, 44.941278886458434 ], [ -93.301968803298749, 44.941277650301693 ], [ -93.302029345188288, 44.941273941831362 ], [ -93.302125397224572, 44.941269409256186 ], [ -93.302194671117419, 44.941268997203871 ], [ -93.30225579514051, 44.941273117726794 ], [ -93.302302365824744, 44.941279298510651 ], [ -93.302361743447179, 44.941284655189456 ], [ -93.302408896264993, 44.941287539554764 ], [ -93.302438585076189, 44.941286715450389 ], [ -93.302538712047365, 44.941287127502584 ], [ -93.302587029132255, 44.941287539554764 ], [ -93.302610896607959, 44.941292072128505 ], [ -93.302649899556016, 44.941308142159833 ], [ -93.30270811291129, 44.941343990675016 ], [ -93.302727323318564, 44.941349347347774 ], [ -93.302754101462, 44.941354291968331 ], [ -93.302769819067933, 44.941360060691807 ], [ -93.30279892574562, 44.941369949930667 ], [ -93.302840839361423, 44.941390964557598 ], [ -93.302925248726666, 44.941423104560378 ], [ -93.303040511170181, 44.9414581289019 ], [ -93.303075439183388, 44.941463897614916 ], [ -93.303143548809075, 44.941465133767636 ], [ -93.303179641089386, 44.941468842225632 ], [ -93.303244257913803, 44.941489032714898 ], [ -93.303269871790121, 44.941496861678232 ], [ -93.303319935275709, 44.941498097830234 ], [ -93.303362431025079, 44.941488620664167 ], [ -93.303380477165248, 44.941483264004397 ], [ -93.303459647328481, 44.941463897614916 ], [ -93.303510875081173, 44.941466369920327 ], [ -93.303573745504877, 44.941468430174751 ], [ -93.30362206258981, 44.94147049042909 ], [ -93.3036523335346, 44.941477907344137 ], [ -93.303672708208964, 44.941493565272751 ], [ -93.303715203958348, 44.941549192089852 ], [ -93.303757699707745, 44.941595753754562 ], [ -93.303778074382109, 44.941609351401745 ], [ -93.303812420261721, 44.941623361095459 ], [ -93.30386539441507, 44.941641491282262 ], [ -93.303921279236192, 44.941662917859297 ], [ -93.30406390195671, 44.941724313199167 ], [ -93.304126772380471, 44.941757277112949 ], [ -93.304184985735802, 44.941792713299151 ], [ -93.304222242283188, 44.94181620006168 ], [ -93.304251931094413, 44.941836390428811 ], [ -93.304261245231274, 44.941842571152009 ], [ -93.30426764870036, 44.941859877173471 ], [ -93.30428511270695, 44.941878831381452 ], [ -93.304320040720157, 44.941910147015697 ], [ -93.304338086860284, 44.941930749397358 ], [ -93.304369522072136, 44.941972778232994 ], [ -93.304415510622846, 44.942031700960534 ], [ -93.304432974629449, 44.9420506551118 ], [ -93.304452185036681, 44.942061780371581 ], [ -93.304479545313711, 44.942069197210223 ], [ -93.304510980525578, 44.942073317675742 ], [ -93.304567447480224, 44.942077850187445 ], [ -93.304635557105968, 44.942074965861856 ], [ -93.304665245917164, 44.942069609256805 ], [ -93.30472054860472, 44.94205972013846 ], [ -93.304754894484375, 44.942053951485299 ], [ -93.30479447956597, 44.942051067158502 ], [ -93.304814272106782, 44.942048594878266 ], [ -93.304873067595651, 44.942043238270749 ], [ -93.304899845739129, 44.942044886457722 ], [ -93.304962134029324, 44.942041178036959 ], [ -93.30501219751487, 44.942036645522343 ], [ -93.305070993003753, 44.94203293710104 ], [ -93.305111160218928, 44.942033761194679 ], [ -93.305144923965003, 44.942040353943419 ], [ -93.305192658916368, 44.942054363531973 ], [ -93.305227586929547, 44.942077850187466 ], [ -93.305429005138976, 44.942311480079425 ], [ -93.305472083021925, 44.942338675031543 ], [ -93.305508175302236, 44.942352272502767 ], [ -93.305558238787796, 44.942364221792992 ], [ -93.305619362810887, 44.942376171080738 ], [ -93.305644394553653, 44.942388944454542 ], [ -93.305957000271746, 44.942493191560324 ], [ -93.306002406688904, 44.942498136082378 ], [ -93.306086233920581, 44.942504728777791 ], [ -93.306182868090417, 44.942502256517109 ], [ -93.306217796103596, 44.942499784256299 ], [ -93.306239917178615, 44.942497311995396 ], [ -93.306265531054976, 44.942498136082378 ], [ -93.30629463773262, 44.942502668560564 ], [ -93.30632258014316, 44.94251090942906 ], [ -93.306349358286624, 44.942514205776121 ], [ -93.30636565802611, 44.942514617819491 ], [ -93.306402914573496, 44.942517914166352 ] ] ] } }
]
}
