{
"type": "FeatureCollection",
"name": "gulf_of_lune",
"crs": { "type": "name", "properties": { "name": "urn:ogc:def:crs:OGC:1.3:CRS84" } },
"features": [
{"type":"Feature","properties":{"id":1},"geometry":{"type":"MultiPolygon","coordinates":[[[[-93.313593595335732,44.946541375444497],[-93.313692097836096,44.946533051056676],[-93.313789130149885,44.946489348000924],[-93.313833235747069,44.946461253161779],[-93.31386852022483,44.946468537010276],[-93.314056704106136,44.946418590602001],[-93.314124332688451,44.94639986068767],[-93.314140504740749,44.946383211869808],[-93.314200782390259,44.9463790496646],[-93.314237537054566,44.946383211869808],[-93.314259589853165,44.946370725253253],[-93.314322807875783,44.946370725253253],[-93.314402197950699,44.94634367090805],[-93.31443013149557,44.946357198082254],[-93.314471296719617,44.94636031973738],[-93.314496289891366,44.946348873667745],[-93.314571269406571,44.946363441392343],[-93.31461831537689,44.946394657932615],[-93.314655070041184,44.9463790496646],[-93.314702116011532,44.9463790496646],[-93.31474769179529,44.946397779585695],[-93.3147741551536,44.946422752804331],[-93.314853545228516,44.946433158308913],[-93.314881478773401,44.946414428399336],[-93.314922643997434,44.946416509500715],[-93.314968219781179,44.946395698483677],[-93.315009385005226,44.946401941789581],[-93.315052020415806,44.946446685462007],[-93.315096126012989,44.946457090962234],[-93.31510494713244,44.946469577560002],[-93.315154933475924,44.946474780308279],[-93.315178456461069,44.946500794042549],[-93.315224032244814,44.946491429099567],[-93.315240204297112,44.946502875140787],[-93.315301952133154,44.946502875140787],[-93.315328415491479,44.94653617270226],[-93.315363699969225,44.94653617270226],[-93.315396044073836,44.946571551340142],[-93.31544161985758,44.946567389148591],[-93.315471023589026,44.946565308052691],[-93.31554159254452,44.946574672983623],[-93.315559234783393,44.946603808314528],[-93.315588638514839,44.946603288040912],[-93.315614366779855,44.946619416521429],[-93.315626128272442,44.946608490777059],[-93.315686405921909,44.946614734059807],[-93.315751094131116,44.946655315381193],[-93.315819457806768,44.946646991009921],[-93.315813577060439,44.946677166850066],[-93.31582754383291,44.946696416946679],[-93.31584959663148,44.946690693945655],[-93.315870179243518,44.94668236957952],[-93.315895172415239,44.94667976821485],[-93.315889291668967,44.946662599205084],[-93.315890761855528,44.946623578709222],[-93.315915755027277,44.946612652965634],[-93.315916490120543,44.946595483935781],[-93.31593413235943,44.946580395996236],[-93.31593266217287,44.94654189571871],[-93.315948099131859,44.946517442826327],[-93.315962800997582,44.946505996788019],[-93.315985588889461,44.946508598160555],[-93.315998820568609,44.946499233218852],[-93.316001760941759,44.946484665528708],[-93.316026019020214,44.946478422231799],[-93.316036310326226,44.946454489587367],[-93.316109819654855,44.946423793354917],[-93.316129667173598,44.94642327307966],[-93.316140693572876,44.946431077208167],[-93.316164216558064,44.946414428399379],[-93.316168627117762,44.946407664819411],[-93.316211997621679,44.946400901238661],[-93.316248752285986,44.946378009113296],[-93.316268599804729,44.946380090215968],[-93.316289182416753,44.946361880564922],[-93.316325937081061,44.946362921116567],[-93.316339903853475,44.946375928010525],[-93.316397976223115,44.946365002219792],[-93.316408267529127,44.946354596702875],[-93.316444287100168,44.946353035875191],[-93.316453843312885,44.946346272287997],[-93.31650934285598,44.946351735185402],[-93.316525882454897,44.946342370218098],[-93.316569988052095,44.946352515599258],[-93.316569988052095,44.945834318452327],[-93.316533958853938,44.945842877420809],[-93.31651154813585,44.945834318452327],[-93.316446492379995,44.94580778413517],[-93.316418926381743,44.945804662449994],[-93.316410105262321,44.94581792961084],[-93.316375923424502,44.94581636876854],[-93.316349460066192,44.945807003713902],[-93.316342844226611,44.945790614864599],[-93.316331817827319,44.945768763058261],[-93.316306457108951,44.945753935042063],[-93.316296533349586,44.945723498575802],[-93.316253663636473,44.945736470531621],[-93.316243882292923,44.945743984660638],[-93.316211354415032,44.945745740610427],[-93.316183017391424,44.945754353350146],[-93.316180480496968,44.945767397320076],[-93.316163113918108,44.945784371492202],[-93.316141888099438,44.945798028868424],[-93.316103295701936,44.945799589711221],[-93.316061671044594,44.945796077814876],[-93.316043753145735,44.945789054021567],[-93.316029970146602,44.945789834443083],[-93.316005987728133,44.94580290650201],[-93.31598283228962,44.945805247765975],[-93.315965465710718,44.945793541445177],[-93.315962433450906,44.945772860272577],[-93.315965465710718,44.945739497233163],[-93.315965465710718,44.945739497233163],[-93.315967119670617,44.945725644737408],[-93.315934040472726,44.94572125486129],[-93.315903855704633,44.945719791569196],[-93.315884008185932,44.945720962202877],[-93.315873257446597,44.945706621938498],[-93.315859198787507,44.945699305475706],[-93.315792626901754,44.945698427500112],[-93.315778568242635,44.945709841181831],[-93.315756239784065,44.945710133840308],[-93.31573349783551,44.94570369535348],[-93.315723987566145,44.945703110036462],[-93.3157272954859,44.945714231058815],[-93.315697600079261,44.945725742781008],[-93.315660723600175,44.945729156638045],[-93.315654087133694,44.94573176426573],[-93.315612345273266,44.9457317905634],[-93.315606142923642,44.945728278662912],[-93.315597992765348,44.945731571461678],[-93.315598700104132,44.945738814363729],[-93.315578025605461,44.945751398670502],[-93.315551975737122,44.945752569303544],[-93.315533782178278,44.945741740946936],[-93.315509799759809,44.945734717146983],[-93.315495327610734,44.945732083221763],[-93.315475480092005,44.945732375880134],[-93.315442865028501,44.945746396799727],[-93.31543867948433,44.945758129810201],[-93.315425861295182,44.945768080189183],[-93.315417178005717,44.945788858916188],[-93.315395676527103,44.945809930293642],[-93.31538823370758,44.945818124716126],[-93.315337787930787,44.945816661426484],[-93.315328277661408,44.94581314953119],[-93.315327864171437,44.945804369792015],[-93.315318319206582,44.945808426105437],[-93.315299333363257,44.945812271557337],[-93.315298919873285,44.94583656216242],[-93.315299746853228,44.94587109577607],[-93.315254262956145,44.945902702794058],[-93.3152170488585,44.945905044053973],[-93.315202220225515,44.945910856340127],[-93.31516825704162,44.945907970628703],[-93.315155852342414,44.945897434958944],[-93.315155852342414,44.945897434958944],[-93.315153784892559,44.94589041117802],[-93.315136067903211,44.945897803351329],[-93.315131456433974,44.945904458739008],[-93.315092972593632,44.945920397196261],[-93.315067619349719,44.945930897486711],[-93.31506860595799,44.945942504199387],[-93.315033045820272,44.945963575520452],[-93.31500120709228,44.945962990206077],[-93.314973916754013,44.945951283917431],[-93.314966887424475,44.945940748255609],[-93.314967300914432,44.945928163990345],[-93.314955723195183,44.945919969583592],[-93.314944145475934,44.945918506296543],[-93.314953242255342,44.945866705911065],[-93.314982186553507,44.9458216366111],[-93.315037180719997,44.945818124716126],[-93.315056614748741,44.945803491818019],[-93.315051239379088,44.945799394605878],[-93.315036353740027,44.945793541445177],[-93.315034286290171,44.945781249805748],[-93.315023122060865,44.945775396643207],[-93.315009476891746,44.945776567275757],[-93.314980532593594,44.945797638657723],[-93.314972882305312,44.94580174110537],[-93.31495820413501,44.945804077134014],[-93.314949934335544,44.945818417374042],[-93.314937116146382,44.945829831031922],[-93.314922230507321,44.945833050268341],[-93.314920990037379,44.945845049238883],[-93.314912873705111,44.945849306939266],[-93.314903209968548,44.945847390501136],[-93.314898248088838,44.945838610767197],[-93.314898661578809,44.945830123689781],[-93.314886670369589,44.945830123689781],[-93.314886670369589,44.945846512527808],[-93.314879695407271,44.945850260703047],[-93.314867649830816,44.945850024421055],[-93.314860620501278,44.945835976846745],[-93.314847388822116,44.945836269504589],[-93.314840772982535,44.945857633522365],[-93.314825473853503,44.945854999602794],[-93.314822992913648,44.945840366714094],[-93.314808358600459,44.945848711323976],[-93.314802318415005,44.94586173073035],[-93.314810174724485,44.945869632487764],[-93.314833330162983,44.945879875505035],[-93.31484862929203,44.945882509423463],[-93.314846561842145,44.945918506296543],[-93.314872818455484,44.945936212067274],[-93.314886877114589,44.94594908898803],[-93.314889358054401,44.945982744562734],[-93.314874058925383,44.946007913066573],[-93.31486454865599,44.94601757074534],[-93.314847987242686,44.946024396318734],[-93.314842220197434,44.946036008127571],[-93.314833536907969,44.946052396906822],[-93.314823322377293,44.946056425086432],[-93.314774821331739,44.946067322398129],[-93.314745050053645,44.946058250041119],[-93.314735126294252,44.94605298222028],[-93.314708662935971,44.946054738160619],[-93.31469584474678,44.946068493024733],[-93.314660284609062,44.946071126934513],[-93.314631753800825,44.946048592369173],[-93.314611079302153,44.946042739233889],[-93.314598674602962,44.946032788902521],[-93.314590404803482,44.946022838569426],[-93.314533343187108,44.946020497314329],[-93.314490340229867,44.94599357287386],[-93.314484551370256,44.945976013449361],[-93.314442375392943,44.945980695963094],[-93.314430797673651,44.945977769392044],[-93.314400199415644,44.945965477792072],[-93.314391102636222,44.945976598763586],[-93.314363605552984,44.945987427075892],[-93.314342931054327,44.945992841231273],[-93.314340036624472,44.946006596110223],[-93.314317914910887,44.946033081559335],[-93.314308818131465,44.946046543771899],[-93.314274911953632,44.946049470339418],[-93.314264277355264,44.946057148466089],[-93.314264161214311,44.946072297561024],[-93.314242659735683,44.946082247885535],[-93.314242246245726,44.946095417430044],[-93.3142190908072,44.946100685247011],[-93.314204164653489,44.946111201445078],[-93.314178982279756,44.946112098848751],[-93.314169058520406,44.94612526838641],[-93.314133084892674,44.946134048076502],[-93.314113650863945,44.946139901202478],[-93.314100227567053,44.94615026380032],[-93.314100005694812,44.946164484325095],[-93.314087320990538,44.946173924826461],[-93.314077263746228,44.946175605258055],[-93.314071474886617,44.946191408685401],[-93.314059070187398,44.946194627901562],[-93.314035087768971,44.946201358989263],[-93.314018945910419,44.946213790715774],[-93.313995392731499,44.946213357882833],[-93.313986126931439,44.946220922276389],[-93.313951976284287,44.946222137559438],[-93.313930888295602,44.946228575988123],[-93.313920551046252,44.946231502546361],[-93.313918690341396,44.946253451728467],[-93.313915382421612,44.946267791856229],[-93.313904424937292,44.946286814469183],[-93.313885611143505,44.946317689619839],[-93.313831443956985,44.94634885740912],[-93.313803119893777,44.946349589047173],[-93.313791220454718,44.946360481107568],[-93.313770867675842,44.946361441582148],[-93.31375164039207,44.946375781682946],[-93.313723523073875,44.946390414435172],[-93.313719801664107,44.946401096341937],[-93.313687962936143,44.946407827405451],[-93.313663520890898,44.946442417561514],[-93.313645373468873,44.946451579299065],[-93.313622631520289,44.946456261773996],[-93.313601957021618,44.946459480975285],[-93.313579215073133,44.946469431232707],[-93.313570118293711,44.946486990506273],[-93.313574515493301,44.946497176692468],[-93.313568050843827,44.946507768973056],[-93.313564329434072,44.946525913543532],[-93.31355730010452,44.946532644592402],[-93.313593595335732,44.946541375444497]]]]}}
]
}
