{
"type": "FeatureCollection",
"name": "haradwaith",
"crs": { "type": "name", "properties": { "name": "urn:ogc:def:crs:OGC:1.3:CRS84" } },
"features": [
{ "type": "Feature", "properties": { "id": 1 }, "geometry": { "type": "MultiPolygon", "coordinates": [ [ [ [ -93.302546780417529, 44.937426127747038 ], [ -93.302466043060235, 44.937425629808757 ], [ -93.302428683469913, 44.937420982384694 ], [ -93.302391480195851, 44.937424744585158 ], [ -93.302355527452008, 44.937421646302447 ], [ -93.302314259954755, 44.937416556266207 ], [ -93.302280808271334, 44.937419211937332 ], [ -93.302225314428824, 44.937431574872555 ], [ -93.302215624383621, 44.937431826373597 ], [ -93.302214215685538, 44.937429786897859 ], [ -93.302166228439958, 44.937430719844208 ], [ -93.302124491993851, 44.937439129467002 ], [ -93.302093385054619, 44.937438354896535 ], [ -93.302010224794955, 44.937459600254186 ], [ -93.301975522581358, 44.937471550764414 ], [ -93.301934880349194, 44.93749301741542 ], [ -93.301901413740879, 44.937493480223196 ], [ -93.301863600126666, 44.937497664833657 ], [ -93.301815454713179, 44.93751514797507 ], [ -93.301762307178805, 44.937516033197269 ], [ -93.301721664946641, 44.937527541084734 ], [ -93.301655074212448, 44.93754480291161 ], [ -93.301616151459314, 44.937564941703066 ], [ -93.301602864575699, 44.937564609745024 ], [ -93.301584106622428, 44.937571580863533 ], [ -93.301557845487807, 44.93759149834036 ], [ -93.301555344427342, 44.937605661875224 ], [ -93.301539712799595, 44.937616727134412 ], [ -93.30152513068218, 44.937634392575148 ], [ -93.301495318976805, 44.93764062808696 ], [ -93.30147593575839, 44.937632218493675 ], [ -93.301442796707519, 44.937616727134412 ], [ -93.301414659777592, 44.937608538842809 ], [ -93.301364951201336, 44.937609424063581 ], [ -93.301334000578407, 44.937609424063581 ], [ -93.301165804263803, 44.937607653622024 ], [ -93.301127931158646, 44.93763104542564 ], [ -93.301102588517978, 44.937634787295515 ], [ -93.301079517678602, 44.937638193731132 ], [ -93.301021993288472, 44.937636423290463 ], [ -93.300984477381846, 44.937625358035064 ], [ -93.300960092042573, 44.937602342297033 ], [ -93.300934456173039, 44.937591719645603 ], [ -93.300808777885905, 44.937575343054128 ], [ -93.300777514630397, 44.93756073690102 ], [ -93.300739373458683, 44.937554097739302 ], [ -93.300676846947695, 44.937533295027599 ], [ -93.300619967631349, 44.937507848942346 ], [ -93.300594937218264, 44.937508951419204 ], [ -93.300556170781448, 44.937497443528009 ], [ -93.300513027488847, 44.937482837355091 ], [ -93.300410484010797, 44.937447871047283 ], [ -93.300327636383685, 44.937440567954987 ], [ -93.300300125477449, 44.937434229859981 ], [ -93.300270424626092, 44.937434371391099 ], [ -93.300250103510024, 44.937440346649154 ], [ -93.300187576999008, 44.937445436683291 ], [ -93.300149505344706, 44.937461565283257 ], [ -93.300120048367091, 44.937462034617567 ], [ -93.300113099407753, 44.93745821914149 ], [ -93.300106006559872, 44.937458320642925 ], [ -93.300047517614331, 44.937459157642643 ], [ -93.300015003828605, 44.93746314114636 ], [ -93.29995935523381, 44.937473763821572 ], [ -93.299921214062095, 44.937488960145217 ], [ -93.299883698155469, 44.937511090706415 ], [ -93.299791158919192, 44.937530860667216 ], [ -93.299740720866993, 44.937550630621203 ], [ -93.299717377636199, 44.937557712394124 ], [ -93.299709874454905, 44.937567744904243 ], [ -93.299674025921917, 44.937583088739871 ], [ -93.299608164663653, 44.937602563602269 ], [ -93.299550640273523, 44.937620858163932 ], [ -93.299513124366911, 44.937642693600885 ], [ -93.29949394957022, 44.937667479762524 ], [ -93.299406412454815, 44.937702888546276 ], [ -93.299351389125121, 44.937733576141191 ], [ -93.299307203724013, 44.937789639974191 ], [ -93.299287473136133, 44.937835277860977 ], [ -93.299284138388899, 44.937873440548799 ], [ -93.299288584718553, 44.937892325168463 ], [ -93.299284694180102, 44.937921438944912 ], [ -93.299271910982284, 44.937962355578769 ], [ -93.299244677213082, 44.937979666453536 ], [ -93.299241342465791, 44.937989502175526 ], [ -93.299179429703571, 44.938034882856321 ], [ -93.299160752740491, 44.938038287331629 ], [ -93.299139973157352, 44.938049505343265 ], [ -93.299096280960271, 44.938057565325451 ], [ -93.299074605103115, 44.938074089315002 ], [ -93.299035699718502, 44.938096514721778 ], [ -93.298997350125077, 44.938085892161759 ], [ -93.29895993685065, 44.938085740784317 ], [ -93.29891453723495, 44.938094154153056 ], [ -93.298887859256894, 44.938116186124013 ], [ -93.298853400201963, 44.938148447209109 ], [ -93.298817829564584, 44.938175200290317 ], [ -93.29877892417997, 44.938198019085021 ], [ -93.298755580949162, 44.938224772143116 ], [ -93.298737795630501, 44.93827591766069 ], [ -93.298662208026087, 44.938415190608374 ], [ -93.298652203784314, 44.938468696509759 ], [ -93.29861774472937, 44.938493875740214 ], [ -93.298513379491226, 44.938540562200821 ], [ -93.298469904267776, 44.938569238509849 ], [ -93.298412596018679, 44.938604209599035 ], [ -93.298350347403286, 44.938637082403467 ], [ -93.298326633645047, 44.938658065034744 ], [ -93.298263638896699, 44.938709071425116 ], [ -93.298210041000317, 44.938725209403309 ], [ -93.298177434582726, 44.938694434910801 ], [ -93.298125066699939, 44.938663660401787 ], [ -93.298085873127263, 44.93865433478976 ], [ -93.297998263964857, 44.938656199912288 ], [ -93.297808553898889, 44.938654801070413 ], [ -93.297753221796313, 44.938652003386508 ], [ -93.297608963100316, 44.938650138263853 ], [ -93.297485344156811, 44.938662106133222 ], [ -93.297395758847827, 44.93867889223155 ], [ -93.297249963148971, 44.938685109303755 ], [ -93.297114706898242, 44.938686352718115 ], [ -93.297037417612103, 44.938673918573308 ], [ -93.29682135892584, 44.938671431744012 ], [ -93.296607056814267, 44.938660241010901 ], [ -93.296561385872451, 44.938723655136407 ], [ -93.296292629945654, 44.938705003930309 ], [ -93.296181965740502, 44.938697543446146 ], [ -93.295948341307408, 44.938700030274326 ], [ -93.295830650803495, 44.93869878686025 ], [ -93.295560138301965, 44.938705003930309 ], [ -93.294899666220417, 44.938078319883012 ], [ -93.292559908739946, 44.93808826730227 ], [ -93.292566935038622, 44.934611539324372 ], [ -93.306639310248642, 44.934624434905295 ], [ -93.306639310248642, 44.934637698928363 ], [ -93.306630462316875, 44.934649120723542 ], [ -93.30661901205228, 44.934660910961341 ], [ -93.306621093918579, 44.934678596313518 ], [ -93.306638789782085, 44.934711019445025 ], [ -93.306657526578704, 44.934757443442358 ], [ -93.306716859768045, 44.934778813206293 ], [ -93.306743924029888, 44.934795761634106 ], [ -93.306756415227653, 44.934827447811806 ], [ -93.306794929754076, 44.934834079800282 ], [ -93.306808461884998, 44.934848817549693 ], [ -93.306807420951841, 44.934909242282743 ], [ -93.306832403347371, 44.934936507080508 ], [ -93.306833444280514, 44.934953455461773 ], [ -93.306806380018699, 44.934983667781211 ], [ -93.30679909348666, 44.935002826804798 ], [ -93.306773070158002, 44.935013143199463 ], [ -93.306734555631564, 44.935023459592273 ], [ -93.30670853230292, 44.935021248936842 ], [ -93.306682508974234, 44.935069883337029 ], [ -93.306704368570323, 44.935094200521682 ], [ -93.30670332763718, 44.93510599066812 ], [ -93.306712696035504, 44.935117780812114 ], [ -93.30673247376528, 44.935125149650901 ], [ -93.306730391898967, 44.935164204480628 ], [ -93.306722064433799, 44.93518336344399 ], [ -93.306705409503465, 44.935200311752403 ], [ -93.306684590840518, 44.935210628111598 ], [ -93.306640871648383, 44.935212101877049 ], [ -93.306592988723636, 44.935218733821095 ], [ -93.306571129127562, 44.935196627337952 ], [ -93.306553433264071, 44.935174520846317 ], [ -93.306512836871335, 44.935161993830597 ], [ -93.306475363278054, 44.935169362663693 ], [ -93.306415509622113, 44.935209338566793 ], [ -93.306343164768407, 44.935234576795438 ], [ -93.306282270179295, 44.935235682119064 ], [ -93.306264574315819, 44.935222049792813 ], [ -93.306262035606125, 44.935214151049102 ], [ -93.306285392978765, 44.935200311752382 ], [ -93.30631792213957, 44.935187047859273 ], [ -93.306321044939011, 44.935163467597278 ], [ -93.30630751280809, 44.935151677462656 ], [ -93.306302117239554, 44.93514082991593 ], [ -93.306315840273271, 44.935132518488707 ], [ -93.306314799340115, 44.93511630704424 ], [ -93.306290857877769, 44.935104516899941 ], [ -93.306259629883343, 44.935091252984684 ], [ -93.306171150565859, 44.935097148058517 ], [ -93.306144086304073, 44.935083884141562 ], [ -93.306084753114703, 44.935061777606514 ], [ -93.306052484187177, 44.93506767268336 ], [ -93.306015010593867, 44.935071357106082 ], [ -93.305995232864063, 44.935089042331853 ], [ -93.30592028567753, 44.935119254579938 ], [ -93.305889057683146, 44.935122202115494 ], [ -93.305872402752797, 44.935139887325612 ], [ -93.30586407528763, 44.935147256161535 ], [ -93.305863034354473, 44.93515830941368 ], [ -93.30587344368594, 44.935171573313433 ], [ -93.30584846129041, 44.935183363443976 ], [ -93.305817233296025, 44.935182626560888 ], [ -93.305800578365663, 44.935203259283774 ], [ -93.305797455566221, 44.935218733821081 ], [ -93.305780800635873, 44.935234208354217 ], [ -93.305778718769602, 44.935259999233509 ], [ -93.30577767783646, 44.935274736873609 ], [ -93.305765186638681, 44.935285790101197 ], [ -93.305738122376866, 44.935290948273355 ], [ -93.305679830120653, 44.935290948273355 ], [ -93.305665257056575, 44.935299053971526 ], [ -93.30566317519029, 44.93531673912716 ], [ -93.305689198518976, 44.935359478230829 ], [ -93.305688157585834, 44.935390427217058 ], [ -93.305697525984144, 44.935402217302681 ], [ -93.30571834464709, 44.935418428666438 ], [ -93.305759461506383, 44.935447903861537 ], [ -93.305754256840657, 44.935468536489118 ], [ -93.305715221847663, 44.935493958823621 ], [ -93.305690239452119, 44.935502064493129 ], [ -93.30566577752316, 44.935514959874062 ], [ -93.305631947195906, 44.935524907737381 ], [ -93.30561164899953, 44.935545908776504 ], [ -93.305590309870041, 44.935552909121178 ], [ -93.305543988344994, 44.935563962295234 ], [ -93.305516403616622, 44.935576120784241 ], [ -93.305492462154277, 44.935602648387672 ], [ -93.305473725357615, 44.935622175643473 ], [ -93.305448742962085, 44.935629912856207 ], [ -93.305412310301961, 44.935626228469324 ], [ -93.305386807439859, 44.935603385265374 ], [ -93.30536963204294, 44.935570225759584 ], [ -93.305309778387027, 44.93555511975616 ], [ -93.305252527063956, 44.935554382877847 ], [ -93.305197357607184, 44.935546645654931 ], [ -93.305153638414993, 44.935563962295234 ], [ -93.305030808303727, 44.935562856977917 ], [ -93.305020398972246, 44.935573910150055 ], [ -93.305019358039104, 44.935595648049059 ], [ -93.304991252844118, 44.935608911847801 ], [ -93.304976679780097, 44.935603016826512 ], [ -93.304965229515474, 44.935586805514866 ], [ -93.304922551256468, 44.935555856634473 ], [ -93.304888200462614, 44.935537066234666 ], [ -93.304840317537881, 44.935565804490707 ], [ -93.304830428672972, 44.935565067612529 ], [ -93.304815855608908, 44.935581278930307 ], [ -93.304808569076869, 44.935606332776075 ], [ -93.304818978408349, 44.935626965346721 ], [ -93.304870504599094, 44.935645387278541 ], [ -93.304871025065665, 44.935673388603597 ], [ -93.304913182858101, 44.935688863014214 ], [ -93.304940247119887, 44.935713179936741 ], [ -93.304930358255035, 44.935724969956084 ], [ -93.304859574801043, 44.935751497490756 ], [ -93.304838756138096, 44.935778025013178 ], [ -93.304801282544844, 44.935811921273988 ], [ -93.304774218283043, 44.935828132522083 ], [ -93.30468053429982, 44.935845817514803 ], [ -93.304634733241372, 44.935885608728491 ], [ -93.304607668979571, 44.935892977468718 ], [ -93.304528558060412, 44.935920978673039 ], [ -93.304476511403081, 44.935879713735602 ], [ -93.304418219146868, 44.935872344993648 ], [ -93.304380745553573, 44.935869397496603 ], [ -93.304341190094007, 44.935870871245143 ], [ -93.304282897837794, 44.935872344993648 ], [ -93.304249587977097, 44.935887082476597 ], [ -93.304251669843396, 44.935907714946389 ], [ -93.304224605581581, 44.935910662441458 ], [ -93.304193377587183, 44.935891503720754 ], [ -93.304155903993873, 44.93588413498032 ], [ -93.304130921598386, 44.935895924964569 ], [ -93.304131442064914, 44.935934242396634 ], [ -93.304133003464628, 44.935943453313996 ], [ -93.304114266667995, 44.935953401103085 ], [ -93.304114787134552, 44.935975138858431 ], [ -93.304123635066304, 44.935985086642049 ], [ -93.304101775470215, 44.935988034133139 ], [ -93.304094575682555, 44.935985639296639 ], [ -93.304076793074614, 44.935985762108757 ], [ -93.304074190741787, 44.935988034133132 ], [ -93.304042268791946, 44.935987788508889 ], [ -93.304036023193063, 44.935993683490679 ], [ -93.304011734752947, 44.935994665987565 ], [ -93.304006877064936, 44.936003999707339 ], [ -93.303980853736292, 44.93600424533151 ], [ -93.303974955115123, 44.936010631559931 ], [ -93.303973914181981, 44.936016772163498 ], [ -93.303960035073345, 44.936025369007389 ], [ -93.30395783754777, 44.936041252696555 ], [ -93.303960150732564, 44.936045346430141 ], [ -93.303974723796586, 44.93604665642485 ], [ -93.303975417752042, 44.936050095160773 ], [ -93.303980044121587, 44.93605468014168 ], [ -93.303991378726948, 44.936055498888237 ], [ -93.303992997956286, 44.936076131297497 ], [ -93.304012891345309, 44.936077441291481 ], [ -93.304020756173529, 44.93608661124857 ], [ -93.304035560556059, 44.93608661124857 ], [ -93.304035791874554, 44.936097091197745 ], [ -93.304060542951589, 44.936102003673241 ], [ -93.304128087946864, 44.936103313666642 ], [ -93.304153995616318, 44.936116413598995 ], [ -93.304349228410899, 44.936221212950144 ], [ -93.304440830527795, 44.936221867945498 ], [ -93.304505599701386, 44.936222522940824 ], [ -93.304527343638213, 44.936232020372373 ], [ -93.304607379831296, 44.936227107907982 ], [ -93.304640227055032, 44.936231037879537 ], [ -93.304673999552648, 44.936226125415054 ], [ -93.304709769652774, 44.936224059867186 ], [ -93.304745245643588, 44.936204510566391 ], [ -93.304735530267578, 44.936169795792395 ], [ -93.30473599290454, 44.936155058382006 ], [ -93.304765139032625, 44.936098073692882 ], [ -93.304733127755213, 44.93608451929714 ], [ -93.304761437937003, 44.9360672888373 ], [ -93.304822506014915, 44.936058773874329 ], [ -93.304853965327808, 44.936045346430163 ], [ -93.304877097175506, 44.936044691432812 ], [ -93.304922435596993, 44.936061721361661 ], [ -93.304967774018522, 44.936087266245458 ], [ -93.304973325661948, 44.93610920863658 ], [ -93.304987821619846, 44.936120016079883 ], [ -93.305071404696221, 44.936135299329536 ], [ -93.305126304281416, 44.936150582575138 ], [ -93.305174418524643, 44.936152547563566 ], [ -93.305202793591164, 44.936134207668999 ], [ -93.305289152489252, 44.936121107740711 ], [ -93.305326163445585, 44.9360667430064 ], [ -93.305370268168545, 44.936041634778398 ], [ -93.305391549468425, 44.936042726440697 ], [ -93.30546048463934, 44.93600244172201 ], [ -93.305511526651827, 44.935977663330455 ], [ -93.305589249660102, 44.935990763291478 ], [ -93.305659832456115, 44.935982719927509 ], [ -93.305717554308643, 44.935956121165866 ], [ -93.305751686635048, 44.935920023466515 ], [ -93.305770192113215, 44.935917112360755 ], [ -93.305799800878262, 44.935892659066411 ], [ -93.305900552926033, 44.935886545741205 ], [ -93.305957303059088, 44.935853067996391 ], [ -93.306101645788743, 44.935846081334141 ], [ -93.306106475976875, 44.935836383845441 ], [ -93.306153461127607, 44.93581551467679 ], [ -93.30618553728975, 44.935817261343352 ], [ -93.306207743863567, 44.935790188005512 ], [ -93.306253390709685, 44.935785821336935 ], [ -93.306300271254372, 44.93581202134348 ], [ -93.306366890975738, 44.935801541342265 ], [ -93.306410070424775, 44.935801250231101 ], [ -93.306434333162841, 44.935781745779238 ], [ -93.306449960011051, 44.935754672424665 ], [ -93.306468054256385, 44.935735459068496 ], [ -93.306488615898701, 44.93573283906489 ], [ -93.306548244661656, 44.935743901301556 ], [ -93.306593480274984, 44.935735750180015 ], [ -93.306623089040031, 44.935748559084772 ], [ -93.306642828216724, 44.935771847995184 ], [ -93.306639538353949, 44.935792808006497 ], [ -93.306629668765595, 44.935821919120606 ], [ -93.306636248491174, 44.935840550225898 ], [ -93.306614864383064, 44.935861510212128 ], [ -93.306585255618018, 44.935859181325142 ], [ -93.306555646852928, 44.935883634633726 ], [ -93.306555646852928, 44.9359080879319 ], [ -93.306555646852928, 44.935927883451363 ], [ -93.306555646852928, 44.935954665613892 ], [ -93.306570451235487, 44.935980283322891 ], [ -93.306580320823826, 44.936002407698737 ], [ -93.306565516441296, 44.936043163105602 ], [ -93.306532617813446, 44.936085082922496 ], [ -93.306516168499527, 44.936121180518072 ], [ -93.306461885763596, 44.936127002708773 ], [ -93.306437211792712, 44.936147962590447 ], [ -93.306373059468413, 44.936177073524526 ], [ -93.306287523036005, 44.936156113653482 ], [ -93.306228305505911, 44.936166593589959 ], [ -93.306174022769937, 44.936187553457174 ], [ -93.306136189347939, 44.936191046767647 ], [ -93.306109870445667, 44.936208513316735 ], [ -93.306109870445667, 44.936227144296595 ], [ -93.306032558670225, 44.936255090755061 ], [ -93.305979920865653, 44.936251597448504 ], [ -93.30593550771809, 44.936242281963295 ], [ -93.305887804707723, 44.936237624220119 ], [ -93.305849971285667, 44.936228308732645 ], [ -93.305787463892784, 44.936243446399018 ], [ -93.305724956499887, 44.936241117527537 ], [ -93.305675608558118, 44.936244610834734 ], [ -93.305614746096623, 44.936232966476581 ], [ -93.305575267743222, 44.936249268577342 ], [ -93.305550593772324, 44.936277215025036 ], [ -93.30551934007589, 44.93630050372105 ], [ -93.305520985007249, 44.936315641368402 ], [ -93.30551934007589, 44.936337765615043 ], [ -93.305443673231835, 44.93637386305177 ], [ -93.305423934055113, 44.93636687645288 ], [ -93.305368006387795, 44.936372698618683 ], [ -93.305318658446012, 44.936395987275979 ], [ -93.305275890229808, 44.936418111491655 ], [ -93.305229832150829, 44.936436742403501 ], [ -93.305218317631073, 44.936454208877876 ], [ -93.305229832150829, 44.936468182053567 ], [ -93.305206803111346, 44.936491470672124 ], [ -93.305178839277673, 44.936499621686394 ], [ -93.305139360924258, 44.936525239152282 ], [ -93.305101527502245, 44.936532225731888 ], [ -93.305057114354639, 44.936571816333682 ], [ -93.30501928093264, 44.936632366613033 ], [ -93.30500447655011, 44.936656819592379 ], [ -93.305002831618722, 44.936680108134432 ], [ -93.30501928093264, 44.936706889946123 ], [ -93.30501928093264, 44.93670688994613 ], [ -93.305001186687306, 44.936722027486347 ], [ -93.304964998196695, 44.936733671745344 ], [ -93.304937034363022, 44.936753466980207 ], [ -93.304887686421253, 44.936745316001968 ], [ -93.304866302313158, 44.936731342893729 ], [ -93.30488604148988, 44.936696410108262 ], [ -93.304877816832885, 44.936670792718751 ], [ -93.30485491311174, 44.936637839592464 ], [ -93.304874526970124, 44.936631202185197 ], [ -93.304825179028356, 44.936596269338807 ], [ -93.304764316566818, 44.936598598195893 ], [ -93.304721548350656, 44.93660325590978 ], [ -93.304670555477486, 44.936612571336426 ], [ -93.304632722055473, 44.936628873329433 ], [ -93.304619562604316, 44.936652161882833 ], [ -93.304578439319499, 44.936664970583159 ], [ -93.304530736309147, 44.936690587975285 ], [ -93.304484678230168, 44.936689423548607 ], [ -93.304466583984848, 44.936712712077451 ], [ -93.304438620151188, 44.936731342893729 ], [ -93.304423815768629, 44.93675463140557 ], [ -93.304432040425596, 44.936791893004873 ], [ -93.304432040425596, 44.936791893004873 ], [ -93.304433685356997, 44.936811688219649 ], [ -93.304381047552468, 44.936819839188466 ], [ -93.304349793855977, 44.936832647851404 ], [ -93.304300445914208, 44.936857100745463 ], [ -93.3042675472864, 44.936857100745463 ], [ -93.304247808109679, 44.936845456511492 ], [ -93.304221489207393, 44.936843127664424 ], [ -93.304178720991189, 44.936850114205363 ], [ -93.304112923735531, 44.936878060360634 ], [ -93.304075090313489, 44.936882718051855 ], [ -93.304053706205409, 44.936909499769065 ], [ -93.304017517714755, 44.936945596846385 ], [ -93.304033967028687, 44.936963063165976 ], [ -93.30400435826364, 44.93697820063867 ], [ -93.303944318267853, 44.937039332699293 ], [ -93.303949253062001, 44.937066114343452 ], [ -93.303949253062015, 44.937066114343452 ], [ -93.303945963199254, 44.937087073882346 ], [ -93.303932803748125, 44.937112691086142 ], [ -93.303896615257486, 44.93713830827852 ], [ -93.303873586218003, 44.93714645920096 ], [ -93.303848912247119, 44.937139472696089 ], [ -93.303825883207622, 44.9371441303661 ], [ -93.303799564305351, 44.937160432208188 ], [ -93.303791339648384, 44.937176734045657 ], [ -93.30376995554029, 44.937195364711371 ], [ -93.30376995554029, 44.937195364711371 ], [ -93.303788049785624, 44.937216324203085 ], [ -93.303737056912453, 44.937240776933734 ], [ -93.303707448147364, 44.93725009225696 ], [ -93.303672904588154, 44.937268722898885 ], [ -93.303643295823079, 44.937309477407013 ], [ -93.303598882675502, 44.937336258925178 ], [ -93.303559404322058, 44.93730831299289 ], [ -93.303533085419815, 44.937319957132999 ], [ -93.303501831723352, 44.937347903059596 ], [ -93.303485382409434, 44.937377013385351 ], [ -93.303496896929161, 44.937390986336474 ], [ -93.303488672272195, 44.937406123696341 ], [ -93.303439324330427, 44.937411945756779 ], [ -93.303413005428183, 44.937397972810764 ], [ -93.303413005428183, 44.937372355734212 ], [ -93.30340971556538, 44.937344409819516 ], [ -93.30338175173172, 44.937323450374564 ], [ -93.303322534201598, 44.937297833264786 ], [ -93.30327318625983, 44.937310641821099 ], [ -93.303251802151721, 44.937339752165741 ], [ -93.303251802151721, 44.937339752165741 ], [ -93.30324851228896, 44.937356053952293 ], [ -93.303278121054007, 44.937400301635329 ], [ -93.303274831191203, 44.937421261052243 ], [ -93.303241932563395, 44.937414274580789 ], [ -93.303202454209952, 44.937410781344738 ], [ -93.303159685993776, 44.937422425464064 ], [ -93.303146526542619, 44.937441056050069 ], [ -93.303154751199571, 44.937460851041067 ], [ -93.303154751199571, 44.937460851041067 ], [ -93.303090598875286, 44.937462015452098 ], [ -93.303006707374266, 44.937427083111132 ], [ -93.30295735943254, 44.937420096640381 ], [ -93.302893207108198, 44.937394479573719 ], [ -93.302820830126947, 44.937393315161337 ], [ -93.3027517430085, 44.937386328686479 ], [ -93.302674431233072, 44.937400301635329 ], [ -93.302598833737946, 44.937410193720254 ], [ -93.302571693324282, 44.937415837021909 ], [ -93.302546780417529, 44.937426127747038 ] ] ] ] } }
]
}
