{
"type": "FeatureCollection",
"name": "harad_road",
"crs": { "type": "name", "properties": { "name": "urn:ogc:def:crs:OGC:1.3:CRS84" } },
"features": [
{ "type": "Feature", "properties": { "id": 1 }, "geometry": { "type": "MultiLineString", "coordinates": [ [ [ -93.300466432910454, 44.936836437921883 ], [ -93.300420748088314, 44.936849912770413 ], [ -93.300401712745781, 44.936853506062825 ], [ -93.300211359320286, 44.936903812132904 ], [ -93.300183440817847, 44.93690740542192 ], [ -93.300142832087104, 44.936927168507587 ], [ -93.300099685310641, 44.936923575219801 ], [ -93.300027351008964, 44.936947829908057 ], [ -93.299995625438058, 44.936958609766222 ], [ -93.299872530222899, 44.936986457723769 ], [ -93.299853494880338, 44.937000830857869 ], [ -93.299807810058226, 44.937006220782223 ], [ -93.299772277418811, 44.937023288872695 ], [ -93.299712633345479, 44.937054730078685 ], [ -93.299668217546184, 44.937080781350616 ], [ -93.299646644157974, 44.937089764545078 ], [ -93.29964109218308, 44.937105709711822 ], [ -93.299631257256095, 44.937116826409948 ], [ -93.299612380541376, 44.937129290584089 ], [ -93.299581923993301, 44.937168816595879 ], [ -93.299569233764984, 44.937258648339672 ], [ -93.299547819004587, 44.937302890421797 ], [ -93.299544646447487, 44.937314568529175 ], [ -93.299542108401823, 44.93734690789104 ], [ -93.299535128776228, 44.937400806787018 ], [ -93.299540839378992, 44.937429552844179 ], [ -93.299559874721524, 44.937478061783004 ], [ -93.299583986155426, 44.937517587554709 ], [ -93.299616346237755, 44.93755621498714 ], [ -93.299693122119365, 44.937655478386176 ], [ -93.299712791973334, 44.937679732765289 ], [ -93.299738172430054, 44.937706682063393 ], [ -93.299771801535215, 44.93772644487396 ], [ -93.299835887188479, 44.937759233158317 ], [ -93.299928525855535, 44.937794716349053 ], [ -93.299979921280425, 44.937807292664559 ], [ -93.300035123773824, 44.93780908928084 ], [ -93.300070021901831, 44.937813580821285 ], [ -93.300091595290056, 44.937823462209025 ], [ -93.300123955372385, 44.937836936825924 ], [ -93.300156949966123, 44.937851309747138 ], [ -93.300524332077288, 44.938129335233953 ], [ -93.300636640598341, 44.938263182241904 ], [ -93.300663290077921, 44.93828743636432 ], [ -93.300682959931876, 44.938299114271459 ], [ -93.300707071365778, 44.938304504073947 ], [ -93.300732451822512, 44.938316181977612 ], [ -93.300759735813486, 44.938325614128843 ], [ -93.300796537475733, 44.938326961578888 ], [ -93.300843491320691, 44.938351215674366 ], [ -93.300871409823088, 44.93836963081408 ], [ -93.300919632690878, 44.9384064610758 ], [ -93.300951358261798, 44.938441943866579 ], [ -93.300971662627177, 44.938468443658046 ], [ -93.300988794435469, 44.938509316193802 ], [ -93.301035113769004, 44.938583425662429 ], [ -93.301042727906022, 44.938617111752919 ], [ -93.301041458883191, 44.938684933021797 ], [ -93.301031306700466, 44.938724907109645 ], [ -93.301012271357934, 44.938772067514584 ], [ -93.300982449321253, 44.938818778734642 ], [ -93.300953896307433, 44.938850218957505 ], [ -93.300930419384954, 44.938869981374488 ], [ -93.300907576973898, 44.93889648096841 ], [ -93.30088536907428, 44.93892657371277 ], [ -93.30084983643485, 44.938962954472231 ], [ -93.300824455978116, 44.938981818560634 ], [ -93.300804151612738, 44.938990801457706 ], [ -93.300757197767766, 44.939005174090099 ], [ -93.300714050991317, 44.93902763132099 ], [ -93.300672807749137, 44.939044249666196 ], [ -93.300625853904194, 44.939072545756439 ], [ -93.300596666378951, 44.939095901248983 ], [ -93.300570016899385, 44.939125544745082 ], [ -93.300547174488315, 44.939158332230498 ], [ -93.30053321523711, 44.939190221410698 ], [ -93.300531311702855, 44.939227500289036 ], [ -93.300538291328451, 44.939262084287051 ], [ -93.300540829374143, 44.939290380269938 ], [ -93.300574458479289, 44.939335743641976 ], [ -93.300612529164383, 44.939392335521198 ], [ -93.300645523758149, 44.939430961692452 ], [ -93.300650599849476, 44.939442639367023 ], [ -93.300693746625925, 44.939532467553498 ], [ -93.300717858059826, 44.939584118697098 ], [ -93.300736893402359, 44.939637117213536 ], [ -93.300748949119296, 44.939689666541689 ], [ -93.300749583630719, 44.939735927876249 ], [ -93.300746411073632, 44.939767367596914 ], [ -93.300734672612435, 44.939812899018982 ], [ -93.30072261689547, 44.939858711116223 ], [ -93.300720078849807, 44.939872634393446 ], [ -93.300720078849807, 44.940001087694917 ], [ -93.300717540804172, 44.940132235524395 ], [ -93.300711195689985, 44.940182538721977 ], [ -93.30070231253012, 44.940225206578233 ], [ -93.30069216034741, 44.940263832189189 ], [ -93.300690891324578, 44.940301559505038 ], [ -93.300685815233237, 44.940334795453218 ], [ -93.300671221470594, 44.94038824241062 ], [ -93.300661069287926, 44.9404300118469 ], [ -93.300662972822167, 44.940456959854167 ], [ -93.300668048913522, 44.940486602647574 ], [ -93.30067947011905, 44.940514448894099 ], [ -93.300703581552952, 44.940566997419289 ], [ -93.300701678018712, 44.940578225730398 ], [ -93.300650282593836, 44.940597538420384 ], [ -93.300604597771709, 44.940596191023616 ], [ -93.300536070538541, 44.940588106642366 ], [ -93.300496730830631, 44.940584513583666 ], [ -93.300455487588437, 44.940596191023616 ], [ -93.300441528337231, 44.940618198500147 ], [ -93.3004434318715, 44.940650086869525 ], [ -93.30045231503135, 44.940673441720385 ], [ -93.300468177816796, 44.940692754378333 ], [ -93.300481502556579, 44.940707575716068 ], [ -93.30048784767078, 44.940717905737088 ], [ -93.30048784767078, 44.940730032281124 ], [ -93.300482771579425, 44.940749344920036 ], [ -93.300476426465224, 44.940766861028784 ], [ -93.300489751204992, 44.940781682347392 ], [ -93.300513228127457, 44.940791114093614 ], [ -93.300544953698392, 44.940799198446278 ], [ -93.300572237689366, 44.940797851054242 ], [ -93.300606501305964, 44.940801893230244 ], [ -93.30062934371702, 44.940814468887091 ], [ -93.300638861388279, 44.940836925410338 ], [ -93.300639495899702, 44.940860729315382 ], [ -93.300675663050541, 44.940926302285774 ], [ -93.300685180721828, 44.940951453542219 ], [ -93.300683277187574, 44.940973910011884 ], [ -93.300650282593807, 44.940984689114202 ], [ -93.300609039351627, 44.94099097692294 ], [ -93.300581755360639, 44.941004001667451 ], [ -93.300567161598025, 44.941021966827442 ], [ -93.300569065132279, 44.941047118041979 ], [ -93.300569065132279, 44.941070921859875 ], [ -93.30057414122362, 44.941088437870519 ], [ -93.300580486337807, 44.941106403004078 ], [ -93.300563989040924, 44.941118080337887 ], [ -93.300538608584205, 44.941123469875762 ], [ -93.300506248501861, 44.941130655925477 ], [ -93.300494192784925, 44.941142333254348 ], [ -93.300496096319179, 44.941152214069234 ], [ -93.30043645224589, 44.941196228587593 ], [ -93.300425665551771, 44.94121194805026 ], [ -93.300433914200212, 44.941223625362596 ], [ -93.300442162848654, 44.941225870999304 ], [ -93.300563989040967, 44.941249674743098 ], [ -93.300599521680383, 44.941261801174811 ], [ -93.300619191534338, 44.941278868000303 ], [ -93.300616653488675, 44.941314349015997 ], [ -93.30059317656621, 44.94132872106676 ], [ -93.300574775735058, 44.941348033504283 ], [ -93.300579851826399, 44.941362854672875 ], [ -93.300582389872076, 44.9414059707779 ], [ -93.300593811077604, 44.941424384937889 ], [ -93.300657262219431, 44.94147872913171 ], [ -93.300638861388279, 44.941491753765568 ], [ -93.300616018977223, 44.941497592393581 ], [ -93.300611577397305, 44.94150926964781 ], [ -93.300614115442968, 44.941523192524762 ], [ -93.300626171159919, 44.941536217148538 ], [ -93.300664241845013, 44.941555529516272 ], [ -93.300704216064375, 44.941570799755929 ], [ -93.300708023132884, 44.941581129621625 ], [ -93.30069913997302, 44.941595052481155 ], [ -93.300705485087221, 44.94160493321813 ], [ -93.300722616895513, 44.941613915704806 ], [ -93.30075941855776, 44.941617508699089 ], [ -93.300785433525917, 44.941621101693137 ], [ -93.300797489242868, 44.941629185928932 ], [ -93.300799392777122, 44.941644905273058 ], [ -93.300813986539751, 44.941661522860741 ], [ -93.300815255562583, 44.941684428176409 ], [ -93.300812083005496, 44.941696105392651 ], [ -93.300820331653938, 44.941709579100738 ], [ -93.300831118348057, 44.941717663324077 ], [ -93.300846981133489, 44.941722154558782 ], [ -93.300857767827608, 44.941729789656961 ], [ -93.300856498804777, 44.941741017740668 ], [ -93.300843174064994, 44.941741466863967 ], [ -93.300829214813788, 44.941742814233855 ], [ -93.300754976977856, 44.941759431793194 ], [ -93.300746728329415, 44.941770210748039 ], [ -93.300731500055377, 44.941775151101666 ], [ -93.300682642676165, 44.941795810757661 ], [ -93.300670586959214, 44.941806589705678 ], [ -93.300671221470637, 44.941821410755885 ], [ -93.300701678018726, 44.941833537066842 ], [ -93.300711195689985, 44.94184566337524 ], [ -93.300706754110081, 44.94185913704824 ], [ -93.300704850575812, 44.941873958084877 ], [ -93.300711195689985, 44.941883838773848 ], [ -93.300768936229062, 44.941912133464669 ], [ -93.300767667206216, 44.941918870293762 ], [ -93.300775281343249, 44.941927852731325 ], [ -93.300786702548763, 44.941931445705961 ], [ -93.300793682174358, 44.94193952989805 ], [ -93.300791144128695, 44.941948512332381 ], [ -93.300763225626298, 44.941954350913939 ], [ -93.300725789452613, 44.941965578953734 ], [ -93.300706119598644, 44.942025312088511 ], [ -93.300708023132913, 44.942038785719348 ], [ -93.300720713361258, 44.942056301434704 ], [ -93.300720078849849, 44.94207157154117 ], [ -93.300714368247085, 44.942080160974264 ], [ -93.300705643715091, 44.94208723462409 ], [ -93.300683911699011, 44.942082799558044 ], [ -93.300661069287955, 44.942089536367106 ], [ -93.300647268664576, 44.94209840649782 ], [ -93.300650758477389, 44.942117269556086 ], [ -93.300626647043487, 44.942134560687386 ], [ -93.300591748915494, 44.942140623810111 ], [ -93.300557168043198, 44.942146686932205 ], [ -93.30052988405221, 44.942153199173745 ], [ -93.300499427504135, 44.942166448214572 ], [ -93.300457867006202, 44.942182167411588 ], [ -93.300432486549482, 44.942191149807954 ], [ -93.300404568047085, 44.942196539245089 ], [ -93.300369035407641, 44.942201030442334 ], [ -93.300339847882412, 44.942202826921125 ], [ -93.300278934786263, 44.942213156673105 ], [ -93.300237691544069, 44.942218995227755 ], [ -93.300191372210534, 44.942221240825539 ], [ -93.300162819196714, 44.942218546108187 ], [ -93.300158377616782, 44.942206419878552 ], [ -93.300158377616782, 44.942198335724029 ] ] ] } }
]
}
