{
"type": "FeatureCollection",
"name": "icebay_of_forochel",
"crs": { "type": "name", "properties": { "name": "urn:ogc:def:crs:OGC:1.3:CRS84" } },
"features": [
{"type":"Feature","properties":{"id":1},"geometry":{"type":"MultiPolygon","coordinates":[[[[-93.308916754880826,44.951333464413224],[-93.308883362588048,44.951310704312505],[-93.308887773147745,44.951307062695584],[-93.308893408862971,44.951301340154252],[-93.308908600790872,44.951295617612352],[-93.308923547687684,44.951286253451649],[-93.308922077501151,44.951240299677927],[-93.30891423650607,44.951231629150442],[-93.308903700168983,44.951230588687068],[-93.308893163831868,44.951219663820368],[-93.308877479789913,44.951219876345782],[-93.30887674674851,44.951217756303762],[-93.308888753272171,44.951213247627855],[-93.3089086007909,44.951205964381437],[-93.308928039776234,44.951193606007656],[-93.308929183402924,44.95117943254737],[-93.308942170050969,44.951169027903205],[-93.308955156699042,44.951166426741864],[-93.308973289000122,44.951163131937342],[-93.308990196145714,44.951155155041391],[-93.309006727200597,44.951141079295255],[-93.309009308571163,44.951135559618372],[-93.309015189317435,44.951133305277246],[-93.309015189317435,44.951108334108021],[-93.30902107006375,44.951103825423523],[-93.309020089939338,44.951097409218072],[-93.309008818508957,44.951092033477799],[-93.309004407949246,44.951087351381034],[-93.30904998373299,44.951086657737029],[-93.309070076282822,44.951078334008407],[-93.309080612619923,44.951076079665022],[-93.30909384429907,44.951077293542234],[-93.30910585082276,44.951087698203025],[-93.309123493061634,44.951087698203025],[-93.309138930020623,44.951085270449006],[-93.309160247725927,44.951071224155903],[-93.309165883441153,44.951050935059797],[-93.309167843689906,44.951015906005196],[-93.309167843689906,44.951000125582517],[-93.309145055798041,44.950990241139728],[-93.309136969771885,44.950978795993322],[-93.309108791195911,44.950976715057372],[-93.309105115729466,44.950973246830614],[-93.309088698646065,44.950970819071749],[-93.309077733504537,44.950963579147384],[-93.309053291652759,44.950970602307549],[-93.309027563387744,44.950970862424569],[-93.30902737961442,44.950957596454728],[-93.309029768667585,44.950932235033264],[-93.30903319910297,44.950899416903731],[-93.309028298481067,44.950889012208805],[-93.308987378288123,44.950869243283258],[-93.30898958356795,44.95082519670536],[-93.308974024093388,44.950802306344457],[-93.30897120623581,44.950793202221092],[-93.308976229373258,44.950785398685632],[-93.308981129995175,44.950780976681749],[-93.308980639932969,44.950766670196224],[-93.309002692731568,44.950761121013002],[-93.30902119257928,44.950755831947227],[-93.309032218978572,44.950750802999003],[-93.309044170544794,44.950742846583459],[-93.309044960595514,44.950739184392802],[-93.30904943887667,44.950735760874316],[-93.309052066497301,44.950723924130337],[-93.309070933891661,44.950710051160939],[-93.309084655632986,44.950710224573065],[-93.309109403773647,44.950708317039528],[-93.309128271167964,44.950706756330213],[-93.309140277691668,44.950702247614174],[-93.309152039184241,44.950699126195175],[-93.309169637505761,44.950689454666055],[-93.309172376765147,44.950682478624294],[-93.309188058755268,44.950672247302307],[-93.309205700994141,44.9506729409513],[-93.309222608139706,44.950676409196205],[-93.309229223979273,44.950684559570924],[-93.309240495409668,44.950689935349359],[-93.309252011871152,44.950698259134306],[-93.309266223674683,44.9507071031545],[-93.309282395726967,44.950710051160947],[-93.309299057841457,44.950716120585462],[-93.309321110640084,44.950724097542434],[-93.309336792630177,44.950733635206923],[-93.309339978034416,44.950746467698458],[-93.309344143563052,44.950755311711227],[-93.309356885180009,44.950760167247068],[-93.309375997605443,44.950760514071035],[-93.309389229284591,44.950755658535229],[-93.309392904751022,44.950743866517968],[-93.309404474003827,44.950742545616642],[-93.309415692642901,44.950728953080912],[-93.309416182705107,44.950681784975409],[-93.30942402370016,44.950680397677594],[-93.309425003824529,44.950671727065533],[-93.309436030223807,44.950665484224039],[-93.30945587774255,44.950658721144997],[-93.309477930541163,44.950650397354309],[-93.309492297269202,44.950648587882007],[-93.309497042966584,44.950642940624114],[-93.309496797935481,44.950624558912999],[-93.309512479925573,44.950618836303619],[-93.309538698252794,44.950620397015321],[-93.309559770926995,44.950619703365689],[-93.309568101984254,44.95061710217945],[-93.309598730871173,44.950616928767026],[-93.309600201057734,44.950623345026209],[-93.309608042052787,44.950632189057949],[-93.309618823421005,44.950637218016567],[-93.309634505411097,44.950644848159833],[-93.309650677463381,44.950648489818754],[-93.309662193924879,44.950660455267901],[-93.309712915361644,44.950659241381871],[-93.309724921885319,44.950663576689003],[-93.309753835554574,44.950663750101285],[-93.309780543943987,44.950649877117343],[-93.309785689596964,44.950641726737707],[-93.309788629970129,44.950616061704935],[-93.309778583695191,44.950609992269818],[-93.309778093633014,44.950595945860407],[-93.309793923325572,44.950595851810668],[-93.309810927799802,44.950581552622495],[-93.309829060100881,44.95058103238491],[-93.309838861344687,44.950584327222856],[-93.309840331531262,44.950593171260607],[-93.309846947370843,44.950600801409728],[-93.309855768490252,44.950616408529768],[-93.309877086195556,44.950625599387372],[-93.309879536506529,44.9506438076858],[-93.309896688683196,44.950654385837481],[-93.309934423471901,44.950663923513567],[-93.309979019131276,44.950667391759005],[-93.30999886665002,44.950650917591247],[-93.310016018826673,44.95065022394197],[-93.310040766967333,44.950643807685815],[-93.310041257029482,44.950635483892952],[-93.310047872869049,44.950616755354623],[-93.310069925667662,44.950619356540855],[-93.310088302999787,44.9506318422332],[-93.310120647104426,44.950633923181663],[-93.310118441824557,44.950650050529667],[-93.310114766358112,44.950678143318591],[-93.310142699902997,44.950699993256016],[-93.310164017608301,44.950704155147925],[-93.310170633447882,44.950711438458015],[-93.310173573821018,44.950738490744598],[-93.310183130033721,44.950769704905554],[-93.310199669632709,44.950778548914734],[-93.310197096806192,44.950800398813954],[-93.310201507365903,44.950813144584643],[-93.310219149604762,44.950831352823592],[-93.31024598050972,44.950831873058902],[-93.310275751787799,44.950830052235297],[-93.310309566078999,44.950839156352792],[-93.310344115463451,44.950852422350025],[-93.310348893569795,44.950873231751245],[-93.310361022609015,44.950883896566445],[-93.310386015780779,44.950894561379663],[-93.310418359885361,44.950897162553311],[-93.310434531937645,44.950888838797212],[-93.310459892656027,44.950875832925867],[-93.310494442040493,44.950874012103633],[-93.310513554465928,44.950861786581498],[-93.310512084279353,44.950825109999464],[-93.310503630706577,44.950809242818409],[-93.310482680547906,44.950805341051904],[-93.310463200575839,44.950803260109666],[-93.310451806629885,44.950794676222095],[-93.310437472310781,44.950780629857881],[-93.310417992338728,44.950761121012981],[-93.310429386284682,44.950744213342034],[-93.310430488924581,44.950706756330206],[-93.310433061751084,44.950681264738733],[-93.310431224017876,44.950672160596177],[-93.310416889698786,44.950656813609733],[-93.310403290472991,44.95064796958178],[-93.31039336671364,44.950647709463304],[-93.310388588607267,44.950640166026581],[-93.310376827114695,44.950640946382158],[-93.310373407859657,44.950636803214636],[-93.310381605221053,44.950632882707446],[-93.310381299226847,44.950621405484604],[-93.310387118420707,44.950618576185001],[-93.310410273859205,44.950618055947757],[-93.310437839857457,44.950627420217472],[-93.310439677590665,44.950639385671003],[-93.310450703989943,44.950643547567303],[-93.31047974017477,44.950644588041328],[-93.310488193747545,44.950634443418764],[-93.310488193747545,44.950621177371168],[-93.310510246546158,44.950607130964478],[-93.3105113491861,44.950557188157312],[-93.310485253374409,44.950542881616009],[-93.310479005081504,44.950542101259103],[-93.310478637534828,44.950523632809336],[-93.310461362842602,44.950510626855234],[-93.310452909269827,44.95050932625967],[-93.310433061751084,44.950502823281369],[-93.310401514344207,44.950503260478804],[-93.310415787058844,44.95049527982561],[-93.310414684418944,44.950480192911137],[-93.310424608178309,44.950469788140211],[-93.31044335305711,44.950464065515398],[-93.310465038309047,44.950458082770666],[-93.31046761113555,44.950472389333115],[-93.310476064708325,44.950474730406626],[-93.310489296387487,44.950476291122243],[-93.310525315958515,44.950476291122243],[-93.310560174093027,44.950472944785091],[-93.310568686462389,44.950468487543709],[-93.310577140035207,44.950457562531966],[-93.310578610221768,44.950449238712096],[-93.310585593607982,44.950441175010454],[-93.310585593607982,44.950431810710349],[-93.310583020781493,44.950412561866429],[-93.310602500753546,44.950411521388197],[-93.310629699205165,44.950405798757579],[-93.310671231975832,44.950391752298181],[-93.310682225644342,44.950392758004462],[-93.310688506668072,44.950389411221288],[-93.310690711947899,44.950373543919788],[-93.310708354186772,44.950369121884151],[-93.310708721733434,44.950386289785264],[-93.310714970026353,44.950393313016065],[-93.310725628879027,44.950397995169446],[-93.310775615222482,44.950396434451697],[-93.310780393328827,44.950402157083253],[-93.310793624796503,44.950404758065147],[-93.3108388332451,44.950382387990004],[-93.310855740390693,44.95036600044704],[-93.310858313217196,44.95035403493651],[-93.310870442256416,44.950338427745116],[-93.310873382629552,44.950322040189583],[-93.310877123427957,44.950311938944544],[-93.310889187135189,44.950305652629375],[-93.310895435428137,44.950283542421673],[-93.310887349401995,44.950254669078802],[-93.310876323002702,44.950246085109185],[-93.31086088604367,44.950243744026352],[-93.310848021911184,44.950236720777255],[-93.310833320045461,44.950240362462083],[-93.310816780446515,44.950240102341745],[-93.310801343487512,44.950207847410816],[-93.310798403114362,44.95019536162625],[-93.310815347180963,44.950189364169297],[-93.31083984575352,44.950174601070465],[-93.310859783403771,44.950162586428817],[-93.310867264386943,44.950151944033856],[-93.310878895829205,44.95014489821925],[-93.310936137030055,44.950141538661832],[-93.310954242891043,44.950130851696002],[-93.310974457956405,44.950130851696002],[-93.310992835288573,44.950125909399972],[-93.31102142371175,44.950126359590527],[-93.311034000512578,44.950119146257336],[-93.311045026911899,44.950094434767877],[-93.311042821632029,44.950068422662198],[-93.311027752219672,44.950049693938823],[-93.311012682807274,44.950048653454012],[-93.311013050353935,44.950001571496557],[-93.310999818674787,44.949993247610571],[-93.310989894915437,44.949999230403748],[-93.310971885129902,44.949999750646597],[-93.310967842116824,44.949990386274479],[-93.310962023696831,44.949979920284285],[-93.310973722863139,44.949972177768736],[-93.310993937928501,44.949970877160972],[-93.311037675979023,44.949954923036543],[-93.311071980332372,44.94995318889233],[-93.311093053006587,44.949947639630459],[-93.311098443690682,44.949937234762984],[-93.311100403939463,44.949906366978418],[-93.311094523193148,44.949896655761847],[-93.311084231887165,44.949892840640622],[-93.31107835114085,44.949885557226636],[-93.31109950998119,44.949888564867166],[-93.311108244934502,44.949882782592496],[-93.311120986551472,44.949894227957458],[-93.311148920096343,44.949893534299051],[-93.311160191526739,44.949878273811734],[-93.311164616464424,44.949858488266685],[-93.31117146295712,44.949853995755383],[-93.311172933143681,44.94983942891664],[-93.311163621962081,44.949808561079465],[-93.311148430034152,44.949789832271293],[-93.311127847422142,44.949783242504004],[-93.311106774747941,44.949763126367586],[-93.311105794623529,44.94974543803491],[-93.311092072882204,44.949734686300616],[-93.311090112633437,44.949723240903836],[-93.311051397720362,44.949719772601341],[-93.311030815108339,44.949712835995705],[-93.310994060444031,44.949713529656307],[-93.310957305779695,44.949724281394552],[-93.310947504535875,44.949723587734077],[-93.310938683416467,44.949715610638052],[-93.310935743043331,44.949702084255314],[-93.310987689635553,44.949701043764186],[-93.311007782185357,44.949695841308341],[-93.311008569511515,44.949681296387602],[-93.31101562318041,44.949675725141304],[-93.311038656103378,44.949684742734298],[-93.311058027471773,44.949686187595198],[-93.311067569772661,44.94967884661596],[-93.311067449465412,44.949668017053774],[-93.311075410767714,44.949661851918542],[-93.311076390892083,44.949624394200335],[-93.311064629399525,44.949613295612465],[-93.311050058037367,44.949581754175853],[-93.311064302691364,44.949570057343436],[-93.311073777227065,44.949555259211792],[-93.311078590912402,44.949555668702899],[-93.311098770398758,44.949539073750955],[-93.311102084215236,44.949521328874532],[-93.31111330891045,44.949512020899057],[-93.311131931273678,44.949523235116992],[-93.311151860469465,44.949521963401658],[-93.311168195875823,44.949516760929576],[-93.311186777400536,44.949496355673425],[-93.311196088582136,44.949492887357195],[-93.311197068706548,44.949458551015375],[-93.311228299579412,44.949455783596974],[-93.311270578035149,44.949421439996563],[-93.3112693712945,44.949388800215125],[-93.31127645878145,44.94938294162457],[-93.311308911530787,44.949380580456278],[-93.311329385498084,44.949363865845115],[-93.311345557550382,44.949359703856025],[-93.311366630224583,44.94935137987693],[-93.311368100411158,44.949403404726411],[-93.311378881779333,44.949416237515358],[-93.311409755697355,44.949415890683262],[-93.311451410983565,44.949399589572394],[-93.311484735212559,44.949405485719403],[-93.31149061595886,44.94941311602642],[-93.311494046394159,44.94943600694139],[-93.311514629006197,44.949441556252729],[-93.311554814105847,44.9494283766374],[-93.311585688023868,44.949435660109408],[-93.311579807277596,44.949447452395439],[-93.311581277464157,44.949473464782535],[-93.311609701071205,44.949490112704076],[-93.311658210616912,44.949490107779383],[-93.311690397978694,44.949468464624594],[-93.311687784313676,44.949436093649389],[-93.311689744562457,44.949421989147325],[-93.311690397978694,44.949398635783851],[-93.311706733385066,44.949394473797277],[-93.311723722207688,44.949395629904686],[-93.31172110854267,44.949408578306091],[-93.311720455126419,44.949411352963153],[-93.311723068791437,44.949431238001523],[-93.311733850159641,44.949436787313331],[-93.311748552025364,44.94943655609201],[-93.311766400855319,44.949431406970902],[-93.311781549546225,44.949421295483205],[-93.311786776876247,44.949413202734455],[-93.311821896392885,44.949405201402534],[-93.311864533410514,44.949376900961774],[-93.311868453908062,44.949368345763595],[-93.311874007946216,44.949344761156581],[-93.311865513534926,44.949329038079881],[-93.311846564463536,44.949315627216926],[-93.31188838310382,44.949308459340621],[-93.311905371926443,44.949310540337052],[-93.311920727208417,44.949311696446145],[-93.311940329696071,44.949308228118781],[-93.311943923485472,44.949333662514661],[-93.31195339802116,44.949344067491538],[-93.311998810450831,44.949345686043323],[-93.312015145857202,44.949346842151712],[-93.312038995550466,44.949354472466524],[-93.312083101147678,44.949349154368427],[-93.312117078792895,44.949345686043323],[-93.312128840285482,44.949332043962528],[-93.31213047382613,44.949312852555224],[-93.312194181910954,44.949306147122243],[-93.312220318561145,44.949281868823903],[-93.312218358312379,44.949244410857695],[-93.312196573994612,44.949234210358078],[-93.312209537192956,44.949225913087602],[-93.312212991479896,44.949207978063008],[-93.312220318561145,44.949203253311104],[-93.312233713594352,44.949207415311527],[-93.312258543412042,44.949207877756002],[-93.312291214224771,44.949217589089102],[-93.312290560808506,44.949241636192568],[-93.312297094971044,44.949266145729943],[-93.312307549631129,44.949273544833517],[-93.312332052740672,44.949305453456731],[-93.31235426889333,44.949329038079881],[-93.312388246538575,44.949329269301622],[-93.312411442815588,44.949308574951516],[-93.312428594992284,44.949277244384952],[-93.312452934747753,44.949270654558795],[-93.312479398106078,44.949274122888447],[-93.312480378230475,44.949308806173356],[-93.312492139723048,44.94932059848545],[-93.312490179474295,44.949353894412418],[-93.312539185693382,44.949374010692253],[-93.312557206160108,44.949375969665354],[-93.312568589424799,44.949369848703896],[-93.31259701303189,44.949374704356941],[-93.312615635395161,44.949398982616046],[-93.312626409664162,44.949408372438207],[-93.31265386024603,44.949394126965046],[-93.312683263977476,44.949403144602279],[-93.312680323604354,44.949428810177437],[-93.312696005594475,44.949447539103424],[-93.312643078877841,44.949450313758597],[-93.312613675146395,44.949432972161524],[-93.312582311166153,44.949438521473155],[-93.312542126066575,44.94946649924448],[-93.312543868509906,44.94950133656053],[-93.312573490046759,44.94951336005407],[-93.312575668100962,44.949537407033596],[-93.312597448642776,44.949552513464312],[-93.312641880948078,44.949552513464312],[-93.312651028775662,44.949580876547977],[-93.312681085923359,44.949595674672999],[-93.312671502484946,44.94961540550046],[-93.312671938095804,44.949645001728918],[-93.312661483435718,44.949653942253256],[-93.312651464386462,44.949646851492687],[-93.312621407238765,44.949653325665423],[-93.312591350091068,44.949657025192366],[-93.312563906608375,44.949686621399358],[-93.312542997288219,44.949700494616152],[-93.312542343871982,44.949756449889762],[-93.312567173689644,44.949770785529608],[-93.31255933269459,44.949799456798537],[-93.312560639527078,44.949847550507819],[-93.312569787354647,44.949900268565912],[-93.312595161685834,44.949913216853481],[-93.312614655270792,44.949912600268419],[-93.31262707017963,44.949894256859984],[-93.31264776169435,44.949905817832381],[-93.312557590251217,44.94994466268254],[-93.312541908261139,44.949994606022713],[-93.312586993982677,44.950012641107094],[-93.312585033733924,44.950044549319422],[-93.312612477216632,44.950057035136801],[-93.312053152902678,44.95097265434211],[-93.312002839851104,44.950980978086072],[-93.31194011189065,44.95096710517879],[-93.311921162819303,44.950980053225678],[-93.311897639834129,44.951020747068313],[-93.311918549154285,44.951044793416315],[-93.311910708159203,44.951074388907706],[-93.311908094494186,44.951111383250485],[-93.311923776484321,44.951140978707535],[-93.311929003814356,44.951174273578481],[-93.311931617479374,44.951203869003102],[-93.311981930530948,44.951236701409449],[-93.31205789017055,44.951238897943014],[-93.312072755390318,44.951213233177256],[-93.312088437380453,44.951235429732087],[-93.312135483350772,44.951268724548243],[-93.312130256020737,44.95129647021362],[-93.312072755390304,44.951290921081615],[-93.312072755390318,44.951290921081615],[-93.312036164080055,44.951311267896315],[-93.312021788922451,44.951337163831866],[-93.308916754880826,44.951333464413224]]]]}}
]
}
