{
"type": "FeatureCollection",
"name": "khand",
"crs": { "type": "name", "properties": { "name": "urn:ogc:def:crs:OGC:1.3:CRS84" } },
"features": [
{ "type": "Feature", "properties": { "id": 1 }, "geometry": { "type": "MultiPolygon", "coordinates": [ [ [ [ -93.292606530632654, 44.939941656773819 ], [ -93.292563621814466, 44.938099004383972 ], [ -93.29489570435868, 44.938083070543897 ], [ -93.295556042933555, 44.938705233920871 ], [ -93.295546898431311, 44.938710835601313 ], [ -93.295450705302031, 44.938739839849163 ], [ -93.295369284060982, 44.93877805572415 ], [ -93.295378780274845, 44.93880818027219 ], [ -93.295502231054996, 44.93886793139508 ], [ -93.295464246199543, 44.938905773740736 ], [ -93.295389777220734, 44.938932767970073 ], [ -93.295315120470804, 44.938943616061458 ], [ -93.295259198322526, 44.938960296550185 ], [ -93.295298590024458, 44.938998636759614 ], [ -93.295237130537998, 44.939020165998919 ], [ -93.295132230426091, 44.939047433352762 ], [ -93.295060481254723, 44.939045690618009 ], [ -93.294959188306905, 44.939050918822112 ], [ -93.295018275859803, 44.939096727828229 ], [ -93.294998580008823, 44.939126354285534 ], [ -93.294932809935091, 44.939143034721177 ], [ -93.2948797014798, 44.939165939192058 ], [ -93.294828703294243, 44.939178387270211 ], [ -93.294804786903811, 44.939217474218125 ], [ -93.294766450336738, 44.939237391124017 ], [ -93.294651088923928, 44.939238138007852 ], [ -93.294470660860597, 44.939264278936022 ], [ -93.294364092238411, 44.939310212252394 ], [ -93.294337713866582, 44.939344942296479 ], [ -93.294393636014831, 44.939376311350493 ], [ -93.294311863062163, 44.939396850602762 ], [ -93.294212680384092, 44.939439796288333 ], [ -93.294117718245502, 44.939480874740113 ], [ -93.294050717181037, 44.939514857800738 ], [ -93.293968416660945, 44.939518965641859 ], [ -93.2939736923353, 44.939585064499639 ], [ -93.293949688016923, 44.939644814814081 ], [ -93.293909329108047, 44.939664980531155 ], [ -93.29394019180306, 44.939689627509082 ], [ -93.293925156131124, 44.93973444016914 ], [ -93.293911307485914, 44.939743122617962 ], [ -93.293835337775036, 44.939769450035442 ], [ -93.29369207830473, 44.939789526643033 ], [ -93.293690916189263, 44.939840590018044 ], [ -93.293711491319286, 44.939862716215153 ], [ -93.293704764834473, 44.939893524829799 ], [ -93.293601493508774, 44.939894084986285 ], [ -93.293599119455308, 44.939904727958314 ], [ -93.293664405925554, 44.939933576004137 ], [ -93.29366677997902, 44.939941978344876 ], [ -93.293737210231797, 44.939980349018541 ], [ -93.293705160510029, 44.939999114229167 ], [ -93.292606530632654, 44.939941656773819 ] ] ] ] } }
]
}
