{
"type": "FeatureCollection",
"name": "lamedon",
"crs": { "type": "name", "properties": { "name": "urn:ogc:def:crs:OGC:1.3:CRS84" } },
"features": [
{ "type": "Feature", "properties": { "id": 1 }, "geometry": { "type": "MultiPolygon", "coordinates": [ [ [ [ -93.304584740739728, 44.941225457548015 ], [ -93.304439478149703, 44.941134121377424 ], [ -93.304345598337591, 44.941120448285481 ], [ -93.304264853972413, 44.941102946723056 ], [ -93.304160929406734, 44.941092008243828 ], [ -93.304109932965588, 44.941063841650234 ], [ -93.304041551374098, 44.941041964674781 ], [ -93.30395964799888, 44.941007234959152 ], [ -93.303844519669639, 44.940974419460517 ], [ -93.303839883629536, 44.940950354749589 ], [ -93.303761070947729, 44.940928751193695 ], [ -93.303515360822203, 44.940896756039017 ], [ -93.303360826152058, 44.940878160556316 ], [ -93.303263469309826, 44.940876519778151 ], [ -93.303229858019009, 44.940854916194482 ], [ -93.303271582379935, 44.94082319446192 ], [ -93.3032487885161, 44.94080432549201 ], [ -93.303288581193655, 44.940750453181487 ], [ -93.303261537626398, 44.940720098710131 ], [ -93.303264241983101, 44.940702597025663 ], [ -93.303309057037453, 44.940705331664219 ], [ -93.303333396248007, 44.94069712774818 ], [ -93.303356962785202, 44.940678258736838 ], [ -93.30335580377519, 44.940666226320573 ], [ -93.303384779025848, 44.940659116255226 ], [ -93.303384779025777, 44.940653646973644 ], [ -93.303396514002301, 44.940650467953454 ], [ -93.303397528136074, 44.940645032854015 ], [ -93.303403323186259, 44.940641341088018 ], [ -93.303462819034351, 44.94063587180468 ], [ -93.303469966262753, 44.940626061276461 ], [ -93.30348599923488, 44.940619463951577 ], [ -93.303513815475497, 44.940597586806817 ], [ -93.303535257160931, 44.940587536990662 ], [ -93.303561528054871, 44.940585759471986 ], [ -93.303588185285463, 44.940585144177035 ], [ -93.303599195880722, 44.940579606522249 ], [ -93.303644590440101, 44.940570445462519 ], [ -93.303710847179957, 44.940561968062674 ], [ -93.303870790563593, 44.940526486028766 ], [ -93.304023779887032, 44.940482731660047 ], [ -93.30411186464903, 44.940434601815937 ], [ -93.304152043663279, 44.940429132512911 ], [ -93.304269490012615, 44.940402879851177 ], [ -93.30440548052232, 44.940364594697947 ], [ -93.304478111817332, 44.940366782421677 ], [ -93.304521381524935, 44.940366782421677 ], [ -93.304565423905913, 44.940363500836042 ], [ -93.304590922126508, 44.940372251730629 ], [ -93.304622601733897, 44.940647357299071 ], [ -93.304730003329638, 44.940804325492024 ], [ -93.304786794820942, 44.940968129821151 ], [ -93.304584740739728, 44.941225457548015 ] ] ] ] } }
]
}
