{
"type": "FeatureCollection",
"name": "lebennin",
"crs": { "type": "name", "properties": { "name": "urn:ogc:def:crs:OGC:1.3:CRS84" } },
"features": [
{ "type": "Feature", "properties": { "id": 1 }, "geometry": { "type": "MultiPolygon", "coordinates": [ [ [ [ -93.302712601502151, 44.940765442405002 ], [ -93.301494868300978, 44.940844199856919 ], [ -93.301476324140552, 44.940827792063338 ], [ -93.301442326513097, 44.940796070315798 ], [ -93.301417600965877, 44.940784584851158 ], [ -93.301351244974342, 44.940747169646961 ], [ -93.301327198183785, 44.940746846879748 ], [ -93.301317926103593, 44.940709655811183 ], [ -93.30128701916955, 44.940656056875888 ], [ -93.301300927289859, 44.94063199203152 ], [ -93.301283928476138, 44.940579486881525 ], [ -93.30128547382283, 44.940548858855166 ], [ -93.301276201742638, 44.940530263259774 ], [ -93.301209751834463, 44.940450411516998 ], [ -93.301149483313068, 44.940404469368069 ], [ -93.301095396178496, 44.940368371939556 ], [ -93.30106603459113, 44.940343213112321 ], [ -93.301056762510939, 44.940290707698239 ], [ -93.301070670631262, 44.940245859285689 ], [ -93.301095396178496, 44.940194447647713 ], [ -93.301117031032319, 44.940143035963693 ], [ -93.301143301926245, 44.940093811967785 ], [ -93.301158755393274, 44.94006099594705 ], [ -93.301178844900392, 44.940021616697422 ], [ -93.301222114608052, 44.939973486466762 ], [ -93.301257657582198, 44.939937388767298 ], [ -93.301300927289859, 44.939890352336946 ], [ -93.301351923731048, 44.939857536199931 ], [ -93.301407556212297, 44.939814875193775 ], [ -93.301466279386986, 44.939787528378297 ], [ -93.301512639788029, 44.939771120282757 ], [ -93.301566726922601, 44.939751430561913 ], [ -93.301608451283599, 44.939736116329925 ], [ -93.301660993071465, 44.939720802093838 ], [ -93.301773803380712, 44.939697830732065 ], [ -93.301883522996548, 44.939657357358023 ], [ -93.301915975277296, 44.939650794105475 ], [ -93.301962335678354, 44.939637667598156 ], [ -93.302000969345912, 44.939614696203137 ], [ -93.302044239053572, 44.939599381934656 ], [ -93.302112234308481, 44.939546875840371 ], [ -93.302172502829862, 44.939505308481657 ], [ -93.302235862044654, 44.939477961518726 ], [ -93.302294585219329, 44.93943967574873 ], [ -93.302345581660489, 44.939402483833447 ], [ -93.30237339790115, 44.939384981747317 ], [ -93.302430575729133, 44.939362010251195 ], [ -93.302490844250485, 44.939336850982997 ], [ -93.302541840691674, 44.939323724403899 ], [ -93.3025681115856, 44.939314973349504 ], [ -93.302656196347641, 44.939271218057513 ], [ -93.302702556748642, 44.939250434282144 ], [ -93.302739645069508, 44.939237307683307 ], [ -93.302767461310125, 44.939229650499243 ], [ -93.302807640324389, 44.939216523895652 ], [ -93.302857091418872, 44.939202303405025 ], [ -93.302897270433121, 44.939189176795175 ], [ -93.302935904100678, 44.939184801257881 ], [ -93.302974537768208, 44.93919245844792 ], [ -93.303014716782471, 44.939191364563676 ], [ -93.303061077183557, 44.939177144066839 ], [ -93.30309043877088, 44.939168392990105 ], [ -93.303130617785129, 44.939172768528628 ], [ -93.303180068879598, 44.939164017451226 ], [ -93.303251154827905, 44.939144327522186 ], [ -93.30333614889652, 44.93912463758641 ], [ -93.303360874443783, 44.93912463758641 ], [ -93.30340723484484, 44.939116980387325 ], [ -93.303452049899192, 44.939120262044206 ], [ -93.303484502179927, 44.939129013128273 ], [ -93.303529317234307, 44.939145421407318 ], [ -93.303549406741439, 44.939150890832629 ], [ -93.303571041595262, 44.939158548027166 ], [ -93.303597312489188, 44.939183707373516 ], [ -93.303620492689717, 44.939215430011856 ], [ -93.303643672890274, 44.939264654760841 ], [ -93.303663762397363, 44.939295283472255 ], [ -93.303697760024818, 44.939317161113237 ], [ -93.303724030918787, 44.93934341427142 ], [ -93.303727121612184, 44.939369667417601 ], [ -93.303733302998992, 44.939387169508386 ], [ -93.303724803592118, 44.939408500174316 ], [ -93.303713213491861, 44.939433112471328 ], [ -93.303715531511884, 44.939463741092865 ], [ -93.303729439632221, 44.939483430912361 ], [ -93.303720167552015, 44.939503667664255 ], [ -93.303707032105052, 44.939540859514011 ], [ -93.303710122798449, 44.939550157472681 ], [ -93.303699305371524, 44.939556720736718 ], [ -93.303668398437495, 44.939556720736718 ], [ -93.303646763583671, 44.93956492481572 ], [ -93.303620492689717, 44.939576957462783 ], [ -93.303593449122417, 44.93959008398398 ], [ -93.303564087535094, 44.939609226822022 ], [ -93.303546316048028, 44.93961250845075 ], [ -93.303516954460676, 44.939621806397831 ], [ -93.303479093466493, 44.939637120660294 ], [ -93.303449731879127, 44.939633839032972 ], [ -93.303428097025289, 44.939644777790015 ], [ -93.30340723484484, 44.939658998171055 ], [ -93.303386372664335, 44.93967540629864 ], [ -93.303370919197334, 44.939680328735982 ], [ -93.303355465730306, 44.939700565418491 ], [ -93.303338466916586, 44.939726271464352 ], [ -93.303342716620023, 44.939746781599062 ], [ -93.303231065320787, 44.939784246759579 ], [ -93.303219475220516, 44.939792724274263 ], [ -93.303183932246355, 44.939793544678828 ], [ -93.303179296206267, 44.939802842596585 ], [ -93.303140662538695, 44.939811046640422 ], [ -93.303117482338166, 44.939827454724544 ], [ -93.303094302137637, 44.939849332162773 ], [ -93.30308193936402, 44.939864646364555 ], [ -93.303066485896991, 44.939885429917602 ], [ -93.303052577776654, 44.939906213463118 ], [ -93.303044851043154, 44.939925903130892 ], [ -93.303032488269551, 44.939949968271208 ], [ -93.303024761536022, 44.939970751793361 ], [ -93.303021670842625, 44.939998098521585 ], [ -93.303030942922817, 44.940015600420814 ], [ -93.303034033616257, 44.940056073542337 ], [ -93.303026306882728, 44.940088889565871 ], [ -93.303018580149228, 44.940121705570654 ], [ -93.302996945295405, 44.940156709288416 ], [ -93.302975310441568, 44.940187337523938 ], [ -93.302950584894305, 44.940197182310463 ], [ -93.302932040733907, 44.940214684149005 ], [ -93.302922768653687, 44.940248593946002 ], [ -93.302904224493261, 44.940282503722948 ], [ -93.302885680332821, 44.940310944165603 ], [ -93.302882589639424, 44.940326258244291 ], [ -93.302857864092203, 44.940348135492435 ], [ -93.302830047851543, 44.940376575902576 ], [ -93.302823866464749, 44.940402828576374 ], [ -93.302819230424646, 44.940432362820019 ], [ -93.302796050224089, 44.940458615468295 ], [ -93.302775960716986, 44.9404772110869 ], [ -93.302762052596663, 44.940505651433092 ], [ -93.302754325863148, 44.940532997906566 ], [ -93.30274659912962, 44.94057347066336 ], [ -93.302721873582399, 44.940597535532248 ], [ -93.302717237542296, 44.940611755677317 ], [ -93.302723418929105, 44.940663166941611 ], [ -93.302735009029362, 44.940682856349795 ], [ -93.302735009029362, 44.940707468100541 ], [ -93.302743508436222, 44.940723875928491 ], [ -93.302735009029362, 44.940749034588926 ], [ -93.302712601502151, 44.940765442405002 ] ] ] ] } }
]
}
