{
"type": "FeatureCollection",
"name": "lindon",
"crs": { "type": "name", "properties": { "name": "urn:ogc:def:crs:OGC:1.3:CRS84" } },
"features": [
{ "type": "Feature", "properties": { "id": 1 }, "geometry": { "type": "MultiPolygon", "coordinates": [ [ [ [ -93.313916424370532, 44.944589701738138 ], [ -93.314033929371931, 44.944226221696454 ], [ -93.314151978378007, 44.944226606740088 ], [ -93.314186794674725, 44.944183481836951 ], [ -93.314306475694707, 44.944171160430102 ], [ -93.314352172084128, 44.944134196193687 ], [ -93.314569773938629, 44.944194263065782 ], [ -93.314643758569176, 44.944191182714896 ], [ -93.314704687088437, 44.944104932822981 ], [ -93.314752559496426, 44.944120334598907 ], [ -93.314719919218263, 44.944175780957984 ], [ -93.314809135978578, 44.944245088831522 ], [ -93.314865712460744, 44.944282052996535 ], [ -93.314935345054209, 44.944275892304013 ], [ -93.314867888479284, 44.944345200056695 ], [ -93.314870064497839, 44.944400646198588 ], [ -93.315020209777458, 44.944453011950095 ], [ -93.315013681721808, 44.94452077932231 ], [ -93.315083314315245, 44.944545421983278 ], [ -93.315213875427958, 44.944505377653833 ], [ -93.315233459594879, 44.944562363806568 ], [ -93.315268275891597, 44.944576225294618 ], [ -93.315211699409389, 44.944608568753736 ], [ -93.315250867743231, 44.944722540797777 ], [ -93.315320500336639, 44.944727161281278 ], [ -93.315466293579178, 44.944784147213859 ], [ -93.315544630246777, 44.944765665295968 ], [ -93.315555510339507, 44.944724080958977 ], [ -93.315614262840228, 44.944734862086271 ], [ -93.315670839322394, 44.944702518698321 ], [ -93.315675191359489, 44.944676335942326 ], [ -93.315710007656207, 44.944668635129474 ], [ -93.315829688676175, 44.944697898212837 ], [ -93.315853624880177, 44.944721000636527 ], [ -93.315829688676175, 44.944773366095809 ], [ -93.316001594141255, 44.944836512615538 ], [ -93.3160255303452, 44.944885797655836 ], [ -93.31610604303134, 44.944876556714007 ], [ -93.316182203680427, 44.944845753563797 ], [ -93.316256188310973, 44.944854994510607 ], [ -93.316267068403704, 44.944879637028116 ], [ -93.316354109145507, 44.944915060628489 ], [ -93.316271420440785, 44.944978206992346 ], [ -93.316360637201143, 44.945015170685309 ], [ -93.31642374173893, 44.944987447917818 ], [ -93.316432445813106, 44.945018250991978 ], [ -93.316393277479321, 44.945045973744577 ], [ -93.316404157572023, 44.945104499511693 ], [ -93.316430269794566, 44.945156864621147 ], [ -93.316473790165475, 44.945163025219117 ], [ -93.316456382017137, 44.945223091014704 ], [ -93.316336700997155, 44.945224631162482 ], [ -93.316358461182602, 44.94525543410937 ], [ -93.316282300533516, 44.945283156747443 ], [ -93.316343229052791, 44.945355543572617 ], [ -93.316425917757513, 44.945386346449247 ], [ -93.316526014610545, 44.945478754980002 ], [ -93.31658694312982, 44.945472594415932 ], [ -93.316667455816003, 44.945478754980002 ], [ -93.316704448131276, 44.945514178210694 ], [ -93.316769728687603, 44.945511097930634 ], [ -93.316782784798875, 44.94554652114136 ], [ -93.31684371331815, 44.945568083085007 ], [ -93.316865473503597, 44.945605046398143 ], [ -93.316885057670504, 44.945655870914841 ], [ -93.31683500924396, 44.945688213765663 ], [ -93.316804544984322, 44.945702074981874 ], [ -93.316713152205452, 44.945698994711897 ], [ -93.316588210050412, 44.94564943816453 ], [ -93.31649337433241, 44.945692834171446 ], [ -93.3165020784066, 44.945735957940734 ], [ -93.316571711, 44.945762140213432 ], [ -93.316556478870197, 44.945809884327005 ], [ -93.31652601461056, 44.945819125118589 ], [ -93.316443111792822, 44.945780068563224 ], [ -93.31638892544224, 44.945794483004384 ], [ -93.316358093548374, 44.945779459632448 ], [ -93.316327996922965, 44.945711315790817 ], [ -93.31629721093195, 44.945696997470989 ], [ -93.316232252107014, 44.945726717135756 ], [ -93.316162619513577, 44.945739038208735 ], [ -93.316125627198304, 44.945780621810485 ], [ -93.316001594141255, 44.945772921145775 ], [ -93.316049466549217, 44.945743658610418 ], [ -93.315989930796789, 44.945711450611874 ], [ -93.315894969232531, 44.945698994711897 ], [ -93.31585685583498, 44.945677626218156 ], [ -93.315718711730398, 44.945685133494948 ], [ -93.315683895433679, 44.945690523968601 ], [ -93.315671927331678, 44.945712085858155 ], [ -93.315599030710459, 44.945709005588718 ], [ -93.315563126404456, 44.945731337538426 ], [ -93.31549893385737, 44.945712855925485 ], [ -93.315440181356678, 44.945725947068595 ], [ -93.315371636772483, 44.945797563269231 ], [ -93.31535096459632, 44.945796023136822 ], [ -93.31533291378436, 44.945780844158627 ], [ -93.315262835845246, 44.945808344194916 ], [ -93.315262835845246, 44.945865329054229 ], [ -93.315234547604163, 44.945885350748114 ], [ -93.315184499177604, 44.945890741202966 ], [ -93.315165277588335, 44.94587102015258 ], [ -93.315119218621291, 44.945880730357835 ], [ -93.315088754361653, 44.94589767178703 ], [ -93.315043057972218, 44.945920003663353 ], [ -93.315027825842378, 44.945936945080973 ], [ -93.315012593712567, 44.945945415787904 ], [ -93.31498430760027, 44.945910432654152 ], [ -93.315011505703296, 44.945858398466257 ], [ -93.315066994176206, 44.945853008008363 ], [ -93.315089842370924, 44.945822975447982 ], [ -93.315088754361653, 44.945786782341521 ], [ -93.315053588654791, 44.945750874567999 ], [ -93.31496036926751, 44.945770610946155 ], [ -93.314926640980048, 44.945781391876906 ], [ -93.314914672878075, 44.945819895184485 ], [ -93.31486027241445, 44.945835296500292 ], [ -93.314774319681888, 44.945868409315288 ], [ -93.314768879635551, 44.945893821462661 ], [ -93.314817840052811, 44.94591384314662 ], [ -93.314810223987905, 44.945963127261997 ], [ -93.314850480330975, 44.945987769303812 ], [ -93.31480804796935, 44.946034743166713 ], [ -93.314772143663347, 44.946043983922117 ], [ -93.314690542967938, 44.946037823418692 ], [ -93.314668782782491, 44.946038593481653 ], [ -93.314636142504312, 44.946018571841208 ], [ -93.31461111829104, 44.945998550193771 ], [ -93.314545837734713, 44.946001630447682 ], [ -93.314528026985016, 44.945961677040692 ], [ -93.314398956482904, 44.945947725980488 ], [ -93.314339478642651, 44.945970057837336 ], [ -93.314298859629815, 44.946017288402494 ], [ -93.31429450759272, 44.946030636163869 ], [ -93.314245184505708, 44.946038850169316 ], [ -93.314216170925093, 44.946079920178953 ], [ -93.314084159133387, 44.946129204151745 ], [ -93.314063849626962, 44.946158979864798 ], [ -93.314029033330243, 44.946184648570551 ], [ -93.313898472217517, 44.946216477749736 ], [ -93.313875261353047, 44.946244199923697 ], [ -93.313881064069179, 44.946270895337811 ], [ -93.313866557278871, 44.946296563993506 ], [ -93.31382158622894, 44.946329419856063 ], [ -93.313772263141928, 44.946332500092218 ], [ -93.313679419683993, 44.946385890825901 ], [ -93.313627195238922, 44.946413612918043 ], [ -93.313660560856619, 44.946334553582901 ], [ -93.313680023894278, 44.946201827975344 ], [ -93.31379837536447, 44.946171300844988 ], [ -93.313866557278871, 44.946137418143095 ], [ -93.313944893946484, 44.946041930421046 ], [ -93.314010174502812, 44.945954656557682 ], [ -93.31407400438016, 44.945905372435035 ], [ -93.314187157344506, 44.945824258891065 ], [ -93.31424663518473, 44.945761626835655 ], [ -93.314343830679746, 44.945681539845566 ], [ -93.31437429493937, 44.9456240414248 ], [ -93.314445378211843, 44.945525472569514 ], [ -93.314375533310567, 44.945401911014841 ], [ -93.31454692574394, 44.945362217530615 ], [ -93.314449730248938, 44.945329361114474 ], [ -93.314481645187584, 44.945293424387785 ], [ -93.314561432534234, 44.945266728519101 ], [ -93.314439575495726, 44.945201015558673 ], [ -93.314517912163325, 44.945177399945159 ], [ -93.314339478642651, 44.945149677256019 ], [ -93.314377196297414, 44.945118874252387 ], [ -93.314245184505708, 44.945089097999812 ], [ -93.314274198086295, 44.945058294963687 ], [ -93.314256259014158, 44.945034799400119 ], [ -93.314264043333097, 44.945001822687829 ], [ -93.314211753429205, 44.944939830387469 ], [ -93.314245184505722, 44.944912493701658 ], [ -93.314230013414104, 44.944897598059548 ], [ -93.314243733826686, 44.944868342542229 ], [ -93.314149439689757, 44.944856021282376 ], [ -93.314128271805743, 44.944831827983208 ], [ -93.314177727930854, 44.944821624417969 ], [ -93.31418643200503, 44.944808789761787 ], [ -93.314047166818142, 44.944796981875555 ], [ -93.314027740772858, 44.944766183713043 ], [ -93.314152341047844, 44.944750263693209 ], [ -93.314042814781047, 44.94473896918187 ], [ -93.314032710577294, 44.944727036102037 ], [ -93.314069652343122, 44.944711246280995 ], [ -93.31416902385665, 44.944700465149268 ], [ -93.314118975430134, 44.944693277726984 ], [ -93.314044265460097, 44.944667094966782 ], [ -93.314043540120579, 44.944645019296942 ], [ -93.313992766354545, 44.944638345255562 ], [ -93.313933288514292, 44.944618836514749 ], [ -93.313916424370532, 44.944589701738138 ] ] ] ] } },
{ "type": "Feature", "properties": { "id": 1 }, "geometry": { "type": "MultiPolygon", "coordinates": [ [ [ [ -93.315923727174606, 44.946657838062436 ], [ -93.315971544863274, 44.946571927127479 ], [ -93.316041432254451, 44.946509446366754 ], [ -93.316122354496841, 44.946452172276331 ], [ -93.316243737860461, 44.946431345320214 ], [ -93.316383512642773, 44.946402708243184 ], [ -93.316560070262554, 44.94638188126909 ], [ -93.316574783397556, 44.946509446366754 ], [ -93.316681453626174, 44.94654329012058 ], [ -93.316846976394714, 44.94659015066987 ], [ -93.316835941543474, 44.946668251500355 ], [ -93.316880080948422, 44.946764575711583 ], [ -93.316839619827221, 44.946806229374495 ], [ -93.316883759232198, 44.946855693059952 ], [ -93.31704192543323, 44.94685048635823 ], [ -93.317148595661834, 44.946840072953364 ], [ -93.317192735066797, 44.946873916512267 ], [ -93.317273657309215, 44.946881726561486 ], [ -93.317325153281658, 44.94694160357021 ], [ -93.317361936119084, 44.946993670483543 ], [ -93.317361936119084, 44.947027513951895 ], [ -93.317242005724893, 44.9469966872459 ], [ -93.31714491737813, 44.947050944033663 ], [ -93.317104456256928, 44.947103010847826 ], [ -93.317185378499317, 44.947129044237201 ], [ -93.31714491737813, 44.947188920987934 ], [ -93.317222161336787, 44.947214954338349 ], [ -93.317266300741693, 44.947290450987751 ], [ -93.317325153281658, 44.947308674302043 ], [ -93.317339866416631, 44.947365947537861 ], [ -93.317281013876709, 44.947438840664461 ], [ -93.31716330879685, 44.947459667255046 ], [ -93.31707135170322, 44.947529956942503 ], [ -93.317108134540661, 44.947631486339112 ], [ -93.317174343648077, 44.947631486339112 ], [ -93.317104456256928, 44.947709585752747 ], [ -93.317057285984419, 44.947667568672323 ], [ -93.317012499163283, 44.947714792376551 ], [ -93.316927898637147, 44.947761651969479 ], [ -93.316953646623361, 44.947834544593562 ], [ -93.317012499163283, 44.947829337980622 ], [ -93.317034568865751, 44.947917850336303 ], [ -93.317005142595804, 44.947995949360319 ], [ -93.316916863785892, 44.947969916364116 ], [ -93.31686168952973, 44.948001155958138 ], [ -93.31670352332867, 44.948084461459082 ], [ -93.316637314221225, 44.948081858164002 ], [ -93.31659317481629, 44.948131320750214 ], [ -93.31659317481629, 44.948162560256407 ], [ -93.316504896006407, 44.948183386584411 ], [ -93.316504896006407, 44.948219832640241 ], [ -93.316350408089065, 44.948245865523091 ], [ -93.316368799507799, 44.948305741108847 ], [ -93.316420295480242, 44.948368219914343 ], [ -93.316486504587672, 44.948376029760247 ], [ -93.316578461681289, 44.948360410067366 ], [ -93.316600531383784, 44.948420285533636 ], [ -93.316607887951278, 44.948493177321318 ], [ -93.316677775342413, 44.948516606804837 ], [ -93.316652027356213, 44.948547846101313 ], [ -93.316563748546329, 44.948529623180441 ], [ -93.316438686898977, 44.948500987150211 ], [ -93.316335694954091, 44.948506193702222 ], [ -93.31628787726541, 44.948511400253771 ], [ -93.316199598455498, 44.948480160937443 ], [ -93.316118676213108, 44.948521813355434 ], [ -93.316126032780616, 44.948594705014173 ], [ -93.31615178076683, 44.948641563888771 ], [ -93.316188563604285, 44.94867280311724 ], [ -93.316103963078135, 44.948724868460268 ], [ -93.316048788821945, 44.94877433049237 ], [ -93.315982579714529, 44.948792553335572 ], [ -93.315989936282008, 44.94887065116945 ], [ -93.315938440309566, 44.948883667464777 ], [ -93.315846483215935, 44.948821189220347 ], [ -93.315798665527254, 44.948823792481882 ], [ -93.315747169554825, 44.94888627072347 ], [ -93.315680960447395, 44.948873254428754 ], [ -93.315614751339993, 44.94893312936005 ], [ -93.315614751339993, 44.94900081398977 ], [ -93.315666247312436, 44.949016433508383 ], [ -93.315566933651311, 44.949076308290316 ], [ -93.315497046260134, 44.949128373267314 ], [ -93.315375662896514, 44.949123166771734 ], [ -93.315313132072859, 44.94917262846063 ], [ -93.315335201775355, 44.949242916050466 ], [ -93.315180713858027, 44.949289774395886 ], [ -93.315143931020572, 44.949255932261359 ], [ -93.315063008778168, 44.949274154951659 ], [ -93.315037260791954, 44.949313203554233 ], [ -93.314967373400776, 44.949334029464758 ], [ -93.314915877428334, 44.94936006184227 ], [ -93.314864381455891, 44.949310600314895 ], [ -93.314717250106099, 44.949336632703037 ], [ -93.314713571822324, 44.949380887735771 ], [ -93.314662075849881, 44.949399110386395 ], [ -93.314636327863667, 44.949435555670284 ], [ -93.314577475323773, 44.949432952436503 ], [ -93.314540692486304, 44.949469397698905 ], [ -93.314507587932596, 44.949432952436503 ], [ -93.314452413676392, 44.949422539500127 ], [ -93.314353100015268, 44.949448571837507 ], [ -93.314331030312786, 44.949521462319332 ], [ -93.314365974008382, 44.949527970393554 ], [ -93.314281373482231, 44.949561812367683 ], [ -93.314209646949195, 44.949569622051172 ], [ -93.314230648309618, 44.949533947003921 ], [ -93.314200451239813, 44.949486318705709 ], [ -93.314136081274299, 44.949481112242609 ], [ -93.314090102727477, 44.949505842938159 ], [ -93.314069872166868, 44.949530573623051 ], [ -93.31401285876882, 44.949520160704395 ], [ -93.313920901675175, 44.949573526892529 ], [ -93.313873083986451, 44.949557907525524 ], [ -93.313836301149024, 44.949599559161427 ], [ -93.313847336000237, 44.949643813991436 ], [ -93.313819748872149, 44.949678957508624 ], [ -93.313794000885935, 44.949715402614821 ], [ -93.313764574615988, 44.949689370398474 ], [ -93.313659743529243, 44.949680259119958 ], [ -93.313554912442456, 44.949714101004282 ], [ -93.313503416470013, 44.949747942868655 ], [ -93.313455598781331, 44.949727117108317 ], [ -93.313416976802003, 44.949767467012094 ], [ -93.313363641687687, 44.949807816887507 ], [ -93.313382033106436, 44.949833849050123 ], [ -93.313440885646358, 44.949831245834403 ], [ -93.313451920497599, 44.949852071556947 ], [ -93.313429850795117, 44.949893722979375 ], [ -93.313348928552671, 44.949902834224005 ], [ -93.313313984857103, 44.949940580793474 ], [ -93.313282719445269, 44.949935374371577 ], [ -93.313262488884675, 44.949904135830245 ], [ -93.313214671195965, 44.949910643861095 ], [ -93.313176049216665, 44.949868992450952 ], [ -93.313133748953561, 44.949871595664966 ], [ -93.313085931264894, 44.949921056708909 ], [ -93.313082252981118, 44.949965311291052 ], [ -93.313039952718071, 44.949952295241019 ], [ -93.31299765245501, 44.949992644986494 ], [ -93.312984778461896, 44.950013470650482 ], [ -93.312909373645098, 44.949990041777959 ], [ -93.312861555956417, 44.950003057819423 ], [ -93.31278982942338, 44.949987438569309 ], [ -93.312747529160291, 44.950014772254214 ], [ -93.312751207444052, 44.950040804322995 ], [ -93.312780633713984, 44.950048613941313 ], [ -93.312773277146505, 44.950066836379939 ], [ -93.312738333450937, 44.950072042789927 ], [ -93.312690515762256, 44.950053820352942 ], [ -93.312622467512952, 44.950047312338327 ], [ -93.312605915236105, 44.950018677065295 ], [ -93.31257648896613, 44.949982232151662 ], [ -93.312648215499166, 44.94996010487138 ], [ -93.31266844605976, 44.949900231011391 ], [ -93.312629824080432, 44.949874198878888 ], [ -93.312604076094217, 44.949891119766363 ], [ -93.312596719526724, 44.949867690843895 ], [ -93.312587523817385, 44.949827341010575 ], [ -93.312609593519824, 44.949771371839979 ], [ -93.312561775831156, 44.949746641258848 ], [ -93.312611316085338, 44.949701127203681 ], [ -93.31266844605976, 44.949697180064618 ], [ -93.312704646078757, 44.949663382259203 ], [ -93.312696033187848, 44.949637305930345 ], [ -93.312716369933497, 44.949618533668207 ], [ -93.312703389755328, 44.94958003496086 ], [ -93.312640858931687, 44.949755752526826 ], [ -93.312631663222291, 44.949814324929278 ], [ -93.312719942032203, 44.94982083297031 ], [ -93.312874429949517, 44.949836452265757 ], [ -93.313041791859916, 44.949807816887507 ], [ -93.313253293175308, 44.949773975058442 ], [ -93.313332376275838, 44.949725815498056 ], [ -93.313416976802003, 44.949691973620638 ], [ -93.313529164456227, 44.949664639782007 ], [ -93.31358617785429, 44.949660734946846 ], [ -93.313683652373555, 44.949594352708594 ], [ -93.313781126892806, 44.949552701068924 ], [ -93.313822345275597, 44.949497012370685 ], [ -93.313860209993322, 44.949490223552736 ], [ -93.313878601412043, 44.949509747783857 ], [ -93.314016537052524, 44.949460286385474 ], [ -93.31412136813924, 44.949452476687085 ], [ -93.314246429786621, 44.949438158903973 ], [ -93.314316317177756, 44.949426444351495 ], [ -93.31438436542706, 44.949360061842285 ], [ -93.314434022257601, 44.949386094207988 ], [ -93.314470805095084, 44.94937437964488 ], [ -93.314487345874326, 44.94934345392349 ], [ -93.31455724476308, 44.949315806793471 ], [ -93.314617936444904, 44.949317108413048 ], [ -93.314781620071585, 44.949271551710552 ], [ -93.314778401573321, 44.949230550647385 ], [ -93.31469655975998, 44.949213304159692 ], [ -93.314691502119828, 44.949193779827738 ], [ -93.3148243801201, 44.949145619780531 ], [ -93.314842966228156, 44.949103561001564 ], [ -93.314916337213731, 44.949101689972487 ], [ -93.31495771790587, 44.949108198094322 ], [ -93.31503128358078, 44.949074030446489 ], [ -93.315063468563565, 44.949074030446489 ], [ -93.315084158909627, 44.949106571063943 ], [ -93.315111746037715, 44.949130976514908 ], [ -93.315153126729854, 44.94919931172246 ], [ -93.315196806349348, 44.949196057666789 ], [ -93.315210512126782, 44.949148201673246 ], [ -93.315274969878928, 44.949061014194349 ], [ -93.315348535553824, 44.949056133099027 ], [ -93.315454286211519, 44.949033354648726 ], [ -93.315486471194276, 44.949013830255574 ], [ -93.315532449741099, 44.948978035517527 ], [ -93.315522104568089, 44.948914581154305 ], [ -93.315408307664711, 44.948904005420282 ], [ -93.315304855934343, 44.948845432088881 ], [ -93.315231290259462, 44.948812891323378 ], [ -93.315176116003272, 44.948757571979705 ], [ -93.315139333165817, 44.948731539328925 ], [ -93.315158406892849, 44.948681115034027 ], [ -93.315100251401006, 44.948672965821522 ], [ -93.31505197392687, 44.948651814262483 ], [ -93.315194507422007, 44.948585105448345 ], [ -93.315049674999514, 44.94853141293185 ], [ -93.315028984653452, 44.948420773648607 ], [ -93.31503128358078, 44.948383351489817 ], [ -93.315063468563565, 44.948367894504074 ], [ -93.315139333165817, 44.948334539941712 ], [ -93.315153126729854, 44.948351623988266 ], [ -93.315248532214497, 44.948360572772529 ], [ -93.315312902180054, 44.94834023462446 ], [ -93.315338190380814, 44.948331285837014 ], [ -93.31532554628042, 44.948292236566417 ], [ -93.315319798962079, 44.948239357303478 ], [ -93.315311752716354, 44.94818973210473 ], [ -93.315316692285208, 44.948177367543011 ], [ -93.315307154861685, 44.948151496266576 ], [ -93.315286464515623, 44.948162885667848 ], [ -93.315243934359827, 44.948148242151511 ], [ -93.315238187041459, 44.948122209224401 ], [ -93.315249503766509, 44.948098036054795 ], [ -93.315312902180054, 44.948096176285453 ], [ -93.315342788235498, 44.948089668048887 ], [ -93.315400261419015, 44.948107565697697 ], [ -93.315107148183031, 44.948012382683096 ], [ -93.314996799670666, 44.948010755621645 ], [ -93.314960016833226, 44.947985536163273 ], [ -93.314884152230974, 44.947970892601695 ], [ -93.314987603961313, 44.947933470149621 ], [ -93.315018639480414, 44.947919640106804 ], [ -93.315018639480414, 44.947874895827809 ], [ -93.315076112663945, 44.947874895827809 ], [ -93.315103699792019, 44.947863506369416 ], [ -93.315118642819755, 44.947874895827809 ], [ -93.315178414930614, 44.947874895827809 ], [ -93.315207151522358, 44.947860252238016 ], [ -93.315230140795762, 44.947870828164355 ], [ -93.315245371189405, 44.947868590949334 ], [ -93.315239336505115, 44.947824660163931 ], [ -93.315264337339954, 44.947820999263627 ], [ -93.31529364866357, 44.947820999263627 ], [ -93.315335891453415, 44.947822829713814 ], [ -93.31535571970177, 44.947808186110741 ], [ -93.315416066544472, 44.947799644007226 ], [ -93.315423183466379, 44.947783637124722 ], [ -93.315393652002896, 44.947723375169453 ], [ -93.315392789905118, 44.947697138665845 ], [ -93.315360030190533, 44.947658699115642 ], [ -93.315321235791657, 44.947625750909246 ], [ -93.315304855934343, 44.947592192531445 ], [ -93.31529278656582, 44.947570227037183 ], [ -93.315285889783794, 44.947543990463572 ], [ -93.315277268806241, 44.94751409295808 ], [ -93.315322959987142, 44.947486025897959 ], [ -93.31535835558968, 44.947437231607857 ], [ -93.31533502935568, 44.94739206216196 ], [ -93.31529364866357, 44.947372537210512 ], [ -93.31523761230963, 44.947363384887232 ], [ -93.315206576790516, 44.947340809150226 ], [ -93.315177265466914, 44.947312131849905 ], [ -93.315194345639625, 44.947297160701964 ], [ -93.315201404203989, 44.947271861574173 ], [ -93.315186748542217, 44.947216947516281 ], [ -93.315142781556801, 44.947205964698398 ], [ -93.315119504917462, 44.947182778742636 ], [ -93.315111746037687, 44.947158982620401 ], [ -93.315123815406238, 44.947126034127187 ], [ -93.315129850090528, 44.947096746561783 ], [ -93.315110883939937, 44.947063798032843 ], [ -93.315144125033271, 44.947047196421458 ], [ -93.31517812756465, 44.94704610344467 ], [ -93.315201404203989, 44.94701132441066 ], [ -93.31521519776804, 44.947025968217027 ], [ -93.315230776551317, 44.947017873984279 ], [ -93.315260026851206, 44.946988748535212 ], [ -93.315273820415214, 44.946950308510601 ], [ -93.315312614814133, 44.946946037395172 ], [ -93.315338879674187, 44.946933650970934 ], [ -93.315339339844471, 44.946903326223364 ], [ -93.315307011178703, 44.946887462065725 ], [ -93.315322528938239, 44.946835293362632 ], [ -93.315318649498323, 44.946816073302159 ], [ -93.315307011178703, 44.946760243566231 ], [ -93.315291493419139, 44.946754752113861 ], [ -93.3152190772079, 44.94678129412879 ], [ -93.315123384357335, 44.946746514934333 ], [ -93.315018639480371, 44.946724549116446 ], [ -93.314999242280905, 44.946720888145983 ], [ -93.314997949134309, 44.946692515616967 ], [ -93.314978551934857, 44.9466742107521 ], [ -93.314866048178104, 44.946700752804247 ], [ -93.314763889594403, 44.946677871725548 ], [ -93.31471345687585, 44.946593669277334 ], [ -93.314537588934272, 44.946582686340179 ], [ -93.314431550910697, 44.946584516829866 ], [ -93.314312581420779, 44.946591838787953 ], [ -93.314245337796081, 44.946591838787953 ], [ -93.314150938092141, 44.946588177809019 ], [ -93.314007398816301, 44.946596415011285 ], [ -93.313856100660672, 44.946609228434667 ], [ -93.313703509358419, 44.946634855272862 ], [ -93.313610402801132, 44.94664766868766 ], [ -93.313636265733706, 44.946604652212365 ], [ -93.313644024613495, 44.946584516829866 ], [ -93.313640145173594, 44.946559805214413 ], [ -93.313695750478644, 44.946550652761545 ], [ -93.313783684449447, 44.94651404293549 ], [ -93.313835410314582, 44.946486585550637 ], [ -93.313874227602966, 44.946489768768657 ], [ -93.313960845537622, 44.946460958646234 ], [ -93.314041020628679, 44.946438992719095 ], [ -93.314141886065741, 44.946415196288527 ], [ -93.314206543397205, 44.946394145591711 ], [ -93.314218828290166, 44.946404213317237 ], [ -93.314249217235968, 44.946401925197954 ], [ -93.31426344184888, 44.946391399848075 ], [ -93.314334564913509, 44.946390942224134 ], [ -93.314394049658461, 44.946368976270193 ], [ -93.314412315354616, 44.946376984691859 ], [ -93.314467112442983, 44.946379272812138 ], [ -93.314500087682035, 44.946372408451047 ], [ -93.314561966417145, 44.946384814727637 ], [ -93.314615177732037, 44.946415882724139 ], [ -93.314667550170512, 44.946396204899344 ], [ -93.314693592660717, 44.946401628971174 ], [ -93.314712810302566, 44.94641450985285 ], [ -93.314736733515176, 44.946413594605325 ], [ -93.314749018408179, 44.946439679154409 ], [ -93.314785592535699, 44.946446471464668 ], [ -93.314811736019692, 44.946459814587726 ], [ -93.31486216873823, 44.946458441717489 ], [ -93.314889324817429, 44.946442882519278 ], [ -93.314939110962669, 44.946441967272207 ], [ -93.314957861588795, 44.946425035198502 ], [ -93.314976057307064, 44.946429420926513 ], [ -93.314992776547768, 44.946427323316854 ], [ -93.315034157239907, 44.946472628041597 ], [ -93.315069302586991, 44.946479945375849 ], [ -93.315100754291322, 44.946497339694581 ], [ -93.315143428130071, 44.94649596682526 ], [ -93.315167351342708, 44.946521136091114 ], [ -93.315219723781183, 44.946518390353553 ], [ -93.315235888114046, 44.946534864776915 ], [ -93.315279855099462, 44.946533034285665 ], [ -93.315336106977824, 44.946566440741805 ], [ -93.315382013683163, 44.946598931933934 ], [ -93.315433760669521, 44.946604558923276 ], [ -93.315457662760949, 44.946594355710808 ], [ -93.315501499366491, 44.946600326671295 ], [ -93.315534604985416, 44.94663279597377 ], [ -93.315561655132825, 44.946634536795408 ], [ -93.315590210290466, 44.94664606701096 ], [ -93.315628392139914, 44.946647414590565 ], [ -93.315643229302268, 44.946631423107661 ], [ -93.315667152514905, 44.946639660303724 ], [ -93.315685903141031, 44.946650185608078 ], [ -93.315728576979765, 44.946669863345818 ], [ -93.315789344591707, 44.946666118805858 ], [ -93.315826209550309, 44.946709676422451 ], [ -93.315868883389072, 44.946707388315353 ], [ -93.315898625761534, 44.946716540743218 ], [ -93.315932894147181, 44.946696405399983 ], [ -93.315912203801133, 44.94666940572408 ], [ -93.315923727174606, 44.946657838062436 ] ] ] ] } }
]
}
