{
"type": "FeatureCollection",
"name": "merrypath",
"crs": { "type": "name", "properties": { "name": "urn:ogc:def:crs:OGC:1.3:CRS84" } },
"features": [
{ "type": "Feature", "properties": { "id": 9 }, "geometry": { "type": "MultiLineString", "coordinates": [ [ [ -93.302417878282739, 44.942175903092291 ], [ -93.302524492130033, 44.942183013626732 ], [ -93.302581363976017, 44.94219366248484 ], [ -93.30260021104128, 44.942266683172882 ], [ -93.302611122500068, 44.942304597724288 ], [ -93.30263096151613, 44.942307406208563 ], [ -93.302663695892591, 44.942299682876438 ], [ -93.302672623449823, 44.94231161893476 ], [ -93.302684526859423, 44.942345320733068 ], [ -93.30268551881025, 44.94237200130938 ], [ -93.302711309531105, 44.942384639472778 ], [ -93.302735116350362, 44.94246117051393 ], [ -93.302767850726823, 44.942507510360819 ], [ -93.302812488512913, 44.942536999334791 ], [ -93.302931522609157, 44.942568594647263 ], [ -93.303086266934287, 44.942587551826406 ], [ -93.303348141946003, 44.942598083589893 ], [ -93.303520741385569, 44.94260018994234 ], [ -93.303717147644363, 44.942635997922423 ], [ -93.303755833725646, 44.942688656676083 ], [ -93.303842133445414, 44.94285505802015 ], [ -93.303910578050747, 44.943072010946935 ], [ -93.303946288279633, 44.943145732628643 ], [ -93.304024274448025, 44.943223112457673 ], [ -93.304252785079001, 44.94325763044084 ], [ -93.304505679466331, 44.943260589124151 ], [ -93.304539816725224, 44.943331597477737 ], [ -93.304605304528025, 44.943260096010277 ], [ -93.304664239580504, 44.943265427954294 ], [ -93.304826083660231, 44.943271277752572 ], [ -93.304936594327557, 44.943276270529374 ], [ -93.305095306456138, 44.943276270529374 ], [ -93.305203465832648, 44.943277934788213 ], [ -93.305311625209185, 44.943274606270485 ], [ -93.305408028131737, 44.943284591823094 ], [ -93.305496201536471, 44.943292913115592 ], [ -93.305570267196501, 44.943309555696999 ], [ -93.305681953509207, 44.943332855302856 ], [ -93.305760721750787, 44.943336183817202 ], [ -93.305835963056211, 44.943351162129396 ], [ -93.30593824420572, 44.943368636822008 ], [ -93.305974689213031, 44.943367804693899 ], [ -93.305979391794608, 44.943357819155779 ], [ -93.30596763534065, 44.943349497872667 ], [ -93.305935892914945, 44.943342840845318 ], [ -93.305843016928563, 44.94333035891696 ], [ -93.305780707722548, 44.94332370188738 ], [ -93.305725452388899, 44.943289584598745 ], [ -93.30567725092763, 44.943251306640988 ], [ -93.305645508501911, 44.943213860788063 ], [ -93.305633752047939, 44.943167261470315 ], [ -93.305645508501911, 44.943129815562557 ], [ -93.30567725092763, 44.943104851610485 ], [ -93.305728979325096, 44.943082384044352 ], [ -93.305808923212098, 44.943066573529578 ], [ -93.305902974843846, 44.943046602346797 ], [ -93.306019363738145, 44.943019141959113 ], [ -93.306138103923246, 44.942986688756754 ], [ -93.30620158877467, 44.94297670315234 ], [ -93.306260371044516, 44.942969213947883 ], [ -93.306329734122926, 44.942973374617146 ], [ -93.306367354775645, 44.942975038884761 ], [ -93.306423785754689, 44.942982112021603 ], [ -93.306433778740541, 44.942984192355809 ], [ -93.306444359549118, 44.942977119219229 ], [ -93.306454352534985, 44.942972334449856 ], [ -93.30646728463438, 44.942969838048299 ], [ -93.306478159354299, 44.942967757713568 ], [ -93.306481980201852, 44.942967133613138 ], [ -93.306459936850644, 44.942925942969694 ], [ -93.30645229515558, 44.94289889859175 ], [ -93.306447592573974, 44.942878511283041 ], [ -93.306451119510172, 44.942863948915232 ], [ -93.306461700318721, 44.942849386543749 ], [ -93.306479334999693, 44.942837736643902 ], [ -93.306498733148743, 44.942831079557202 ], [ -93.306516955652384, 44.942827334945605 ], [ -93.306545758964631, 44.942823174265754 ], [ -93.306577501390336, 44.942822342129745 ], [ -93.306628054142408, 44.942823590333759 ], [ -93.306486388872074, 44.942808611883919 ], [ -93.306468754191116, 44.942803619066446 ], [ -93.306455234269052, 44.942792385225516 ], [ -93.306447004751277, 44.942778238904211 ], [ -93.306445829105854, 44.942764508647826 ], [ -93.306459349027961, 44.94273538385071 ], [ -93.30647051765925, 44.942719157171624 ], [ -93.306482861935891, 44.942700850143552 ], [ -93.306492267099088, 44.942678798488345 ], [ -93.306497557503377, 44.942659243239845 ], [ -93.306508726134624, 44.942628038042294 ], [ -93.306519894765913, 44.942608066706946 ], [ -93.306534002510674, 44.942597248897407 ], [ -93.306556339773209, 44.942586015016118 ], [ -93.306575150099562, 44.942576445411781 ], [ -93.306588670021625, 44.94256812401543 ], [ -93.306596311716717, 44.942558138338207 ], [ -93.306597928229166, 44.942543991959177 ], [ -93.306595136071351, 44.942535566540592 ], [ -93.306582203971956, 44.942524852734927 ], [ -93.306544583319251, 44.942510290277426 ], [ -93.306510489602715, 44.942505713504296 ], [ -93.306474044595404, 44.942511954558469 ], [ -93.306356480055754, 44.942514034909699 ], [ -93.30633708190669, 44.942511538488212 ], [ -93.306306515126394, 44.942506441627323 ], [ -93.306260664955929, 44.942498120220819 ], [ -93.306196004459082, 44.942501448783574 ], [ -93.306130168316869, 44.94250560948673 ], [ -93.306110654701627, 44.942505177860205 ], [ -93.306061881684883, 44.942502551035027 ], [ -93.305990681408062, 44.942497610182208 ], [ -93.305944610640694, 44.942490692987541 ], [ -93.305641660443257, 44.942386934967573 ], [ -93.305628397646615, 44.942371618291602 ], [ -93.305627699604685, 44.942360254303559 ], [ -93.305635378065901, 44.942340984927391 ], [ -93.305646546736781, 44.942333079540425 ], [ -93.305675864497815, 44.942314304242025 ], [ -93.305710068552372, 44.942296517111558 ], [ -93.305741480439195, 44.942287129457142 ], [ -93.305798021835486, 44.94226687188187 ], [ -93.305839206309344, 44.94225204926127 ], [ -93.305890861412124, 44.942235744374209 ], [ -93.305871316238083, 44.94220313458618 ], [ -93.305825245470714, 44.942167560250851 ], [ -93.305787551206535, 44.942130009539646 ], [ -93.305773590367949, 44.942099376046514 ], [ -93.305758233445488, 44.942068742537046 ], [ -93.305728915684455, 44.94203119176121 ], [ -93.305681448833241, 44.942001546394515 ], [ -93.305635378065901, 44.941977830090131 ], [ -93.305582326879232, 44.941963995574717 ], [ -93.305537652195753, 44.941953125595987 ], [ -93.30544132240945, 44.94192249200848 ], [ -93.305335220036156, 44.941896799309575 ], [ -93.30528077276567, 44.941886917499247 ], [ -93.305079736689947, 44.94186320114752 ], [ -93.304942920471746, 44.941847390240923 ], [ -93.304930355717019, 44.941902728394957 ], [ -93.304926167465453, 44.941948184695882 ], [ -93.304908018375286, 44.941985735526011 ], [ -93.304889869285105, 44.942014392721958 ], [ -93.304851127958116, 44.942042926381284 ], [ -93.304837021290453, 44.942045439117074 ], [ -93.304780527401192, 44.942050842846463 ], [ -93.304742906748501, 44.942055835729398 ], [ -93.304687651414838, 44.942064573273505 ], [ -93.304632396081175, 44.94207539118343 ], [ -93.304592424137681, 44.942077055477078 ], [ -93.304543634853701, 44.942074559036577 ], [ -93.30449602121513, 44.942071230449081 ], [ -93.304458988385107, 44.942063741126518 ], [ -93.304441941526861, 44.942055003582269 ], [ -93.304426070314008, 44.942043353521228 ], [ -93.304409611278444, 44.942023798056283 ], [ -93.304338484731929, 44.941931429599954 ], [ -93.30431673529209, 44.941906465126785 ], [ -93.304299688433844, 44.941890238213411 ], [ -93.304281465930202, 44.941876507744659 ], [ -93.304267946008125, 44.941863609422533 ], [ -93.304262655603836, 44.941850295022469 ], [ -93.304257953022258, 44.941840309220396 ], [ -93.304141564127946, 44.941762919195412 ], [ -93.304083957503508, 44.941734626041971 ], [ -93.304012830956992, 44.941703004265733 ], [ -93.303888506456246, 44.941649330421455 ], [ -93.303805329544417, 44.941620413096963 ], [ -93.303775938409487, 44.941608762947723 ], [ -93.303750074210768, 44.94158671087304 ], [ -93.303701872749485, 44.941532620842708 ], [ -93.303672481614569, 44.941495173868759 ], [ -93.303661900805992, 44.941484771927222 ], [ -93.303641914834245, 44.941474786061576 ], [ -93.303620753217103, 44.941470209205903 ], [ -93.303571963933123, 44.94146729666118 ], [ -93.303504364322819, 44.941466048427699 ], [ -93.303482614882952, 44.941467712739019 ], [ -93.303363286875168, 44.941489348781737 ], [ -93.303319787995505, 44.941497254256852 ], [ -93.303290396860575, 44.94149975072245 ], [ -93.303264532661842, 44.941495173868759 ], [ -93.303240431931201, 44.941488516626393 ], [ -93.303186940065657, 44.941471457439292 ], [ -93.303154021994544, 44.941466048427699 ], [ -93.303097591015458, 44.941465216272029 ], [ -93.303071726816754, 44.941462303727064 ], [ -93.303038220922929, 44.941456894714591 ], [ -93.302992958575146, 44.9414444123762 ], [ -93.302931237191814, 44.94142402455099 ], [ -93.302859522822615, 44.941399059857183 ], [ -93.302824253460699, 44.941384081035693 ], [ -93.302784281517191, 44.941365357503336 ], [ -93.302762532077367, 44.941355371616922 ], [ -93.302750187800697, 44.941352875145036 ], [ -93.302719621020373, 44.941348714358334 ], [ -93.302709040211795, 44.941344553571334 ], [ -93.30264496753766, 44.94130544215875 ], [ -93.302618515516215, 44.941293375866522 ], [ -93.302596766076391, 44.941290047233721 ], [ -93.302566199296081, 44.941286302521618 ], [ -93.302527402997967, 44.94128671860075 ], [ -93.302382798614147, 44.941286302521618 ], [ -93.302241133343813, 44.941272571908435 ], [ -93.302145906066656, 44.941269243274427 ], [ -93.302036571044752, 44.941272987987666 ], [ -93.301926648200123, 44.94127798093826 ], [ -93.301858460767122, 44.941276316621433 ], [ -93.301812022773944, 44.941271739749943 ], [ -93.301794148584918, 44.941269592759177 ], [ -93.301736639379385, 44.941263248303791 ], [ -93.301706623576422, 44.941252872288402 ], [ -93.301687776444325, 44.941235578925252 ], [ -93.301686380360465, 44.941151582515872 ], [ -93.301632631131909, 44.941149112031383 ], [ -93.301589614298038, 44.941162329122179 ], [ -93.301556108285439, 44.941156585246659 ], [ -93.301549040610908, 44.941153898595012 ], [ -93.301474044731137, 44.941132961236434 ], [ -93.301442436520048, 44.941120130152306 ], [ -93.301396365752709, 44.941138658792731 ], [ -93.301352912642614, 44.941131988482866 ], [ -93.301324118413007, 44.941146070247221 ], [ -93.301302653623679, 44.941146440819928 ], [ -93.301283806491597, 44.941153111128109 ], [ -93.301259724045011, 44.941147181965334 ], [ -93.301237735724257, 44.941137917647239 ], [ -93.301223076843726, 44.941133841346797 ], [ -93.301216270934916, 44.941131617910067 ], [ -93.301211559151881, 44.941126429890723 ], [ -93.301206323837434, 44.941119018433682 ], [ -93.301131982371942, 44.941123465308024 ], [ -93.301083293947357, 44.941119018433682 ], [ -93.301035652585668, 44.941110865829842 ], [ -93.301011046607655, 44.941099007494927 ], [ -93.300984870035322, 44.941083443426614 ], [ -93.300968117029029, 44.941067508780876 ], [ -93.300952934617058, 44.941048238970829 ], [ -93.300960264057309, 44.941027486860463 ], [ -93.300966022903239, 44.9410115521992 ], [ -93.300990628881252, 44.940982647453517 ], [ -93.301022040768075, 44.940937066863462 ], [ -93.301036176117137, 44.94092113217711 ], [ -93.301051882060534, 44.940907791506056 ], [ -93.30106339975238, 44.940909644377221 ], [ -93.301076488038547, 44.940910385525676 ], [ -93.301105282268153, 44.940911497248329 ], [ -93.301136170623522, 44.940910014951442 ], [ -93.301162870727325, 44.94090890322876 ], [ -93.301191141425463, 44.940905197486323 ] ] ] } }
]
}
