{
"type": "FeatureCollection",
"name": "near_harad",
"crs": { "type": "name", "properties": { "name": "urn:ogc:def:crs:OGC:1.3:CRS84" } },
"features": [
{ "type": "Feature", "properties": { "id": 1 }, "geometry": { "type": "MultiPolygon", "coordinates": [ [ [ [ -93.292563322796056, 44.936398936271374 ], [ -93.302396602716755, 44.936420051211023 ], [ -93.30238620201753, 44.937424289730068 ], [ -93.302355527452008, 44.937421646302447 ], [ -93.302314259954755, 44.937416556266207 ], [ -93.302280808271334, 44.937419211937332 ], [ -93.302225314428824, 44.937431574872555 ], [ -93.302215624383621, 44.937431826373597 ], [ -93.302214215685538, 44.937429786897859 ], [ -93.302166228439958, 44.937430719844208 ], [ -93.302124491993851, 44.937439129467002 ], [ -93.302093385054619, 44.937438354896535 ], [ -93.302010224794955, 44.937459600254186 ], [ -93.301975522581358, 44.937471550764414 ], [ -93.301934880349194, 44.93749301741542 ], [ -93.301901413740879, 44.937493480223196 ], [ -93.301863600126666, 44.937497664833657 ], [ -93.301815454713179, 44.93751514797507 ], [ -93.301762307178805, 44.937516033197269 ], [ -93.301721664946641, 44.937527541084734 ], [ -93.301655074212448, 44.93754480291161 ], [ -93.301616151459314, 44.937564941703066 ], [ -93.301602864575699, 44.937564609745024 ], [ -93.301584106622428, 44.937571580863533 ], [ -93.301557845487807, 44.93759149834036 ], [ -93.301555344427342, 44.937605661875224 ], [ -93.301539712799595, 44.937616727134412 ], [ -93.30152513068218, 44.937634392575148 ], [ -93.301495318976805, 44.93764062808696 ], [ -93.30147593575839, 44.937632218493675 ], [ -93.301442796707519, 44.937616727134412 ], [ -93.301414659777592, 44.937608538842809 ], [ -93.301364951201336, 44.937609424063581 ], [ -93.301334000578407, 44.937609424063581 ], [ -93.301165804263803, 44.937607653622024 ], [ -93.301127931158646, 44.93763104542564 ], [ -93.301102588517978, 44.937634787295515 ], [ -93.301079517678602, 44.937638193731132 ], [ -93.301021993288472, 44.937636423290463 ], [ -93.300984477381846, 44.937625358035064 ], [ -93.300960092042573, 44.937602342297033 ], [ -93.300934456173039, 44.937591719645603 ], [ -93.300808777885905, 44.937575343054128 ], [ -93.300777514630397, 44.93756073690102 ], [ -93.300739373458683, 44.937554097739302 ], [ -93.300676846947695, 44.937533295027599 ], [ -93.300619967631349, 44.937507848942346 ], [ -93.300594937218264, 44.937508951419204 ], [ -93.300556170781448, 44.937497443528009 ], [ -93.300513027488847, 44.937482837355091 ], [ -93.300410484010797, 44.937447871047283 ], [ -93.300327636383685, 44.937440567954987 ], [ -93.300300125477449, 44.937434229859981 ], [ -93.300270424626092, 44.937434371391099 ], [ -93.300250103510024, 44.937440346649154 ], [ -93.300187576999008, 44.937445436683291 ], [ -93.300149505344706, 44.937461565283257 ], [ -93.300120048367091, 44.937462034617567 ], [ -93.300113099407753, 44.93745821914149 ], [ -93.300106006559872, 44.937458320642925 ], [ -93.300047517614331, 44.937459157642643 ], [ -93.300015003828605, 44.93746314114636 ], [ -93.29995935523381, 44.937473763821572 ], [ -93.299921214062095, 44.937488960145217 ], [ -93.299883698155469, 44.937511090706415 ], [ -93.299791158919192, 44.937530860667216 ], [ -93.299740720866993, 44.937550630621203 ], [ -93.299717377636199, 44.937557712394124 ], [ -93.299709874454905, 44.937567744904243 ], [ -93.299674025921917, 44.937583088739871 ], [ -93.299608164663653, 44.937602563602269 ], [ -93.299550640273523, 44.937620858163932 ], [ -93.299513124366911, 44.937642693600885 ], [ -93.29949394957022, 44.937667479762524 ], [ -93.299406412454815, 44.937702888546276 ], [ -93.299351389125121, 44.937733576141191 ], [ -93.299307203724013, 44.937789639974191 ], [ -93.299287473136133, 44.937835277860977 ], [ -93.299284138388899, 44.937873440548799 ], [ -93.299288584718553, 44.937892325168463 ], [ -93.299284694180102, 44.937921438944912 ], [ -93.299271910982284, 44.937962355578769 ], [ -93.299244677213082, 44.937979666453536 ], [ -93.299241342465791, 44.937989502175526 ], [ -93.299179429703571, 44.938034882856321 ], [ -93.299160752740491, 44.938038287331629 ], [ -93.299139973157352, 44.938049505343265 ], [ -93.299096280960271, 44.938057565325451 ], [ -93.299074605103115, 44.938074089315002 ], [ -93.299035699718502, 44.938096514721778 ], [ -93.298997350125077, 44.938085892161759 ], [ -93.29895993685065, 44.938085740784317 ], [ -93.29891453723495, 44.938094154153056 ], [ -93.298887859256894, 44.938116186124013 ], [ -93.298853400201963, 44.938148447209109 ], [ -93.298817829564584, 44.938175200290317 ], [ -93.29877892417997, 44.938198019085021 ], [ -93.298755580949162, 44.938224772143116 ], [ -93.298737795630501, 44.93827591766069 ], [ -93.298662208026087, 44.938415190608374 ], [ -93.298652203784314, 44.938468696509759 ], [ -93.29861774472937, 44.938493875740214 ], [ -93.298513379491226, 44.938540562200821 ], [ -93.298469904267776, 44.938569238509849 ], [ -93.298412596018679, 44.938604209599035 ], [ -93.298350347403286, 44.938637082403467 ], [ -93.298326633645047, 44.938658065034744 ], [ -93.298263638896699, 44.938709071425116 ], [ -93.298210041000317, 44.938725209403309 ], [ -93.298177434582726, 44.938694434910801 ], [ -93.298125066699939, 44.938663660401787 ], [ -93.298085873127263, 44.93865433478976 ], [ -93.297998263964857, 44.938656199912288 ], [ -93.297808553898889, 44.938654801070413 ], [ -93.297753221796313, 44.938652003386508 ], [ -93.297608963100316, 44.938650138263853 ], [ -93.297485344156811, 44.938662106133222 ], [ -93.297395758847827, 44.93867889223155 ], [ -93.297249963148971, 44.938685109303755 ], [ -93.297114706898242, 44.938686352718115 ], [ -93.297037417612103, 44.938673918573308 ], [ -93.29682135892584, 44.938671431744012 ], [ -93.296607056814267, 44.938660241010901 ], [ -93.296561385872451, 44.938723655136407 ], [ -93.296292629945654, 44.938705003930309 ], [ -93.296181965740502, 44.938697543446146 ], [ -93.295948341307408, 44.938700030274326 ], [ -93.295830650803495, 44.93869878686025 ], [ -93.295560138301965, 44.938705003930309 ], [ -93.294899666220417, 44.938078319883012 ], [ -93.292559908739946, 44.93808826730227 ], [ -93.292563322796056, 44.936398936271374 ] ] ] ] } }
]
}
