{
"type": "FeatureCollection",
"name": "north_ithilien",
"crs": { "type": "name", "properties": { "name": "urn:ogc:def:crs:OGC:1.3:CRS84" } },
"features": [
{ "type": "Feature", "properties": { "id": 1 }, "geometry": { "type": "MultiPolygon", "coordinates": [ [ [ [ -93.300430027839184, 44.940838422946761 ], [ -93.300511738046069, 44.940828988465086 ], [ -93.300548826366892, 44.940828168075292 ], [ -93.300573745082488, 44.94082488651604 ], [ -93.300580119637615, 44.940817092812061 ], [ -93.300603299838144, 44.940817913202004 ], [ -93.30085016897381, 44.940848267621661 ], [ -93.300822352733192, 44.940887236109823 ], [ -93.300804388077751, 44.940913078355834 ], [ -93.300789900452429, 44.940936869619634 ], [ -93.300781787382277, 44.94100168025377 ], [ -93.300783525897316, 44.941058286950351 ], [ -93.300802649562755, 44.941114893591106 ], [ -93.30080786510787, 44.941135813422484 ], [ -93.300787002927393, 44.941277329728628 ], [ -93.300793956987533, 44.941337627874844 ], [ -93.300840896893632, 44.941385620231664 ], [ -93.300929561160672, 44.941439765406585 ], [ -93.300941730765928, 44.94143607369174 ], [ -93.300988236043253, 44.941459146905657 ], [ -93.301042564638237, 44.941476067256616 ], [ -93.301164260691039, 44.94150683151836 ], [ -93.301279002683685, 44.941531442915881 ], [ -93.301355497345426, 44.941547440318608 ], [ -93.301412868341743, 44.941546209749312 ], [ -93.301492840033575, 44.941557284871912 ], [ -93.30146850082302, 44.941584972669041 ], [ -93.301444161612466, 44.941606507613145 ], [ -93.301435469037273, 44.941619428575713 ], [ -93.301405045024055, 44.941644655208563 ], [ -93.301385052101111, 44.941653884461708 ], [ -93.301381575071019, 44.941671727680259 ], [ -93.301367666950711, 44.941684033344984 ], [ -93.301359843633037, 44.941727718433491 ], [ -93.301365059178138, 44.94175356030118 ], [ -93.301358974375518, 44.941773249335434 ], [ -93.301352889572868, 44.94178309385002 ], [ -93.301335504422468, 44.941785554978395 ], [ -93.301313338355698, 44.9417769410286 ], [ -93.301296387834057, 44.941767711795229 ], [ -93.301264659934589, 44.941767096512955 ], [ -93.301242493867818, 44.941773249335434 ], [ -93.30121250448336, 44.941775710464242 ], [ -93.301197292476786, 44.941786785542568 ], [ -93.301176430296294, 44.941786170260499 ], [ -93.301155133487072, 44.94178586261944 ], [ -93.30113905222295, 44.941797552977775 ], [ -93.301107758952242, 44.941823087173184 ], [ -93.301100370263313, 44.941836008087009 ], [ -93.301067338477552, 44.941829239989659 ], [ -93.301049518698406, 44.941825240659028 ], [ -93.301040826123199, 44.941821856609813 ], [ -93.301033872063044, 44.941823702454855 ], [ -93.301025179487837, 44.94184123797988 ], [ -93.301025179487894, 44.941873232608231 ], [ -93.301009532852532, 44.94190153553383 ], [ -93.301010402110037, 44.941926146762157 ], [ -93.301013009882581, 44.941943989896089 ], [ -93.30102431023036, 44.941969216386326 ], [ -93.301044303153319, 44.941994442865472 ], [ -93.301017356170206, 44.942001210943353 ], [ -93.300995624732195, 44.941996903984801 ], [ -93.3009791088393, 44.941998749824222 ], [ -93.30095998517389, 44.9420104401392 ], [ -93.300934450734275, 44.942024822299729 ], [ -93.300923693672459, 44.942037973897925 ], [ -93.300916359312154, 44.942036070377306 ], [ -93.300898023411335, 44.942055278627791 ], [ -93.300888733221569, 44.942070679833009 ], [ -93.300872597628867, 44.942095079486755 ], [ -93.300874797936956, 44.942124151401067 ], [ -93.300881398861236, 44.942139725634824 ], [ -93.300894600709839, 44.942143619192599 ], [ -93.300896801017927, 44.942169835808109 ], [ -93.300720409652101, 44.942190082295056 ], [ -93.300625062967882, 44.942191639716832 ], [ -93.300462973604681, 44.942197869403522 ], [ -93.300448304884014, 44.942183852607521 ], [ -93.300448205990449, 44.942176572831436 ], [ -93.300443170831798, 44.942173469793467 ], [ -93.300451972064167, 44.942162567836696 ], [ -93.300460773296564, 44.942145955327142 ], [ -93.300473241709128, 44.942152963730202 ], [ -93.30049597822611, 44.942139725634824 ], [ -93.300526049103482, 44.942137389500033 ], [ -93.300592058346382, 44.942124930112854 ], [ -93.30061626173547, 44.942117402565117 ], [ -93.300632718206316, 44.942086903008196 ], [ -93.300691438928823, 44.942062373565555 ], [ -93.300698039853103, 44.942048356736471 ], [ -93.300646332612814, 44.942018765641635 ], [ -93.300696939699051, 44.941994625526647 ], [ -93.300702853026934, 44.941958999370655 ], [ -93.300773400405447, 44.941942062337944 ], [ -93.3007453464772, 44.941925709336097 ], [ -93.30069418931393, 44.941919868977166 ], [ -93.300674386541047, 44.941881030575132 ], [ -93.300678924676504, 44.941838979944819 ], [ -93.300626529839903, 44.941805689840635 ], [ -93.300752359959205, 44.941750790328406 ], [ -93.300810118046769, 44.941734437272068 ], [ -93.300789902716147, 44.941707571526564 ], [ -93.300795678524935, 44.941677201538226 ], [ -93.300721418126614, 44.941654424036436 ], [ -93.300681812580805, 44.941610621122933 ], [ -93.300685938158551, 44.941582587240816 ], [ -93.300615803337934, 44.941544040630475 ], [ -93.300585274063067, 44.94151571469579 ], [ -93.300640556803984, 44.941476876020353 ], [ -93.300549794094962, 44.941419055988703 ], [ -93.300546493632808, 44.941371164605272 ], [ -93.30052421551332, 44.941339626355337 ], [ -93.300529166206587, 44.941283266291485 ], [ -93.300585274063067, 44.941265160974254 ], [ -93.300434277919877, 44.941228366279709 ], [ -93.300415300262543, 44.941218437548571 ], [ -93.300416094367833, 44.941197947370753 ], [ -93.300487085314202, 44.941160617256656 ], [ -93.30044500442186, 44.941144264032225 ], [ -93.300555569903736, 44.941106301171814 ], [ -93.300488735545301, 44.941061329750852 ], [ -93.300504412740466, 44.941044976498127 ], [ -93.300444179306325, 44.941013438069035 ], [ -93.300512663895859, 44.940981315577119 ], [ -93.300569596867902, 44.940936344058258 ], [ -93.300532466668741, 44.940894876782387 ], [ -93.30049286112299, 44.940886116086467 ], [ -93.300430027839184, 44.940838422946761 ] ] ] ] } }
]
}
