{
"type": "FeatureCollection",
"name": "old_forest_road",
"crs": { "type": "name", "properties": { "name": "urn:ogc:def:crs:OGC:1.3:CRS84" } },
"features": [
{ "type": "Feature", "properties": { "id": 1 }, "geometry": { "type": "MultiLineString", "coordinates": [ [ [ -93.304377380875451, 44.946866248921523 ], [ -93.304343229040313, 44.946870643717475 ], [ -93.304302867780635, 44.946867347620554 ], [ -93.304262506520928, 44.946858558027834 ], [ -93.30423766882268, 44.946836584040135 ], [ -93.304215935836694, 44.94680582044321 ], [ -93.304192650494542, 44.946791537339053 ], [ -93.30414142274185, 44.946783846435331 ], [ -93.30409640441377, 44.946779451632743 ], [ -93.304063804934756, 44.946768464624803 ], [ -93.304020338962786, 44.946759675016942 ], [ -93.303998605976801, 44.946758576315865 ], [ -93.303964454141692, 44.946783846435331 ], [ -93.30394582586797, 44.946827794442683 ], [ -93.303933407018846, 44.946851965832401 ], [ -93.303907016964445, 44.946871742416405 ], [ -93.303872865129293, 44.946884926801964 ], [ -93.303821637376629, 44.946892617692129 ], [ -93.303776619048506, 44.946886574849934 ], [ -93.303759543130923, 44.946882729404578 ], [ -93.303612069297444, 44.946923930591481 ], [ -93.303593441023764, 44.946925029289396 ], [ -93.303559289188613, 44.946930522778651 ], [ -93.303484776093811, 44.946959088914269 ], [ -93.303431219806896, 44.946986006990592 ], [ -93.303347392575219, 44.947013474402404 ], [ -93.303281417439209, 44.947022263971405 ], [ -93.303182842824171, 44.947025010711435 ], [ -93.303141705386437, 44.947024461363448 ], [ -93.303122300934675, 44.947018967883182 ], [ -93.303111434441647, 44.947009079617395 ], [ -93.303053997264385, 44.94699864200166 ], [ -93.302990350662569, 44.946993697867235 ], [ -93.302951541759043, 44.946993697867235 ], [ -93.302916613745836, 44.946998092653416 ], [ -93.302891776047574, 44.9469947965638 ], [ -93.302869266883491, 44.946993148518921 ], [ -93.302828905623826, 44.946994247215507 ], [ -93.302798634679036, 44.946994247215507 ], [ -93.302780782583412, 44.9469947965638 ], [ -93.302731883364942, 44.947003586135672 ], [ -93.302709374200887, 44.947000290046375 ], [ -93.302686088858763, 44.946998092653416 ], [ -93.302647279955195, 44.947006332876597 ], [ -93.302578976284963, 44.947001938091049 ], [ -93.302526972354201, 44.947000290046375 ], [ -93.302496701409453, 44.94699864200166 ], [ -93.302465654286578, 44.947004684832059 ], [ -93.302443921300608, 44.946994796563793 ], [ -93.302416755068123, 44.946992599170613 ], [ -93.302384155589138, 44.94698820438402 ], [ -93.302368632027736, 44.946987105687313 ], [ -93.302328270768029, 44.946994247215507 ], [ -93.302300328357489, 44.946994247215507 ], [ -93.302277819193421, 44.946989303080706 ], [ -93.302245219714436, 44.946997543305145 ], [ -93.302142764209052, 44.947004135483866 ], [ -93.302094641168637, 44.947010727661798 ], [ -93.302058160799319, 44.94701622114286 ], [ -93.302035651635236, 44.947020615927315 ], [ -93.301996066553642, 44.947019517231226 ], [ -93.301954929115865, 44.947031602886995 ], [ -93.301850921254342, 44.947032152234918 ], [ -93.301805902926247, 44.947026658755405 ], [ -93.301765541666541, 44.947032701582849 ], [ -93.301736823077931, 44.94703874440966 ], [ -93.301695685640155, 44.947028306799311 ], [ -93.301641353175185, 44.947037096366039 ], [ -93.301609529874298, 44.947035448322382 ], [ -93.301583915997966, 44.947026109407425 ], [ -93.301519493218038, 44.94702336266743 ], [ -93.301492326985567, 44.947011277009942 ], [ -93.301478355780304, 44.947013474402404 ], [ -93.301458175150458, 44.947024461363448 ], [ -93.301431785096028, 44.947033800278675 ], [ -93.301403842685488, 44.94703874440966 ], [ -93.300778243160266, 44.947046984627015 ], [ -93.300743315147088, 44.947051928756856 ], [ -93.300698296818965, 44.947050830061372 ], [ -93.30064474053205, 44.947045885931438 ], [ -93.300616021943455, 44.947042589844557 ] ] ] } }
]
}
