{
"type": "FeatureCollection",
"name": "pippinpath",
"crs": { "type": "name", "properties": { "name": "urn:ogc:def:crs:OGC:1.3:CRS84" } },
"features": [
{ "type": "Feature", "properties": { "id": 57 }, "geometry": { "type": "MultiLineString", "coordinates": [ [ [ -93.302417655172789, 44.942175888212134 ], [ -93.302524492130033, 44.942183013626732 ], [ -93.302581363976017, 44.94219366248484 ], [ -93.30260021104128, 44.942266683172882 ], [ -93.302611122500068, 44.942304597724288 ], [ -93.30263096151613, 44.942307406208563 ], [ -93.302663695892591, 44.942299682876438 ], [ -93.302672623449823, 44.94231161893476 ], [ -93.302684526859423, 44.942345320733068 ], [ -93.30268551881025, 44.94237200130938 ], [ -93.302711309531105, 44.942384639472778 ], [ -93.302735116350362, 44.94246117051393 ], [ -93.302767850726823, 44.942507510360819 ], [ -93.302812488512913, 44.942536999334791 ], [ -93.302931522609157, 44.942568594647263 ], [ -93.303086266934287, 44.942587551826406 ], [ -93.303348141946003, 44.942598083589893 ], [ -93.303520741385569, 44.94260018994234 ], [ -93.303717147644363, 44.942635997922423 ], [ -93.303755833725646, 44.942688656676083 ], [ -93.303842133445414, 44.94285505802015 ], [ -93.303910578050747, 44.943072010946935 ], [ -93.303946288279633, 44.943145732628643 ], [ -93.304024274448025, 44.943223112457673 ], [ -93.304252785079001, 44.94325763044084 ], [ -93.304505679466331, 44.943260589124151 ], [ -93.304539816725224, 44.943331597477737 ], [ -93.304605304528025, 44.943260096010277 ], [ -93.304664239580504, 44.943265427954294 ], [ -93.304826083660231, 44.943271277752572 ], [ -93.304936594327557, 44.943276270529374 ], [ -93.305095306456138, 44.943276270529374 ], [ -93.305203465832648, 44.943277934788213 ], [ -93.305311625209185, 44.943274606270485 ], [ -93.305408028131737, 44.943284591823094 ], [ -93.305496201536471, 44.943292913115592 ], [ -93.305570267196501, 44.943309555696999 ], [ -93.305681953509207, 44.943332855302856 ], [ -93.305760721750787, 44.943336183817202 ], [ -93.305835963056211, 44.943351162129396 ], [ -93.30593824420572, 44.943368636822008 ], [ -93.305974689213031, 44.943367804693899 ], [ -93.305979391794608, 44.943357819155779 ], [ -93.30596763534065, 44.943349497872667 ], [ -93.305935892914945, 44.943342840845318 ], [ -93.305843016928563, 44.94333035891696 ], [ -93.305780707722548, 44.94332370188738 ], [ -93.305725452388899, 44.943289584598745 ], [ -93.30567725092763, 44.943251306640988 ], [ -93.305645508501911, 44.943213860788063 ], [ -93.305633752047939, 44.943167261470315 ], [ -93.305645508501911, 44.943129815562557 ], [ -93.30567725092763, 44.943104851610485 ], [ -93.305728979325096, 44.943082384044352 ], [ -93.305808923212098, 44.943066573529578 ], [ -93.305902974843846, 44.943046602346797 ], [ -93.306019363738145, 44.943019141959113 ], [ -93.306138103923246, 44.942986688756754 ], [ -93.30620158877467, 44.94297670315234 ], [ -93.306260371044516, 44.942969213947883 ], [ -93.306329734122926, 44.942973374617146 ], [ -93.306367354775645, 44.942975038884761 ], [ -93.306423785754689, 44.942982112021603 ], [ -93.306433778740541, 44.942984192355809 ], [ -93.306444359549118, 44.942977119219229 ], [ -93.306454352534985, 44.942972334449856 ], [ -93.30646728463438, 44.942969838048299 ], [ -93.306478159354299, 44.942967757713568 ], [ -93.306481980201852, 44.942967133613138 ], [ -93.306459936850644, 44.942925942969694 ], [ -93.30645229515558, 44.94289889859175 ], [ -93.306447592573974, 44.942878511283041 ], [ -93.306451119510172, 44.942863948915232 ], [ -93.306461700318721, 44.942849386543749 ], [ -93.306479334999693, 44.942837736643902 ], [ -93.306498733148743, 44.942831079557202 ], [ -93.306516955652384, 44.942827334945605 ], [ -93.306545758964631, 44.942823174265754 ], [ -93.306577501390336, 44.942822342129745 ], [ -93.306628054142408, 44.942823590333759 ], [ -93.306486388872074, 44.942808611883919 ], [ -93.306468754191116, 44.942803619066446 ], [ -93.306455234269052, 44.942792385225516 ], [ -93.306447004751277, 44.942778238904211 ], [ -93.306445829105854, 44.942764508647826 ], [ -93.306459349027961, 44.94273538385071 ], [ -93.30647051765925, 44.942719157171624 ], [ -93.306482861935891, 44.942700850143552 ], [ -93.306492267099088, 44.942678798488345 ], [ -93.306497557503377, 44.942659243239845 ], [ -93.306508726134624, 44.942628038042294 ], [ -93.306519894765913, 44.942608066706946 ], [ -93.306534002510674, 44.942597248897407 ], [ -93.306556339773209, 44.942586015016118 ], [ -93.306575150099562, 44.942576445411781 ], [ -93.306588670021625, 44.94256812401543 ], [ -93.306596311716717, 44.942558138338207 ], [ -93.306597928229166, 44.942543991959177 ], [ -93.306595136071351, 44.942535566540592 ], [ -93.306582203971956, 44.942524852734927 ], [ -93.306544583319251, 44.942510290277426 ], [ -93.306510489602715, 44.942505713504296 ], [ -93.306474044595404, 44.942511954558469 ], [ -93.306356480055754, 44.942514034909699 ], [ -93.30633708190669, 44.942511538488212 ], [ -93.306306515126394, 44.942506441627323 ], [ -93.306260664955929, 44.942498120220819 ], [ -93.306196004459082, 44.942501448783574 ], [ -93.306130168316869, 44.94250560948673 ], [ -93.306073737337798, 44.942504361275816 ], [ -93.306024360231149, 44.942501032713224 ], [ -93.305972631833683, 44.942495623798628 ], [ -93.305952058039239, 44.942492711305945 ], [ -93.305641099831746, 44.942386613257277 ], [ -93.305619350391908, 44.942378291833393 ], [ -93.305595837483949, 44.94237080255089 ], [ -93.305545284731906, 44.942362897196055 ], [ -93.305501785852215, 44.942350415054641 ], [ -93.305466516490299, 44.942335020409821 ], [ -93.305427720192213, 44.94231088825557 ], [ -93.30522550918397, 44.942077055477078 ], [ -93.305198469339814, 44.942060412538389 ], [ -93.305175544254553, 44.94204834640481 ], [ -93.305152619169348, 44.942040857079263 ], [ -93.305125579325193, 44.942035448121302 ], [ -93.305094424722171, 44.942032951678996 ], [ -93.305054452778663, 44.942033367752714 ], [ -93.304996846154239, 44.942037112416109 ], [ -93.304961576792309, 44.942041273152917 ], [ -93.304928658721195, 44.942043353521221 ], [ -93.304890450245807, 44.942044185668514 ], [ -93.304867525160589, 44.942042521373907 ], [ -93.304780527401192, 44.942050842846463 ], [ -93.304742906748501, 44.942055835729398 ], [ -93.304687651414838, 44.942064573273505 ], [ -93.304632396081175, 44.94207539118343 ], [ -93.304592424137681, 44.942077055477078 ], [ -93.304543634853701, 44.942074559036577 ], [ -93.30449602121513, 44.942071230449081 ], [ -93.304458988385107, 44.942063741126518 ], [ -93.304441941526861, 44.942055003582269 ], [ -93.304426070314008, 44.942043353521228 ], [ -93.304409611278444, 44.942023798056283 ], [ -93.304338484731929, 44.941931429599954 ], [ -93.30431673529209, 44.941906465126785 ], [ -93.304299688433844, 44.941890238213411 ], [ -93.304281465930202, 44.941876507744659 ], [ -93.304267946008125, 44.941863609422533 ], [ -93.304262655603836, 44.941850295022469 ], [ -93.304257953022258, 44.941840309220396 ], [ -93.304141564127946, 44.941762919195412 ], [ -93.304083957503508, 44.941734626041971 ], [ -93.304012830956992, 44.941703004265733 ], [ -93.303888506456246, 44.941649330421455 ], [ -93.303805329544417, 44.941620413096963 ], [ -93.303775938409487, 44.941608762947723 ], [ -93.303750074210768, 44.94158671087304 ], [ -93.303701872749485, 44.941532620842708 ], [ -93.303672481614569, 44.941495173868759 ], [ -93.303661900805992, 44.941484771927222 ], [ -93.303641914834245, 44.941474786061576 ], [ -93.303620753217103, 44.941470209205903 ], [ -93.303571963933123, 44.94146729666118 ], [ -93.303504364322819, 44.941466048427699 ], [ -93.303482614882952, 44.941467712739019 ], [ -93.303363286875168, 44.941489348781737 ], [ -93.303319787995505, 44.941497254256852 ], [ -93.303290396860575, 44.94149975072245 ], [ -93.303264532661842, 44.941495173868759 ], [ -93.303240431931201, 44.941488516626393 ], [ -93.303186940065657, 44.941471457439292 ], [ -93.303154021994544, 44.941466048427699 ], [ -93.303097591015458, 44.941465216272029 ], [ -93.303071726816754, 44.941462303727064 ], [ -93.303038220922929, 44.941456894714591 ], [ -93.302992958575146, 44.9414444123762 ], [ -93.302931237191814, 44.94142402455099 ], [ -93.302859522822615, 44.941399059857183 ], [ -93.302824253460699, 44.941384081035693 ], [ -93.302784281517191, 44.941365357503336 ], [ -93.302762532077367, 44.941355371616922 ], [ -93.302750187800697, 44.941352875145036 ], [ -93.302719621020373, 44.941348714358334 ], [ -93.302709040211795, 44.941344553571334 ], [ -93.30264496753766, 44.94130544215875 ], [ -93.302618515516215, 44.941293375866522 ], [ -93.302596766076391, 44.941290047233721 ], [ -93.302566199296081, 44.941286302521618 ], [ -93.302527402997967, 44.94128671860075 ], [ -93.302382798614147, 44.941286302521618 ], [ -93.302241133343813, 44.941272571908435 ], [ -93.302145906066656, 44.941269243274427 ], [ -93.302036571044752, 44.941272987987666 ], [ -93.301926648200123, 44.94127798093826 ], [ -93.301858460767122, 44.941276316621433 ], [ -93.301812022773944, 44.941271739749943 ], [ -93.30171503202871, 44.941260089529955 ], [ -93.30167506008523, 44.94125218402219 ], [ -93.301633324673631, 44.94124968754582 ], [ -93.301570427644876, 44.941245526751636 ], [ -93.301482254240142, 44.941241365957168 ], [ -93.301411127693612, 44.941237621241868 ], [ -93.301323542111547, 44.941234292605863 ], [ -93.301236544352179, 44.941225971014951 ], [ -93.301174822968832, 44.941214736865341 ], [ -93.301125445862141, 44.941198093676682 ], [ -93.301063724478851, 44.941165639444904 ], [ -93.301010820435977, 44.941128192231616 ], [ -93.300976138896758, 44.941098650523891 ], [ -93.300957916393102, 44.941074101769281 ], [ -93.300951450343405, 44.941046224357251 ], [ -93.300964970265497, 44.941016682607355 ], [ -93.301013171726765, 44.940949277430946 ], [ -93.30104373850709, 44.940914742649419 ], [ -93.301054319315654, 44.940907669257861 ], [ -93.301081946982478, 44.940910997912823 ], [ -93.301117216344366, 44.940911413994669 ], [ -93.301167769096466, 44.940907253175993 ], [ -93.301187755068185, 44.940906004930312 ], [ -93.301178055993731, 44.940897683291844 ], [ -93.301138084050223, 44.940900595865443 ], [ -93.301125739773553, 44.940902260193148 ], [ -93.301093409525151, 44.94090309235699 ], [ -93.301056964517841, 44.940901011947375 ], [ -93.301026985560242, 44.94089809937379 ], [ -93.301001709184177, 44.940893522472159 ], [ -93.300981723212459, 44.940885200831858 ], [ -93.300964088531501, 44.940877295272472 ], [ -93.300814923112625, 44.940857436656472 ], [ -93.300677809413187, 44.94084746107805 ], [ -93.300635054319685, 44.940846104511699 ], [ -93.300639495899702, 44.940860729315382 ], [ -93.300675663050541, 44.940926302285774 ], [ -93.300685180721828, 44.940951453542219 ], [ -93.300683277187574, 44.940973910011884 ], [ -93.300650282593807, 44.940984689114202 ], [ -93.300609039351627, 44.94099097692294 ], [ -93.300581755360639, 44.941004001667451 ], [ -93.300567161598025, 44.941021966827442 ], [ -93.300569065132279, 44.941047118041979 ], [ -93.300569065132279, 44.941070921859875 ], [ -93.30057414122362, 44.941088437870519 ], [ -93.300580486337807, 44.941106403004078 ], [ -93.300563989040924, 44.941118080337887 ], [ -93.300538608584205, 44.941123469875762 ], [ -93.300506248501861, 44.941130655925477 ], [ -93.300494192784925, 44.941142333254348 ], [ -93.300496096319179, 44.941152214069234 ], [ -93.30043645224589, 44.941196228587593 ], [ -93.300425665551771, 44.94121194805026 ], [ -93.300433914200212, 44.941223625362596 ], [ -93.300442162848654, 44.941225870999304 ], [ -93.300563989040967, 44.941249674743098 ], [ -93.300599521680383, 44.941261801174811 ], [ -93.300619191534338, 44.941278868000303 ], [ -93.300616653488675, 44.941314349015997 ], [ -93.30059317656621, 44.94132872106676 ], [ -93.300574775735058, 44.941348033504283 ], [ -93.300579851826399, 44.941362854672875 ], [ -93.300582389872076, 44.9414059707779 ], [ -93.300593811077604, 44.941424384937889 ], [ -93.300657262219431, 44.94147872913171 ], [ -93.300638861388279, 44.941491753765568 ], [ -93.300616018977223, 44.941497592393581 ], [ -93.300611577397305, 44.94150926964781 ], [ -93.300614115442968, 44.941523192524762 ], [ -93.300626171159919, 44.941536217148538 ], [ -93.300664241845013, 44.941555529516272 ], [ -93.300704216064375, 44.941570799755929 ], [ -93.300708023132884, 44.941581129621625 ], [ -93.30069913997302, 44.941595052481155 ], [ -93.300705485087221, 44.94160493321813 ], [ -93.300722616895513, 44.941613915704806 ], [ -93.30075941855776, 44.941617508699089 ], [ -93.300785433525917, 44.941621101693137 ], [ -93.300797489242868, 44.941629185928932 ], [ -93.300799392777122, 44.941644905273058 ], [ -93.300813986539751, 44.941661522860741 ], [ -93.300815255562583, 44.941684428176409 ], [ -93.300812083005496, 44.941696105392651 ], [ -93.300820331653938, 44.941709579100738 ], [ -93.300831118348057, 44.941717663324077 ], [ -93.300846981133489, 44.941722154558782 ], [ -93.300857767827608, 44.941729789656961 ], [ -93.300856498804777, 44.941741017740668 ], [ -93.300843174064994, 44.941741466863967 ], [ -93.300829214813788, 44.941742814233855 ], [ -93.300754976977856, 44.941759431793194 ], [ -93.300746728329415, 44.941770210748039 ], [ -93.300731500055377, 44.941775151101666 ], [ -93.300682642676165, 44.941795810757661 ], [ -93.300670586959214, 44.941806589705678 ], [ -93.300671221470637, 44.941821410755885 ], [ -93.300701678018726, 44.941833537066842 ], [ -93.300711195689985, 44.94184566337524 ], [ -93.300706754110081, 44.94185913704824 ], [ -93.300704850575812, 44.941873958084877 ], [ -93.300711195689985, 44.941883838773848 ], [ -93.300768936229062, 44.941912133464669 ], [ -93.300767667206216, 44.941918870293762 ], [ -93.300775281343249, 44.941927852731325 ], [ -93.300786702548763, 44.941931445705961 ], [ -93.300793682174358, 44.94193952989805 ], [ -93.300791144128695, 44.941948512332381 ], [ -93.300763225626298, 44.941954350913939 ], [ -93.300725789452613, 44.941965578953734 ], [ -93.300706119598644, 44.942025312088511 ], [ -93.300708023132913, 44.942038785719348 ], [ -93.300720713361258, 44.942056301434704 ], [ -93.300720078849849, 44.94207157154117 ], [ -93.300714368247085, 44.942080160974264 ], [ -93.300705643715091, 44.94208723462409 ], [ -93.300683911699011, 44.942082799558044 ], [ -93.300661069287955, 44.942089536367106 ], [ -93.300647268664576, 44.94209840649782 ], [ -93.300650758477389, 44.942117269556086 ], [ -93.300626647043487, 44.942134560687386 ], [ -93.300591748915494, 44.942140623810111 ], [ -93.300557168043198, 44.942146686932205 ], [ -93.30052988405221, 44.942153199173745 ], [ -93.300499427504135, 44.942166448214572 ], [ -93.300457867006202, 44.942182167411588 ], [ -93.300432486549482, 44.942191149807954 ], [ -93.300404568047085, 44.942196539245089 ], [ -93.300369035407641, 44.942201030442334 ], [ -93.300339847882412, 44.942202826921125 ], [ -93.300278934786263, 44.942213156673105 ], [ -93.300237691544069, 44.942218995227755 ], [ -93.300191372210534, 44.942221240825539 ], [ -93.300162819196714, 44.942218546108187 ], [ -93.300158377616782, 44.942206419878552 ], [ -93.300158377616782, 44.942198335724029 ] ] ] } }
]
}
