{
"type": "FeatureCollection",
"name": "plain_of_erech",
"crs": { "type": "name", "properties": { "name": "urn:ogc:def:crs:OGC:1.3:CRS84" } },
"features": [
{ "type": "Feature", "properties": { "id": 1 }, "geometry": { "type": "MultiPolygon", "coordinates": [ [ [ [ -93.304590430858951, 44.941230592544663 ], [ -93.304800445383506, 44.940972322914142 ], [ -93.304746873364522, 44.940803140484036 ], [ -93.304638355685015, 44.940643316106879 ], [ -93.304604472527728, 44.940373659571222 ], [ -93.304661249710236, 44.940378845285778 ], [ -93.304731458054206, 44.940378413142902 ], [ -93.304779077626648, 44.940371930999611 ], [ -93.30480838197893, 44.940363504212208 ], [ -93.304810213500929, 44.940370634570854 ], [ -93.304812655530299, 44.940394834569361 ], [ -93.304816318574339, 44.940439777396683 ], [ -93.304833412779814, 44.940467434503702 ], [ -93.304866380176122, 44.940511512990462 ], [ -93.304883474381612, 44.940524477244836 ], [ -93.304924988880643, 44.940533984362865 ], [ -93.30495673526228, 44.940529662945778 ], [ -93.304987260629233, 44.940548677178519 ], [ -93.305032438172304, 44.940587569907692 ], [ -93.30509226789151, 44.940617819789935 ], [ -93.305171633845561, 44.94063683399348 ], [ -93.305219253418002, 44.940664491005577 ], [ -93.305248557770241, 44.940670540975205 ], [ -93.305296177342711, 44.940688690880229 ], [ -93.305365775179325, 44.94071980498979 ], [ -93.305417057795793, 44.940754376202868 ], [ -93.305429267942614, 44.94077339036118 ], [ -93.305458572294853, 44.940789811674669 ], [ -93.305481771573753, 44.940807961542006 ], [ -93.305485434617779, 44.940830432798371 ], [ -93.305475666500371, 44.940862411109578 ], [ -93.305448804177431, 44.940887475178862 ], [ -93.305408510693098, 44.940911674959544 ], [ -93.305374322282105, 44.940919453458299 ], [ -93.305327923724349, 44.940932417620573 ], [ -93.305281525166606, 44.940937603284645 ], [ -93.305243673711587, 44.940947974611419 ], [ -93.305203380227212, 44.940972174366586 ], [ -93.30515820268414, 44.941028352330328 ], [ -93.305142329493336, 44.941062923357627 ], [ -93.305125235287818, 44.941097494364101 ], [ -93.305127677317188, 44.94113033680096 ], [ -93.305132561375885, 44.941169229136115 ], [ -93.305124014273147, 44.941190835977601 ], [ -93.305098372964935, 44.94120812144493 ], [ -93.305075173686049, 44.941211578537761 ], [ -93.305049532377794, 44.941219356995909 ], [ -93.305023891069581, 44.941246149454734 ], [ -93.305023891069581, 44.941267756267266 ], [ -93.304998249761326, 44.941298005791147 ], [ -93.304998249761326, 44.941327391027649 ], [ -93.304992144687958, 44.941356776249123 ], [ -93.304977492511824, 44.941363690416701 ], [ -93.304894463513733, 44.941348133538497 ], [ -93.304719858414799, 44.941347269267354 ], [ -93.304634387387352, 44.941325662484743 ], [ -93.304594093902978, 44.941280720350882 ], [ -93.304590430858951, 44.941230592544663 ] ] ] ] } }
]
}
