{
"type": "FeatureCollection",
"name": "rhimdath",
"crs": { "type": "name", "properties": { "name": "urn:ogc:def:crs:OGC:1.3:CRS84" } },
"features": [
{ "type": "Feature", "properties": { "id": 1 }, "geometry": { "type": "MultiLineString", "coordinates": [ [ [ -93.304646316648089, 44.947823327998556 ], [ -93.304581846244318, 44.947820450496792 ], [ -93.30453073457285, 44.947825794428496 ], [ -93.30448601186032, 44.947829083001629 ], [ -93.304443612405564, 44.947837715505159 ], [ -93.304397147249702, 44.947837715505159 ], [ -93.304340227433727, 44.947830727288114 ], [ -93.304262979112096, 44.947813873349403 ], [ -93.304204897667233, 44.947799485836825 ], [ -93.304154366810209, 44.947774410449135 ], [ -93.30412358364444, 44.947750979339261 ], [ -93.304095123736474, 44.947734125377131 ], [ -93.304077989710251, 44.947720354453168 ] ] ] } }
]
}
