{
"type": "FeatureCollection",
"name": "south_ithilien",
"crs": { "type": "name", "properties": { "name": "urn:ogc:def:crs:OGC:1.3:CRS84" } },
"features": [
{ "type": "Feature", "properties": { "id": 1 }, "geometry": { "type": "MultiPolygon", "coordinates": [ [ [ [ -93.300428579076595, 44.940826014552052 ], [ -93.300464218634943, 44.940777714081001 ], [ -93.30047696774524, 44.940719056129481 ], [ -93.30040477344221, 44.940700598539813 ], [ -93.300398155063434, 44.940665730666986 ], [ -93.300340204562119, 44.940641118898377 ], [ -93.30037729288297, 44.940573026283545 ], [ -93.300339045552079, 44.940520521079613 ], [ -93.300314706341524, 44.940492627670508 ], [ -93.300237052669729, 44.94047047701244 ], [ -93.300330932481884, 44.940424534879575 ], [ -93.300293844161047, 44.940390898651849 ], [ -93.300417858233899, 44.940308858989376 ], [ -93.300330932481927, 44.940285887862878 ], [ -93.300268345940466, 44.940257994339767 ], [ -93.300334409511976, 44.94020959084105 ], [ -93.300357589712505, 44.940165289297973 ], [ -93.300374974862905, 44.940090632916572 ], [ -93.300402791103522, 44.940013515233836 ], [ -93.300372656842825, 44.939984801176578 ], [ -93.300465377644969, 44.939917528186193 ], [ -93.300378451892954, 44.939860099961287 ], [ -93.300393519023331, 44.939812516531433 ], [ -93.300323978421716, 44.939810055318475 ], [ -93.300272981980555, 44.939774777921102 ], [ -93.300310070301421, 44.939704633264235 ], [ -93.3003876622315, 44.939650426893067 ], [ -93.300386564963162, 44.939618900789483 ], [ -93.300413511946275, 44.93960597937668 ], [ -93.300446543732022, 44.939595519183236 ], [ -93.300463928882422, 44.939579521236631 ], [ -93.300502176213314, 44.939556139614361 ], [ -93.300547377604332, 44.939532757982555 ], [ -93.300596056025455, 44.939517375324876 ], [ -93.300649949991666, 44.939508761034766 ], [ -93.300728183168488, 44.939501992663061 ], [ -93.300769038271895, 44.939493378370649 ], [ -93.300787292679843, 44.939482918156692 ], [ -93.300809893375359, 44.939479226316017 ], [ -93.300848140706222, 44.939452152810489 ], [ -93.300897688384865, 44.939445384432105 ], [ -93.300926373883044, 44.939423848677407 ], [ -93.300985483394385, 44.939366009753392 ], [ -93.301025469240315, 44.939354934208112 ], [ -93.301102833159575, 44.939330321877605 ], [ -93.301138472717909, 44.939294018670843 ], [ -93.301167158216046, 44.939271252241326 ], [ -93.301185412623994, 44.939270021623265 ], [ -93.301205405546952, 44.93926017667777 ], [ -93.30126103802823, 44.939253408276748 ], [ -93.301290592783886, 44.93925279296753 ], [ -93.301301893131665, 44.939268791005176 ], [ -93.301319278282065, 44.939272482859373 ], [ -93.301353179325332, 44.939280481875997 ], [ -93.301388818883652, 44.939284173729448 ], [ -93.301407507920302, 44.939277405331289 ], [ -93.301473571491826, 44.939264791496193 ], [ -93.301523553799242, 44.939235871961344 ], [ -93.301570496852023, 44.939208799454349 ], [ -93.301580924795587, 44.939194030906435 ], [ -93.301626126186619, 44.939176802227898 ], [ -93.301683497182935, 44.93916695726643 ], [ -93.301725221543876, 44.939160804164651 ], [ -93.301747822239406, 44.939173110367541 ], [ -93.301786069570298, 44.939194030906435 ], [ -93.301829532446277, 44.939221104533686 ], [ -93.301871256807232, 44.939234641342523 ], [ -93.301885164927569, 44.939253100622146 ], [ -93.301977306224643, 44.939296172251545 ], [ -93.30200164543524, 44.939307247808173 ], [ -93.302069447521788, 44.939336782615378 ], [ -93.302100740792511, 44.939358933710835 ], [ -93.302140726638399, 44.939392160337974 ], [ -93.30218505877194, 44.939409388951887 ], [ -93.302210267240014, 44.939416772641984 ], [ -93.30218505877194, 44.939430924711999 ], [ -93.302127687775624, 44.939466612525258 ], [ -93.302084224899616, 44.93949368602398 ], [ -93.302021638358184, 44.939536757472915 ], [ -93.301931235576106, 44.939584751335076 ], [ -93.301894726760267, 44.939597057447116 ], [ -93.301799108433073, 44.939635206377687 ], [ -93.30175564555708, 44.939659818577503 ], [ -93.301668719805065, 44.939677047111104 ], [ -93.301536592662046, 44.939707812336806 ], [ -93.301467052060417, 44.939733655113663 ], [ -93.301392295913715, 44.939763189701544 ], [ -93.301340140462514, 44.939787801846506 ], [ -93.301281030951174, 44.93983210368085 ], [ -93.30122713698492, 44.939869021850001 ], [ -93.301206274804443, 44.939908401204292 ], [ -93.301161073413397, 44.939942858117142 ], [ -93.301122826082505, 44.939989621037213 ], [ -93.301084578751656, 44.940033922715827 ], [ -93.301074147661424, 44.94006345714925 ], [ -93.301051546965894, 44.940104066970392 ], [ -93.301015038150027, 44.940175441737964 ], [ -93.300985483394371, 44.940286195511952 ], [ -93.300975052304139, 44.940388334914189 ], [ -93.300980267849241, 44.940440019843663 ], [ -93.301002868544785, 44.940481859990584 ], [ -93.301032423300455, 44.940540928381409 ], [ -93.301063716571178, 44.940588921404185 ], [ -93.301101963902056, 44.9406442979191 ], [ -93.301089794296786, 44.94069475203063 ], [ -93.301041115875663, 44.940730439058342 ], [ -93.301013299635002, 44.940757511961138 ], [ -93.300954190123647, 44.940777201336957 ], [ -93.300907250217563, 44.940802223242315 ], [ -93.300864366846611, 44.940838320398065 ], [ -93.300823801495653, 44.940830936890769 ], [ -93.300583886420142, 44.94080550480286 ], [ -93.300543321069227, 44.940819451433107 ], [ -93.300428579076595, 44.940826014552052 ] ] ] ] } }
]
}
