{
"type": "FeatureCollection",
"name": "south_gondor",
"crs": { "type": "name", "properties": { "name": "urn:ogc:def:crs:OGC:1.3:CRS84" } },
"features": [
{ "type": "Feature", "properties": { "id": 1 }, "geometry": { "type": "MultiPolygon", "coordinates": [ [ [ [ -93.303160041434722, 44.938914792199732 ], [ -93.303154486227868, 44.93894030523915 ], [ -93.303098712200338, 44.938950673775501 ], [ -93.303037867806651, 44.93895167075005 ], [ -93.302989699328336, 44.938971211447743 ], [ -93.302906601661036, 44.938970413868404 ], [ -93.30288744694451, 44.938977392687484 ], [ -93.302876179464207, 44.938994141849854 ], [ -93.302860968365763, 44.939015875874681 ], [ -93.302812518200426, 44.939048377199207 ], [ -93.302787870587281, 44.939050271447613 ], [ -93.302759279355996, 44.939076292432581 ], [ -93.302759420199521, 44.939098026426315 ], [ -93.3027305472812, 44.939109990089079 ], [ -93.302687730856007, 44.939175391401463 ], [ -93.302664914208378, 44.939202010511842 ], [ -93.302645905680862, 44.939207281808024 ], [ -93.302620548504663, 44.939222448397224 ], [ -93.302574351835389, 44.939249167182737 ], [ -93.302544493012547, 44.939264719902901 ], [ -93.302514446398362, 44.939274423734723 ], [ -93.302495009994828, 44.939286653218545 ], [ -93.302469470372742, 44.939287650187737 ], [ -93.302426278364877, 44.939305728550806 ], [ -93.302359049065657, 44.939322078830671 ], [ -93.302257641742855, 44.939382295672459 ], [ -93.302221398014524, 44.939382561530337 ], [ -93.302205060168049, 44.939378307804063 ], [ -93.302182712998714, 44.939365114604122 ], [ -93.302170506561723, 44.93935225372369 ], [ -93.302145342522365, 44.939338595266136 ], [ -93.302137455286129, 44.93933301224606 ], [ -93.302124685475121, 44.939322112062428 ], [ -93.302096141191655, 44.939315066820676 ], [ -93.302069850404266, 44.939295393310857 ], [ -93.30203642354607, 44.939281336052247 ], [ -93.302007879262547, 44.939272795352061 ], [ -93.301891824215346, 44.939206197786497 ], [ -93.301818773384639, 44.939171503215725 ], [ -93.301749478380756, 44.939130328310036 ], [ -93.301690136317745, 44.939128832852845 ], [ -93.301627226219367, 44.939144651464588 ], [ -93.301598306353213, 44.939147310054373 ], [ -93.301564503912275, 44.939163261590487 ], [ -93.301542344534298, 44.93918758767451 ], [ -93.301497274613055, 44.939213110112256 ], [ -93.301407885935902, 44.93925139374759 ], [ -93.301374177390656, 44.939251626373768 ], [ -93.301345914794211, 44.939245279001995 ], [ -93.301333684883289, 44.939235292690519 ], [ -93.301324530055538, 44.939225422690456 ], [ -93.301314389323267, 44.939215652385684 ], [ -93.301291431832112, 44.939210468141674 ], [ -93.30125678433015, 44.939213658445738 ], [ -93.301227629724835, 44.939220836629239 ], [ -93.301165658583102, 44.939238183902326 ], [ -93.301133616685988, 44.939251343899116 ], [ -93.301113440854024, 44.939267768966616 ], [ -93.301088934084348, 44.939294288337322 ], [ -93.301055413330403, 44.939314427099369 ], [ -93.301040202231988, 44.939323599206482 ], [ -93.301015695462297, 44.93932499496178 ], [ -93.30097203397608, 44.939341145842079 ], [ -93.300947527206404, 44.939358891865815 ], [ -93.300923583810743, 44.93938381604719 ], [ -93.300899358728074, 44.939406945677824 ], [ -93.300884429316653, 44.939416117770151 ], [ -93.300852598684784, 44.939419706849364 ], [ -93.300807247076506, 44.939437253455594 ], [ -93.300775416444651, 44.939450413406753 ], [ -93.300758796911197, 44.939457192774356 ], [ -93.300726402905312, 44.939465168499908 ], [ -93.300692177933769, 44.939464670017102 ], [ -93.300544503519944, 44.939495775336482 ], [ -93.300512602466313, 44.93951431888425 ], [ -93.300492637899637, 44.939519403404354 ], [ -93.300471828271938, 44.939531666068653 ], [ -93.30045952207081, 44.939545199859765 ], [ -93.300434487137977, 44.939561126361227 ], [ -93.300413888775523, 44.939573463788911 ], [ -93.300291227112396, 44.939593456476075 ], [ -93.300291227112396, 44.93954407062359 ], [ -93.300239818674285, 44.939480388803723 ], [ -93.300265522893355, 44.939392013916269 ], [ -93.300275620979406, 44.939349126054225 ], [ -93.300221458517797, 44.939312086511215 ], [ -93.300243490705583, 44.939265299685893 ], [ -93.300304997229773, 44.939234758265471 ], [ -93.300348143597475, 44.939157429915582 ], [ -93.300266440901183, 44.939138585175876 ], [ -93.300227425568679, 44.939062556335635 ], [ -93.300164542032761, 44.939026491337756 ], [ -93.300192082267472, 44.938969956971157 ], [ -93.299948810194209, 44.938873783438027 ], [ -93.299858845427494, 44.938859487358542 ], [ -93.299675243862779, 44.938876382724835 ], [ -93.299570590970887, 44.938880281654804 ], [ -93.299414529640856, 44.938882231119685 ], [ -93.299286926553393, 44.938873783438027 ], [ -93.299132701239017, 44.938845841097525 ], [ -93.299098734949538, 44.938803602650033 ], [ -93.299038146433205, 44.938762663817414 ], [ -93.298966541822935, 44.938757465233408 ], [ -93.298832512680718, 44.938731472306308 ], [ -93.298740711898347, 44.93872237477904 ], [ -93.298658091194227, 44.938724974072684 ], [ -93.29845796548868, 44.938713277250336 ], [ -93.29832944439336, 44.938695082188602 ], [ -93.298386360878439, 44.938644395914785 ], [ -93.29843226126961, 44.938626200831216 ], [ -93.298514881973759, 44.938566416944631 ], [ -93.298580978537032, 44.93854042393103 ], [ -93.298647075100348, 44.938515730557228 ], [ -93.298687467444566, 44.938479340302784 ], [ -93.298691139475878, 44.938423455224289 ], [ -93.298771924164356, 44.938296089028178 ], [ -93.29878844830516, 44.938235005139987 ], [ -93.29889126518141, 44.938166123230694 ], [ -93.29893716557261, 44.938121934792548 ], [ -93.298961033775996, 44.93810503920426 ], [ -93.299021622292372, 44.938123234452981 ], [ -93.29906201463659, 44.938123234452981 ], [ -93.299091390886971, 44.938089443272204 ], [ -93.299188699716268, 44.938069948351171 ], [ -93.299295188623802, 44.937990668937481 ], [ -93.299335580968048, 44.937907490418546 ], [ -93.299326400889811, 44.937843806783555 ], [ -93.299403513546991, 44.937743732357298 ], [ -93.299486134251097, 44.937711240622939 ], [ -93.29958527909605, 44.937639758742669 ], [ -93.299686259956658, 44.937615064981529 ], [ -93.299803764958085, 44.937564377754342 ], [ -93.29986068144315, 44.937550081348832 ], [ -93.29998185847586, 44.937500693738805 ], [ -93.300104871524226, 44.937492895691236 ], [ -93.300174640118811, 44.9374850976426 ], [ -93.300242572697755, 44.937466902191666 ], [ -93.300339881527066, 44.937464302841079 ], [ -93.300448206450255, 44.937495495040544 ], [ -93.300584071608142, 44.937539683960779 ], [ -93.300640988093207, 44.937560478735008 ], [ -93.300741968953787, 44.937595569899443 ], [ -93.300910882393325, 44.93762416268423 ], [ -93.30095861880018, 44.937652755454785 ], [ -93.301026551379124, 44.937667051834737 ], [ -93.301136712317955, 44.937661853151518 ], [ -93.301184448724769, 44.93763845907128 ], [ -93.301404770602417, 44.937639758742669 ], [ -93.301472703181375, 44.937669651176158 ], [ -93.301553487869867, 44.93765535479686 ], [ -93.301603060292337, 44.937596869571784 ], [ -93.301720565293735, 44.937559179061836 ], [ -93.301828890216953, 44.937550081348832 ], [ -93.301883970686347, 44.937521488527153 ], [ -93.301955575296589, 44.937520188853107 ], [ -93.301990459593881, 44.937498094389731 ], [ -93.302071244282374, 44.937472100892535 ], [ -93.302161209049089, 44.937459104139506 ], [ -93.302236485690599, 44.937459104139506 ], [ -93.302353990692026, 44.937447407059288 ], [ -93.302387038973691, 44.937456504788564 ], [ -93.302440283427458, 44.937491596016528 ], [ -93.302550444366275, 44.937508491785316 ], [ -93.302592672726163, 44.937487696992257 ], [ -93.302645917179944, 44.937491596016528 ], [ -93.302724865852767, 44.937524087875168 ], [ -93.302824010697719, 44.937542283307977 ], [ -93.302794634447352, 44.937572175792205 ], [ -93.302754242103134, 44.937581273501699 ], [ -93.302752406087478, 44.937615064981529 ], [ -93.302781782337846, 44.937646257099097 ], [ -93.302835026791584, 44.937716439301667 ], [ -93.302928663589611, 44.937738533681035 ], [ -93.302989252105974, 44.937759328383244 ], [ -93.302985580074662, 44.937807416103283 ], [ -93.303014956325043, 44.937843806783555 ], [ -93.303064528747512, 44.937858103115929 ], [ -93.303108593123028, 44.937884096438388 ], [ -93.303117773201279, 44.937917887740007 ], [ -93.303136133357754, 44.937939982041847 ], [ -93.303204065936697, 44.937968574655144 ], [ -93.303235278202706, 44.937971173982916 ], [ -93.303273834531296, 44.937977672301841 ], [ -93.303321570938095, 44.938045254775048 ], [ -93.30338032343883, 44.938063450042705 ], [ -93.303413371720481, 44.938038756463776 ], [ -93.303484976330722, 44.938042655450609 ], [ -93.303545564847084, 44.938077746320381 ], [ -93.303578613128735, 44.938137530715757 ], [ -93.303578613128735, 44.938137530715764 ], [ -93.303582285160019, 44.938157025613862 ], [ -93.30356392500353, 44.938185618119071 ], [ -93.303530876721879, 44.938186917778069 ], [ -93.303477632268127, 44.938184318460046 ], [ -93.303442747970834, 44.938196015390155 ], [ -93.303407863673542, 44.938227207192142 ], [ -93.303372979376235, 44.938222008559663 ], [ -93.303308958371971, 44.938198339809418 ], [ -93.303288522656445, 44.938171321868239 ], [ -93.303240786249646, 44.938163523911747 ], [ -93.303211409999264, 44.938194715731385 ], [ -93.303244458280915, 44.938229156679213 ], [ -93.303242622265287, 44.938281792804837 ], [ -93.303227016132297, 44.938288291088625 ], [ -93.303217836054031, 44.938316883528465 ], [ -93.303245376288743, 44.938328580431566 ], [ -93.303263736445231, 44.938348075264791 ], [ -93.303291276679943, 44.938366270436482 ], [ -93.303333505039831, 44.938376667674873 ], [ -93.303401437618774, 44.938361071816594 ], [ -93.303425305822174, 44.93835977216154 ], [ -93.303465698166434, 44.938385765256911 ], [ -93.303513434573247, 44.938379266984178 ], [ -93.303531794729707, 44.938389664220196 ], [ -93.303539138792317, 44.93843385245232 ], [ -93.303557498948763, 44.938457246208493 ], [ -93.303540974807959, 44.938484538911993 ], [ -93.303469370197718, 44.938480639955145 ], [ -93.303414289728295, 44.938518329860244 ], [ -93.30341979777522, 44.938537824629037 ], [ -93.303394947487462, 44.938557722813066 ], [ -93.30337756941536, 44.938536524977984 ], [ -93.303351865196277, 44.938546922185544 ], [ -93.303329833008533, 44.938575514496598 ], [ -93.303333505039831, 44.938595009245979 ], [ -93.303325242969393, 44.938621002234854 ], [ -93.303343603125882, 44.938631399427116 ], [ -93.303363799298012, 44.938653493454417 ], [ -93.303347275157179, 44.938663890640768 ], [ -93.303304128789463, 44.938669739057289 ], [ -93.30327475253911, 44.938692482893593 ], [ -93.30325180234351, 44.938719125661812 ], [ -93.30325731039045, 44.938733421776249 ], [ -93.30325180234351, 44.938741869478562 ], [ -93.303229770155767, 44.938735371246118 ], [ -93.303184787772381, 44.938717176191389 ], [ -93.303135215349926, 44.938747068063975 ], [ -93.303135215349926, 44.938771761338288 ], [ -93.303118691209107, 44.938808151407407 ], [ -93.303124199256047, 44.938851039673544 ], [ -93.303131543318628, 44.93888483040611 ], [ -93.303151739490758, 44.938906924335875 ], [ -93.303160041434722, 44.938914792199732 ] ] ] ] } }
]
}
