{
"type": "FeatureCollection",
"name": "tindrock",
"crs": { "type": "name", "properties": { "name": "urn:ogc:def:crs:OGC:1.3:CRS84" } },
"features": [
{ "type": "Feature", "properties": { "id": 1 }, "geometry": { "type": "MultiPolygon", "coordinates": [ [ [ [ -93.302349712933008, 44.942244125853129 ], [ -93.302336267739804, 44.942244079655246 ], [ -93.302331046305525, 44.94224338668684 ], [ -93.302321647723872, 44.942232299191275 ], [ -93.302322039331457, 44.942214004818901 ], [ -93.302323214154157, 44.942205134818074 ], [ -93.302333004343396, 44.942195156065516 ], [ -93.302350626684003, 44.942194878877913 ], [ -93.302356109189986, 44.942196819191068 ], [ -93.302366290986754, 44.942210401381239 ], [ -93.302370598670024, 44.942218439818802 ], [ -93.302370639462509, 44.942229279003307 ], [ -93.302370541560606, 44.942233714002015 ], [ -93.302366682594339, 44.942235902627566 ], [ -93.302362244375203, 44.942242185541588 ], [ -93.302349712933008, 44.942244125853129 ] ] ] ] } }
]
}
