{
"type": "FeatureCollection",
"name": "tol_himling",
"crs": { "type": "name", "properties": { "name": "urn:ogc:def:crs:OGC:1.3:CRS84" } },
"features": [
{ "type": "Feature", "properties": { "id": 1 }, "geometry": { "type": "MultiPolygon", "coordinates": [ [ [ [ -93.3180052213918, 44.948611658060116 ], [ -93.317967627065187, 44.948628287355 ], [ -93.317897137702758, 44.948653231288276 ], [ -93.317737361814622, 44.948603343410859 ], [ -93.317779655432091, 44.948523522716812 ], [ -93.317932382383972, 44.948500241660142 ], [ -93.3180052213918, 44.948521859784499 ], [ -93.318019319264266, 44.948556781352821 ], [ -93.317969976710572, 44.948588377039187 ], [ -93.3180052213918, 44.948611658060116 ] ] ] ] } }
]
}
