{
"type": "FeatureCollection",
"name": "tol_fuin",
"crs": { "type": "name", "properties": { "name": "urn:ogc:def:crs:OGC:1.3:CRS84" } },
"features": [
{ "type": "Feature", "properties": { "id": 1 }, "geometry": { "type": "MultiPolygon", "coordinates": [ [ [ [ -93.319899769384136, 44.948993167124726 ], [ -93.319423757077033, 44.948966215834957 ], [ -93.319061987723643, 44.948791032142914 ], [ -93.319100068708195, 44.948481090454905 ], [ -93.319328554615609, 44.948285691574064 ], [ -93.319785526430451, 44.948380022151312 ], [ -93.32012825529155, 44.948380022151312 ], [ -93.320470984152664, 44.948366546364056 ], [ -93.320762564502843, 44.948335931755885 ], [ -93.32136314983903, 44.948357139143276 ], [ -93.321854989935602, 44.948423818438059 ], [ -93.321626504028202, 44.948767449682009 ], [ -93.321276634982482, 44.948959478010536 ], [ -93.320583067561699, 44.948989055547003 ], [ -93.320242498245236, 44.949020118401862 ], [ -93.319899769384136, 44.948993167124726 ] ] ] ] } }
]
}
