{
"type": "FeatureCollection",
"name": "tol_morwen",
"crs": { "type": "name", "properties": { "name": "urn:ogc:def:crs:OGC:1.3:CRS84" } },
"features": [
{ "type": "Feature", "properties": { "id": 1 }, "geometry": { "type": "MultiPolygon", "coordinates": [ [ [ [ -93.322526167288601, 44.947883100403494 ], [ -93.322454765442501, 44.947888153866643 ], [ -93.322369083227258, 44.947827512279424 ], [ -93.32236908322723, 44.947741603254521 ], [ -93.322618989688465, 44.947635480163882 ], [ -93.322883176518872, 44.947635480163882 ], [ -93.32294743818035, 44.947756763680019 ], [ -93.322833195226636, 44.947847726148957 ], [ -93.322640410242244, 44.947857833081045 ], [ -93.322590428950051, 44.947885627135129 ], [ -93.322526167288601, 44.947883100403494 ] ] ] ] } }
]
}
