{
"type": "FeatureCollection",
"name": "tolfalas",
"crs": { "type": "name", "properties": { "name": "urn:ogc:def:crs:OGC:1.3:CRS84" } },
"features": [
{ "type": "Feature", "properties": { "id": 1 }, "geometry": { "type": "MultiPolygon", "coordinates": [ [ [ [ -93.304119387537526, 44.938799276606311 ], [ -93.304109793152051, 44.938799461408976 ], [ -93.304089690630178, 44.938794102131588 ], [ -93.304067220884662, 44.938782742648655 ], [ -93.304051313088422, 44.938778393901913 ], [ -93.304039042717903, 44.938770632186817 ], [ -93.304016068407194, 44.938770077778564 ], [ -93.304012674474919, 44.938772665017062 ], [ -93.304009084738908, 44.93877502125202 ], [ -93.303984478729944, 44.9387732194253 ], [ -93.303968814427179, 44.938783013969896 ], [ -93.3039403576105, 44.938783383575327 ], [ -93.303919732945204, 44.938778393901913 ], [ -93.30391346722412, 44.938770632186809 ], [ -93.303901457925335, 44.938756956781496 ], [ -93.303885271479132, 44.938737737287461 ], [ -93.303882660762014, 44.938725170691718 ], [ -93.303889448626549, 44.938714452122568 ], [ -93.303888404339688, 44.938683405221383 ], [ -93.303895714347618, 44.938677861130131 ], [ -93.303896758634494, 44.938665294521279 ], [ -93.303911378650412, 44.938659750428272 ], [ -93.303911900793835, 44.938647553421745 ], [ -93.303935397247955, 44.938631290742379 ], [ -93.303944795829622, 44.938620941762188 ], [ -93.303953672267852, 44.938606896714674 ], [ -93.303961504419235, 44.938590818827102 ], [ -93.303963331921224, 44.938576034558707 ], [ -93.303966725853499, 44.938570305653684 ], [ -93.303959937988949, 44.938568088012872 ], [ -93.303960199060697, 44.938549330464262 ], [ -93.303964115136381, 44.938546373608759 ], [ -93.303986045160229, 44.938537133434295 ], [ -93.304009541614391, 44.938522718759167 ], [ -93.304025989132256, 44.938504977615601 ], [ -93.304025989132299, 44.938492595772566 ], [ -93.304030688423111, 44.938475224227076 ], [ -93.304021811984867, 44.938414608580416 ], [ -93.304028599849417, 44.938400933090314 ], [ -93.304038520574494, 44.938387996812899 ], [ -93.304071937753719, 44.938369516411512 ], [ -93.304133028534494, 44.938369146803439 ], [ -93.304222315060244, 44.938366559546743 ], [ -93.304229102924765, 44.938369516411512 ], [ -93.304245811514377, 44.93837062523577 ], [ -93.304276095833046, 44.938381713477099 ], [ -93.304296981570062, 44.938385779165039 ], [ -93.304326221601869, 44.938387257596958 ], [ -93.304372431294993, 44.9383889208328 ], [ -93.304390706314891, 44.938390029656681 ], [ -93.304432216717188, 44.938369886019615 ], [ -93.304441876370575, 44.938369701215564 ], [ -93.304455191027927, 44.938375245336587 ], [ -93.304477643195213, 44.938375614944626 ], [ -93.304493307497978, 44.938370070823652 ], [ -93.30451497645015, 44.938358058559679 ], [ -93.304536906474027, 44.938355101694313 ], [ -93.304554659350487, 44.93835879777599 ], [ -93.304573456513808, 44.938361754641171 ], [ -93.304594342250809, 44.938358058559679 ], [ -93.304606873693032, 44.938367668371065 ], [ -93.304608962266727, 44.938381713477099 ], [ -93.30461000655356, 44.93840019387455 ], [ -93.304604785119338, 44.938423109559125 ], [ -93.304590165103406, 44.938436415436293 ], [ -93.304578677948058, 44.938456374246272 ], [ -93.30456927936639, 44.938471158545482 ], [ -93.304551526489917, 44.93848594284087 ], [ -93.30453481790029, 44.938497770274452 ], [ -93.304510799302761, 44.938509597705611 ], [ -93.304484692131481, 44.938522164348534 ], [ -93.304481559270911, 44.938531034918348 ], [ -93.304463806394466, 44.938548036840011 ], [ -93.304448142091715, 44.938563560329293 ], [ -93.304447097804854, 44.93857538774688 ], [ -93.304452319239104, 44.938584258308481 ], [ -93.304455452099674, 44.938594607295279 ], [ -93.304445009231159, 44.938613826837248 ], [ -93.304425167781005, 44.938634524798317 ], [ -93.304407414904517, 44.938641547319115 ], [ -93.304401149183434, 44.938647461020189 ], [ -93.304387051310925, 44.938657070783144 ], [ -93.304372431295022, 44.938674442273602 ], [ -93.304362510569959, 44.938685160850198 ], [ -93.304339014115797, 44.938701793120259 ], [ -93.304317606235372, 44.938708815632857 ], [ -93.304285233342966, 44.938719534203038 ], [ -93.304270613327063, 44.938720273414681 ], [ -93.304265391892812, 44.938725078290268 ], [ -93.304239284721547, 44.938735796857415 ], [ -93.304218398984531, 44.938752429112824 ], [ -93.304203778968599, 44.938753168324055 ], [ -93.304184981805292, 44.938756864380103 ], [ -93.30416305178143, 44.938758342802473 ], [ -93.304143210331262, 44.93876795254684 ], [ -93.304125000579347, 44.938794933743623 ], [ -93.304119387537526, 44.938799276606311 ] ] ] ] } }
]
}
