{
"type": "FeatureCollection",
"name": "westemnet",
"crs": { "type": "name", "properties": { "name": "urn:ogc:def:crs:OGC:1.3:CRS84" } },
"features": [
{ "type": "Feature", "properties": { "id": 1 }, "geometry": { "type": "MultiPolygon", "coordinates": [ [ [ [ -93.304536356521808, 44.942102674037656 ], [ -93.304657270106901, 44.94228803670228 ], [ -93.304884469282456, 44.942553843122482 ], [ -93.305440166629182, 44.942682904755486 ], [ -93.305843915482654, 44.942773042866783 ], [ -93.306100057228392, 44.942908249768379 ], [ -93.30595100299216, 44.942890836776193 ], [ -93.305764323414763, 44.942890836776193 ], [ -93.305645658877197, 44.942917212335828 ], [ -93.305600488965652, 44.942948880578307 ], [ -93.305544502807663, 44.942988508166472 ], [ -93.30535298160278, 44.943038281152198 ], [ -93.305182613486224, 44.943084007515687 ], [ -93.305149454591088, 44.94308319819983 ], [ -93.30512144104172, 44.94308522148944 ], [ -93.305109435234826, 44.943100598488115 ], [ -93.305105433299218, 44.94311476150957 ], [ -93.3051083632878, 44.94312796346572 ], [ -93.305121584273351, 44.943135309342033 ], [ -93.305132946606633, 44.943136562439328 ], [ -93.305144523634681, 44.943150927780636 ], [ -93.305154237069758, 44.943154145343847 ], [ -93.305156815294112, 44.94315446853323 ], [ -93.305115652527689, 44.943165798940043 ], [ -93.305099644785201, 44.943166608254728 ], [ -93.305055051788244, 44.943165798940043 ], [ -93.305035613815235, 44.943173082771814 ], [ -93.305015604137111, 44.943183603860511 ], [ -93.305009887086186, 44.943202218089652 ], [ -93.305025323123587, 44.943214357801047 ], [ -93.305034470405005, 44.943223260254442 ], [ -93.304977871601182, 44.943222450940567 ], [ -93.304860100352855, 44.943216785743026 ], [ -93.304800643023583, 44.943203027403833 ], [ -93.304687445415937, 44.943196552890129 ], [ -93.304639422188444, 44.943198980832847 ], [ -93.304600546242384, 44.943206264660411 ], [ -93.304571960987928, 44.943207073974527 ], [ -93.304551379604732, 44.943210311230871 ], [ -93.304525081170638, 44.943207073974527 ], [ -93.304486205224563, 44.94321112054493 ], [ -93.304434751766564, 44.943215976429052 ], [ -93.304391302179781, 44.943223260254456 ], [ -93.304332988260711, 44.943219213684891 ], [ -93.304247232497318, 44.94320221808966 ], [ -93.304203782910577, 44.943189269061328 ], [ -93.304176341066309, 44.943161752366443 ], [ -93.304156903093272, 44.943109956199123 ], [ -93.304150042632216, 44.943075964938906 ], [ -93.304143182171131, 44.943027405960834 ], [ -93.304134678057991, 44.94297474977256 ], [ -93.304063786626941, 44.942913241618299 ], [ -93.304061499806579, 44.942818551304647 ], [ -93.304099232342438, 44.942725479476614 ], [ -93.304112953264578, 44.942646165973663 ], [ -93.304078650959241, 44.942547428602595 ], [ -93.3040632506534, 44.942523502974282 ], [ -93.304033664914996, 44.942504875879401 ], [ -93.304022623860533, 44.942482568882042 ], [ -93.30399909462291, 44.942466407684684 ], [ -93.303971170402491, 44.942439788488194 ], [ -93.30397095601306, 44.942403356209191 ], [ -93.303954126444509, 44.94237126138821 ], [ -93.303944586115833, 44.94233245166938 ], [ -93.303953563672323, 44.942304681649155 ], [ -93.303967472185164, 44.942289032553987 ], [ -93.303974171854193, 44.942252328295623 ], [ -93.304005660298571, 44.94221744500242 ], [ -93.304015227425936, 44.942209591990547 ], [ -93.304092327216949, 44.942168335207555 ], [ -93.304128746617735, 44.942155702090147 ], [ -93.304174733145885, 44.942154393253489 ], [ -93.304206811161137, 44.942147962881705 ], [ -93.30423310066233, 44.942148019787652 ], [ -93.304256254718467, 44.942141987756841 ], [ -93.304276836101636, 44.94214551592588 ], [ -93.304298945009393, 44.942145743549681 ], [ -93.30430465312736, 44.942143239687283 ], [ -93.304325154114565, 44.94214136179135 ], [ -93.304339384211531, 44.942135443571765 ], [ -93.304356347773478, 44.942128387232209 ], [ -93.304395661431258, 44.942117290567637 ], [ -93.304427659050461, 44.942111656875291 ], [ -93.30445628003649, 44.942111315439391 ], [ -93.30446126459023, 44.942108014892192 ], [ -93.304492887027862, 44.942103234788405 ], [ -93.304536356521808, 44.942102674037656 ] ] ] ] } }
]
}
