{
"type": "FeatureCollection",
"name": "westfold",
"crs": { "type": "name", "properties": { "name": "urn:ogc:def:crs:OGC:1.3:CRS84" } },
"features": [
{ "type": "Feature", "properties": { "id": 1 }, "geometry": { "type": "MultiPolygon", "coordinates": [ [ [ [ -93.304143182171131, 44.943027405960834 ], [ -93.304134678057991, 44.94297474977256 ], [ -93.304063786626941, 44.942913241618299 ], [ -93.304061499806579, 44.942818551304647 ], [ -93.304099232342438, 44.942725479476614 ], [ -93.304112953264578, 44.942646165973663 ], [ -93.304078650959241, 44.942547428602595 ], [ -93.3040632506534, 44.942523502974282 ], [ -93.304033664914996, 44.942504875879401 ], [ -93.304022623860533, 44.942482568882042 ], [ -93.30399909462291, 44.942466407684684 ], [ -93.303971170402491, 44.942439788488194 ], [ -93.30397095601306, 44.942403356209191 ], [ -93.303954126444509, 44.94237126138821 ], [ -93.303944586115833, 44.94233245166938 ], [ -93.303953563672323, 44.942304681649155 ], [ -93.303967472185164, 44.942289032553987 ], [ -93.303974171854193, 44.942252328295623 ], [ -93.304005660298571, 44.94221744500242 ], [ -93.304015227425936, 44.942209591990547 ], [ -93.304092327216949, 44.942168335207555 ], [ -93.304128746617735, 44.942155702090147 ], [ -93.304174733145885, 44.942154393253489 ], [ -93.304206811161137, 44.942147962881705 ], [ -93.30423310066233, 44.942148019787652 ], [ -93.304256254718467, 44.942141987756841 ], [ -93.304276836101636, 44.94214551592588 ], [ -93.304298945009393, 44.942145743549681 ], [ -93.30430465312736, 44.942143239687283 ], [ -93.304325154114565, 44.94214136179135 ], [ -93.304339384211531, 44.942135443571765 ], [ -93.304356347773478, 44.942128387232209 ], [ -93.304395661431258, 44.942117290567637 ], [ -93.304427659050461, 44.942111656875291 ], [ -93.30445628003649, 44.942111315439391 ], [ -93.30446126459023, 44.942108014892192 ], [ -93.304492887027862, 44.942103234788405 ], [ -93.304572291505167, 44.942102210481103 ], [ -93.304612489519258, 44.942093105521415 ], [ -93.304665591095869, 44.942093133974417 ], [ -93.304708924555001, 44.942089435084135 ], [ -93.304751695242004, 44.942077598633631 ], [ -93.304771673654997, 44.942072477091791 ], [ -93.304791692266008, 44.942069631790567 ], [ -93.304806686125275, 44.942063827375648 ], [ -93.304824373251463, 44.942057453899743 ], [ -93.304860591662134, 44.94204527600634 ], [ -93.304885514430893, 44.942030821867824 ], [ -93.304911562743996, 44.941999409711734 ], [ -93.304930053830489, 44.941961624051928 ], [ -93.304936163928616, 44.94197903732595 ], [ -93.304954976599191, 44.94198131357053 ], [ -93.304973628477754, 44.941979378762646 ], [ -93.304994531445061, 44.941981085946082 ], [ -93.305034890251221, 44.941987800867096 ], [ -93.305059330643758, 44.941982451692795 ], [ -93.305085057372779, 44.941983248378364 ], [ -93.305092936183556, 44.941977102517988 ], [ -93.305129275188335, 44.9419740580406 ], [ -93.305149213403283, 44.941992950869519 ], [ -93.305311291796059, 44.942113819302612 ], [ -93.305388471983079, 44.942155929713877 ], [ -93.305398146304839, 44.942191325197918 ], [ -93.305497408601198, 44.942297369254298 ], [ -93.305723803816505, 44.942349267320537 ], [ -93.305822690931137, 44.942389442765048 ], [ -93.305852437461567, 44.942423813802897 ], [ -93.305987502788852, 44.942432122030809 ], [ -93.306152153854541, 44.942459891989373 ], [ -93.306431288864317, 44.942468427834569 ], [ -93.306411993817562, 44.942508034139777 ], [ -93.306402426690212, 44.942528747771306 ], [ -93.306391814414496, 44.942564256836484 ], [ -93.306377825505564, 44.942613878442067 ], [ -93.306379513822179, 44.942720007082229 ], [ -93.306379111842091, 44.942745728302619 ], [ -93.306370107486941, 44.942756085076411 ], [ -93.306372197783645, 44.942841499936364 ], [ -93.306373001743921, 44.942875870703581 ], [ -93.306365444517283, 44.942908875725571 ], [ -93.306344702342003, 44.942959862752268 ], [ -93.306331597789381, 44.943003793510648 ], [ -93.306334170462279, 44.943040212763037 ], [ -93.306325326899184, 44.943055577128206 ], [ -93.306310212445894, 44.943076176752093 ], [ -93.306285932845384, 44.943085281555867 ], [ -93.306261331660778, 44.943080273913971 ], [ -93.306222259191088, 44.943075607701807 ], [ -93.306238981564931, 44.943045220408429 ], [ -93.306242840574271, 44.942957358930343 ], [ -93.306123854452608, 44.942937783556815 ], [ -93.306126507521569, 44.94291274527864 ], [ -93.305956711110085, 44.942892714648202 ], [ -93.305758320510947, 44.942893008658416 ], [ -93.305642836082953, 44.94291890684579 ], [ -93.305544502807663, 44.942988508166472 ], [ -93.30535298160278, 44.943038281152198 ], [ -93.305182613486224, 44.943084007515687 ], [ -93.305149454591088, 44.94308319819983 ], [ -93.30512144104172, 44.94308522148944 ], [ -93.305109435234826, 44.943100598488115 ], [ -93.305105433299218, 44.94311476150957 ], [ -93.3051083632878, 44.94312796346572 ], [ -93.305121584273351, 44.943135309342033 ], [ -93.305132946606633, 44.943136562439328 ], [ -93.305144523634681, 44.943150927780636 ], [ -93.305154237069758, 44.943154145343847 ], [ -93.305156815294112, 44.94315446853323 ], [ -93.305115652527689, 44.943165798940043 ], [ -93.305099644785201, 44.943166608254728 ], [ -93.305055051788244, 44.943165798940043 ], [ -93.305035613815235, 44.943173082771814 ], [ -93.305015604137111, 44.943183603860511 ], [ -93.305009887086186, 44.943202218089652 ], [ -93.305025323123587, 44.943214357801047 ], [ -93.305034470405005, 44.943223260254442 ], [ -93.304977871601182, 44.943222450940567 ], [ -93.304860100352855, 44.943216785743026 ], [ -93.304800643023583, 44.943203027403833 ], [ -93.304687445415937, 44.943196552890129 ], [ -93.304639422188444, 44.943198980832847 ], [ -93.304600546242384, 44.943206264660411 ], [ -93.304571960987928, 44.943207073974527 ], [ -93.304551379604732, 44.943210311230871 ], [ -93.304525081170638, 44.943207073974527 ], [ -93.304486205224563, 44.94321112054493 ], [ -93.304434751766564, 44.943215976429052 ], [ -93.304391302179781, 44.943223260254456 ], [ -93.304332988260711, 44.943219213684891 ], [ -93.304247232497318, 44.94320221808966 ], [ -93.304203782910577, 44.943189269061328 ], [ -93.304176341066309, 44.943161752366443 ], [ -93.304156903093272, 44.943109956199123 ], [ -93.304150042632216, 44.943075964938906 ], [ -93.304143182171131, 44.943027405960834 ] ] ] ] } }
]
}
