{
"type": "FeatureCollection",
"name": "amon_ereb",
"crs": { "type": "name", "properties": { "name": "urn:ogc:def:crs:OGC:1.3:CRS84" } },
"features": [
{ "type": "Feature", "properties": { "id": 1 }, "geometry": { "type": "MultiPolygon", "coordinates": [ [ [ [ -93.293380345659855, 44.940001024777281 ], [ -93.293352098514973, 44.940002842472964 ], [ -93.293282764613949, 44.939980121272789 ], [ -93.293201875062735, 44.939964670851523 ], [ -93.293088886483247, 44.939960126609193 ], [ -93.293087602522135, 44.939949220426115 ], [ -93.293132541161668, 44.939944676182556 ], [ -93.293259653313598, 44.939943767333816 ], [ -93.29340217299908, 44.939939223089809 ], [ -93.293501038006127, 44.939932861147625 ], [ -93.293597335090894, 44.939933769996557 ], [ -93.29355624833471, 44.939943767333816 ], [ -93.293489482355952, 44.939952855820707 ], [ -93.293450963522034, 44.939974668183417 ], [ -93.293418864493773, 44.939991936298007 ], [ -93.293380345659855, 44.940001024777281 ] ] ] ] } }
]
}
