{
"type": "FeatureCollection",
"name": "amon_rudh",
"crs": { "type": "name", "properties": { "name": "urn:ogc:def:crs:OGC:1.3:CRS84" } },
"features": [
{ "type": "Feature", "properties": { "id": 1 }, "geometry": { "type": "MultiPolygon", "coordinates": [ [ [ [ -93.297402995881299, 44.941333380275005 ], [ -93.297378600619822, 44.941333380275005 ], [ -93.297359341202863, 44.941327927314155 ], [ -93.297295143146343, 44.941299753674826 ], [ -93.297234796973228, 44.941293391883384 ], [ -93.297232229050948, 44.941284303608683 ], [ -93.297314402563316, 44.941282485953565 ], [ -93.297394008153404, 44.941277941815528 ], [ -93.29745820620991, 44.941273397677129 ], [ -93.29756092310032, 44.941274306504837 ], [ -93.297548083489019, 44.941287030091239 ], [ -93.297460774132176, 44.941290665401127 ], [ -93.297402995881299, 44.941333380275005 ] ] ] ] } }
]
}
