{
"type": "FeatureCollection",
"name": "andram",
"crs": { "type": "name", "properties": { "name": "urn:ogc:def:crs:OGC:1.3:CRS84" } },
"features": [
{ "type": "Feature", "properties": { "id": 1 }, "geometry": { "type": "MultiPolygon", "coordinates": [ [ [ [ -93.297013670334096, 44.940426969892521 ], [ -93.297233940999121, 44.940428585610036 ], [ -93.297283016846777, 44.940429393468776 ], [ -93.297272745157727, 44.940441511348489 ], [ -93.297229375803994, 44.940441511348489 ], [ -93.297180299956352, 44.940470594254577 ], [ -93.297123805666615, 44.940489982841818 ], [ -93.297086713456181, 44.940488367126029 ], [ -93.296978860721211, 44.940474633540028 ], [ -93.296979288708272, 44.9404848327476 ], [ -93.296943765783666, 44.940487256321418 ], [ -93.296932638120538, 44.940492709362111 ], [ -93.296899255131152, 44.940511189107291 ], [ -93.296983140591678, 44.940533607150826 ], [ -93.296947189680026, 44.940552995721973 ], [ -93.296868725388677, 44.940561882148216 ], [ -93.296831062528852, 44.940556227149855 ], [ -93.296744323821372, 44.940531183578969 ], [ -93.296570846406411, 44.940510179285297 ], [ -93.296533183546586, 44.940501292851032 ], [ -93.296375684314626, 44.940486751410198 ], [ -93.296183946119129, 44.94046978639124 ], [ -93.296177098326439, 44.940459284234137 ], [ -93.296098348710444, 44.940399502687839 ], [ -93.296027588185936, 44.940361533295061 ], [ -93.295871230252715, 44.940352646837781 ], [ -93.295805034923347, 44.940349415398437 ], [ -93.295708024526789, 44.940345376099003 ], [ -93.295614438026647, 44.940318716715602 ], [ -93.295434112819009, 44.940321140296419 ], [ -93.295382754373804, 44.940318716715581 ], [ -93.295288026574852, 44.940292865180453 ], [ -93.295235526830822, 44.940293673041118 ], [ -93.295162483708751, 44.940288018016332 ], [ -93.295088299287897, 44.940272668660555 ], [ -93.294990147592586, 44.940241969936665 ], [ -93.294890854598506, 44.940238738491097 ], [ -93.294783572512941, 44.94023065987637 ], [ -93.294700257701805, 44.940208847610926 ], [ -93.294582703927219, 44.940219349813837 ], [ -93.294482269634329, 44.940191882509843 ], [ -93.294366998457321, 44.940187035337175 ], [ -93.294271129359558, 44.940161991605272 ], [ -93.294093086749484, 44.940142602902093 ], [ -93.293980098170024, 44.940136947862435 ], [ -93.293936728816291, 44.940122406329316 ], [ -93.293943576608996, 44.940094938978937 ], [ -93.293687925681695, 44.940044851423856 ], [ -93.293689066980491, 44.940035157053309 ], [ -93.293843142316121, 44.940014152578172 ], [ -93.29402232622499, 44.940001226743476 ], [ -93.294218629615571, 44.939997187419557 ], [ -93.294231183902198, 44.939997995284372 ], [ -93.294241455591219, 44.940044851423856 ], [ -93.294344172481672, 44.940067471615428 ], [ -93.29443890028061, 44.940119174877019 ], [ -93.294579280030845, 44.94014017931373 ], [ -93.294761887836088, 44.940158760155192 ], [ -93.29499585408648, 44.940181380301915 ], [ -93.295115690458672, 44.940198345406088 ], [ -93.295347374111515, 44.940205616163489 ], [ -93.295479764770292, 44.940246817104693 ], [ -93.29563041620959, 44.940258935022953 ], [ -93.295745687386628, 44.940271052938655 ], [ -93.296019599094436, 44.940268629355721 ], [ -93.296210195991094, 44.940292057319802 ], [ -93.296366553924329, 44.940327603178105 ], [ -93.296569705107601, 44.940347799678712 ], [ -93.296671280699243, 44.940415659868655 ], [ -93.296743182522547, 44.940422122739712 ], [ -93.297013670334096, 44.940426969892521 ] ] ] ] } },
{ "type": "Feature", "properties": { "id": 1 }, "geometry": { "type": "MultiPolygon", "coordinates": [ [ [ [ -93.297366331657855, 44.940585309992649 ], [ -93.297328954122747, 44.940583896243687 ], [ -93.297295571133361, 44.940580260889057 ], [ -93.29725876424763, 44.940579654996597 ], [ -93.297220245413712, 44.940572990179099 ], [ -93.297263044118068, 44.940546330901377 ], [ -93.29726561204032, 44.94051543035944 ], [ -93.29731269061503, 44.940505332139509 ], [ -93.297367472956608, 44.940498869277818 ], [ -93.297410842310342, 44.940494829988893 ], [ -93.297583178426507, 44.940565921432416 ], [ -93.297721275579192, 44.940598235695816 ], [ -93.297905024683189, 44.940633781364568 ], [ -93.29801230676874, 44.940649938479446 ], [ -93.298254262110632, 44.940650746335074 ], [ -93.298275946787513, 44.940649938479446 ], [ -93.29828735977533, 44.94068709982642 ], [ -93.298312468348541, 44.940713759038772 ], [ -93.298338718220521, 44.940734763257964 ], [ -93.298354696403507, 44.94076788528033 ], [ -93.29832958783031, 44.940787273772365 ], [ -93.298270240293647, 44.940814740791517 ], [ -93.298234860031371, 44.940816356498118 ], [ -93.298093338982326, 44.940777579527172 ], [ -93.298038556640776, 44.940774348111738 ], [ -93.298006600274874, 44.940762230302262 ], [ -93.297983774299198, 44.940749304636 ], [ -93.297897035591745, 44.940723453294751 ], [ -93.297862796628266, 44.940736378966832 ], [ -93.297829698963568, 44.940736378966832 ], [ -93.29773382986582, 44.940714566893497 ], [ -93.29762084128636, 44.940726684713056 ], [ -93.297564917646014, 44.940716990457616 ], [ -93.297429103090892, 44.940695178376927 ], [ -93.297419972700638, 44.940653977757457 ], [ -93.297505570109323, 44.940625702805434 ], [ -93.297423396596969, 44.9406079299713 ], [ -93.297366331657855, 44.940585309992649 ] ] ] ] } }
]
}
