{
"type": "FeatureCollection",
"name": "ered_gorgoroth",
"crs": { "type": "name", "properties": { "name": "urn:ogc:def:crs:OGC:1.3:CRS84" } },
"features": [
{ "type": "Feature", "properties": { "id": 1 }, "geometry": { "type": "MultiPolygon", "coordinates": [ [ [ [ -93.296053988078512, 44.942607703064077 ], [ -93.295975182891652, 44.942604542507361 ], [ -93.295900182726683, 44.942618804476226 ], [ -93.295765854073011, 44.942620389139222 ], [ -93.295627047797538, 44.942612465823842 ], [ -93.295574435741514, 44.942600580848719 ], [ -93.295524062496398, 44.942622766133617 ], [ -93.295375181571885, 44.942624350796493 ], [ -93.29531361427226, 44.942638612760433 ], [ -93.295221823025599, 44.94267189066251 ], [ -93.295156897509671, 44.942667136677677 ], [ -93.295087494371927, 44.942694075919832 ], [ -93.295015852423319, 44.942704376214962 ], [ -93.294853538633433, 44.942692491258882 ], [ -93.294870329715152, 44.942658421037791 ], [ -93.294786374306582, 44.942625935459326 ], [ -93.294823314686354, 44.942584734211408 ], [ -93.294846822200739, 44.942576810891111 ], [ -93.294925180582055, 44.94259899618519 ], [ -93.294940852258335, 44.942578395555259 ], [ -93.29496547917816, 44.942555417920858 ], [ -93.294982693879291, 44.942505144535112 ], [ -93.295013522489356, 44.942452774151775 ], [ -93.295283272827277, 44.942441863649243 ], [ -93.295338764325379, 44.94245822940227 ], [ -93.295369592935401, 44.942426588942197 ], [ -93.29549444880611, 44.942416769485533 ], [ -93.295591558927782, 44.942416769485533 ], [ -93.295693293340918, 44.942408041078188 ], [ -93.295767282005045, 44.942413496332939 ], [ -93.295830480655653, 44.942411314231094 ], [ -93.295895220736767, 44.94241022318014 ], [ -93.296120269590105, 44.942412405282028 ], [ -93.296294451236889, 44.94241022318014 ], [ -93.296340694151965, 44.942380764796702 ], [ -93.296490212910712, 44.942369854280471 ], [ -93.296568825866345, 44.942366581125199 ], [ -93.296548787269799, 44.942435317346714 ], [ -93.296453218578634, 44.942502962436762 ], [ -93.296399268511067, 44.942522601318942 ], [ -93.296229711155803, 44.942560788015058 ], [ -93.296053988078512, 44.942607703064077 ] ] ] ] } }
]
}
