{
"type": "FeatureCollection",
"name": "little_gelion",
"crs": { "type": "name", "properties": { "name": "urn:ogc:def:crs:OGC:1.3:CRS84" } },
"features": [
{ "type": "Feature", "properties": { "id": 1 }, "geometry": { "type": "MultiLineString", "coordinates": [ [ [ -93.293167350311819, 44.942492672613341 ], [ -93.293132147092152, 44.942465574100481 ], [ -93.293086345555693, 44.942450405537095 ], [ -93.293046006587758, 44.942444754502645 ], [ -93.29299348188998, 44.942444457079766 ], [ -93.292953142922059, 44.942423637474278 ], [ -93.292936335018766, 44.942395084860188 ], [ -93.292867422615259, 44.942391218359276 ], [ -93.292805793636489, 44.942376347199477 ], [ -93.292786744679432, 44.942357014685982 ], [ -93.292778900991209, 44.942331931979282 ], [ -93.292792627445635, 44.942297827411878 ], [ -93.292812376731987, 44.942281171685558 ], [ -93.292820733994986, 44.942264251577676 ], [ -93.292911123163833, 44.942220794637109 ], [ -93.292952209149647, 44.942188111030489 ], [ -93.292952209149647, 44.942145810682867 ], [ -93.292946419760725, 44.942109260513654 ], [ -93.292874986171711, 44.942077138645907 ], [ -93.29281909989335, 44.942048585859489 ], [ -93.292793467840809, 44.942040257960777 ], [ -93.292751027884975, 44.942014084556959 ], [ -93.292722454449361, 44.941985531739192 ], [ -93.292654802638609, 44.941943892187808 ] ] ] } }
]
}
