{
"type": "FeatureCollection",
"name": "river_gelion",
"crs": { "type": "name", "properties": { "name": "urn:ogc:def:crs:OGC:1.3:CRS84" } },
"features": [
{ "type": "Feature", "properties": { "id": 1 }, "geometry": { "type": "MultiLineString", "coordinates": [ [ [ -93.292660009140818, 44.941941994281557 ], [ -93.292627909993357, 44.941929318337692 ], [ -93.292604752437597, 44.941913356497572 ], [ -93.292586824007429, 44.94189379249724 ], [ -93.292563759829022, 44.941860282521226 ], [ -93.29256973597245, 44.941815866901777 ], [ -93.29263589374743, 44.941771385153224 ], [ -93.292687157852484, 44.941735991404457 ], [ -93.29269220022347, 44.941702679620981 ], [ -93.292683282696899, 44.9416783897667 ], [ -93.292667408566118, 44.941657470741063 ], [ -93.292659378123318, 44.94163397400655 ], [ -93.292674318481829, 44.941570522860992 ], [ -93.29269388101379, 44.941542663820243 ], [ -93.292697242594443, 44.941516490189578 ], [ -93.292690519433123, 44.941497752242114 ], [ -93.292653401979948, 44.9414541955787 ], [ -93.292647425836535, 44.941394974326272 ], [ -93.292603538533584, 44.941370155580088 ], [ -93.292575712115806, 44.941337868060721 ], [ -93.292559837985024, 44.941313346718587 ], [ -93.292545131069616, 44.941274383540247 ], [ -93.292535466525237, 44.94122501031444 ], [ -93.292521926825245, 44.941202504833988 ], [ -93.292474537875776, 44.941163442437229 ], [ -93.292432097919956, 44.94113310461838 ], [ -93.292392179149616, 44.94111258196714 ], [ -93.292360664330957, 44.941086705570321 ], [ -93.292314442596876, 44.941033168160565 ], [ -93.292266960270069, 44.941001045690754 ], [ -93.292229095798945, 44.94096138829584 ], [ -93.292229562685222, 44.940928472637225 ], [ -93.292246790786123, 44.940879991406923 ], [ -93.292243849403022, 44.940852330318521 ], [ -93.292242588810282, 44.940829428116963 ], [ -93.292219477943249, 44.940799090121629 ], [ -93.292205191225378, 44.940766802281104 ], [ -93.292202670039956, 44.940722352767729 ], [ -93.292211914386755, 44.940688445532167 ], [ -93.292227461697308, 44.940664056104744 ], [ -93.292229095798945, 44.940625092485789 ], [ -93.292226621302135, 44.940573636673605 ], [ -93.292217797152929, 44.940555195851097 ], [ -93.292199308459288, 44.940543298543112 ], [ -93.292196227010294, 44.940493957736749 ], [ -93.292193238938594, 44.940453771221449 ], [ -93.292208179297077, 44.940422045005278 ], [ -93.292207292213334, 44.940386253846576 ], [ -93.292216956757741, 44.940359484821364 ], [ -93.292265699677301, 44.940305054431612 ], [ -93.29229679429838, 44.940275311027428 ], [ -93.292317383979935, 44.940250326556004 ], [ -93.292322846548487, 44.940195896062754 ], [ -93.29231192141134, 44.940160501342746 ], [ -93.292302256866975, 44.940123024556591 ], [ -93.292333678308339, 44.940041329043858 ], [ -93.292379573222121, 44.939999886372732 ], [ -93.292421733046211, 44.939964689822368 ], [ -93.292456189247929, 44.939914423162392 ], [ -93.292479090016215, 44.939890082978771 ], [ -93.292509624373878, 44.939866089793846 ], [ -93.292552484527306, 44.939840311980696 ], [ -93.292615794296395, 44.93978280758656 ], [ -93.292667058401449, 44.939744735680151 ], [ -93.292702074866668, 44.939716380025118 ], [ -93.292751378049687, 44.939678506366121 ], [ -93.292781889062908, 44.93965003500842 ], [ -93.292814967950491, 44.939635080516958 ], [ -93.292825332824179, 44.939625364226572 ], [ -93.292828414273117, 44.939570437411234 ], [ -93.292839899673709, 44.939554177477476 ], [ -93.292858108235606, 44.939538908998919 ], [ -93.292935144459065, 44.939496276212573 ], [ -93.292944108674163, 44.939476050414498 ], [ -93.292947190123101, 44.939445711704032 ], [ -93.292953353020991, 44.939412596884104 ], [ -93.292961173364702, 44.939360264193311 ], [ -93.292976884085633, 44.939331098653128 ], [ -93.293007138311566, 44.939310476211375 ], [ -93.293012740945997, 44.93927319716326 ], [ -93.293001815808864, 44.939241470294739 ], [ -93.293023922870333, 44.939184708900505 ], [ -93.29302982898102, 44.939147479343838 ], [ -93.293041851300529, 44.939110679399278 ], [ -93.293046636884299, 44.939087198146666 ], [ -93.29305896268005, 44.939072127837484 ], [ -93.293058682548335, 44.939055272881738 ], [ -93.293059779730712, 44.939013383338207 ], [ -93.29308585532533, 44.938963661153402 ], [ -93.293086975852219, 44.938902388292483 ], [ -93.293088096379137, 44.938860746505021 ], [ -93.293094539408727, 44.938826639875671 ], [ -93.293095659935602, 44.938792334931506 ], [ -93.293088376510838, 44.938759021440099 ], [ -93.293085855325344, 44.938728087466487 ], [ -93.293070448080641, 44.938693187578821 ], [ -93.29307016794894, 44.938622594559376 ], [ -93.29304943820155, 44.938591660512252 ], [ -93.293039913723021, 44.93856052815314 ], [ -93.293044839372243, 44.938524785408319 ], [ -93.293062767802425, 44.938442294438502 ], [ -93.293062767802425, 44.938347112402973 ], [ -93.293054200440835, 44.938311072080218 ], [ -93.293021425029394, 44.938250790004936 ], [ -93.292997030225095, 44.938186360162504 ], [ -93.292991054081682, 44.93813771136945 ], [ -93.292991170803461, 44.938099291352131 ], [ -93.292998734359941, 44.938067563834963 ], [ -93.293026910942046, 44.938021377131967 ], [ -93.293062324260774, 44.937995185370781 ], [ -93.293083614271637, 44.93797357096242 ], [ -93.293107145336222, 44.937916857888951 ], [ -93.293122832712669, 44.937882552401234 ], [ -93.293147764435844, 44.937861731141474 ], [ -93.293190064325813, 44.937845272426038 ], [ -93.293221719210393, 44.937829408599455 ], [ -93.293259256861077, 44.937790542205825 ], [ -93.293273823710592, 44.937771703893318 ], [ -93.293293713062837, 44.937759607710461 ], [ -93.293334892425904, 44.937740174493307 ], [ -93.293400419904174, 44.93771256146735 ], [ -93.293418348334356, 44.937699870377116 ], [ -93.293454788802791, 44.937658475590055 ], [ -93.293532385289708, 44.937632696785791 ], [ -93.293576716134311, 44.937615263037166 ], [ -93.293623988362668, 44.937607711164446 ], [ -93.293646398900407, 44.93759739963501 ], [ -93.293660125354762, 44.937584311921903 ], [ -93.293687274787075, 44.937570844133781 ], [ -93.293720073543184, 44.937566663334351 ], [ -93.293747036221035, 44.937558153012212 ], [ -93.293787585288129, 44.937539099799132 ], [ -93.293824726085148, 44.937511618875838 ], [ -93.293842654515345, 44.937488351793498 ] ] ] } }
]
}
