{
"type": "FeatureCollection",
"name": "river_esgalduin",
"crs": { "type": "name", "properties": { "name": "urn:ogc:def:crs:OGC:1.3:CRS84" } },
"features": [
{ "type": "Feature", "properties": { "id": 1 }, "geometry": { "type": "MultiLineString", "coordinates": [ [ [ -93.294935972674836, 44.942583695760469 ], [ -93.294923100110125, 44.942572976471659 ], [ -93.294932186626397, 44.942560113322443 ], [ -93.29493370104575, 44.942541890522797 ], [ -93.294937487094202, 44.942520987892536 ], [ -93.294957931755789, 44.942508124731674 ], [ -93.294975347578614, 44.942490973846027 ], [ -93.294980648046419, 44.942451848369004 ], [ -93.294998821078934, 44.942420226388613 ], [ -93.295017751321126, 44.942403611442806 ], [ -93.295048039708647, 44.942388068424627 ], [ -93.295072270418643, 44.942364485906239 ], [ -93.295096501128654, 44.942334471777919 ], [ -93.295115431370874, 44.942298026029576 ], [ -93.295140419290561, 44.942235317849615 ], [ -93.295156320693977, 44.942198336070341 ], [ -93.295169193258715, 44.942161890235568 ], [ -93.295188123500907, 44.942141523435502 ], [ -93.295216897469032, 44.942126516315007 ], [ -93.295241128179029, 44.942116332909599 ], [ -93.295263087259983, 44.94210078981363 ], [ -93.29528428913126, 44.942092750279592 ], [ -93.295303976583128, 44.942079351053685 ], [ -93.295322149615643, 44.942064343916947 ], [ -93.295340322648144, 44.942038617387709 ], [ -93.29536531056786, 44.942007531149507 ], [ -93.295363038938788, 44.942001099511899 ], [ -93.295363796148465, 44.941965189522101 ], [ -93.295369096616255, 44.941951254296129 ], [ -93.295378940342204, 44.941939998918848 ], [ -93.295382726390642, 44.941881042144594 ], [ -93.295397113374719, 44.941849955821056 ], [ -93.295397113374719, 44.941808686020707 ], [ -93.295411500358824, 44.94178349534878 ], [ -93.295411500358824, 44.94175026508379 ], [ -93.295406199891005, 44.941727754248191 ], [ -93.295406199891005, 44.941715962854595 ], [ -93.295416043616939, 44.941700419650239 ], [ -93.295417558036306, 44.941666117391257 ], [ -93.295422101294434, 44.941654325985006 ], [ -93.295438002697892, 44.941630207191935 ], [ -93.295455418520717, 44.941607696309262 ], [ -93.295478892021038, 44.94159268904923 ], [ -93.295503122731034, 44.941579289706624 ], [ -93.295530382279807, 44.941557314777967 ], [ -93.295549312521999, 44.94154391542709 ], [ -93.29562276186175, 44.941520332561957 ], [ -93.295853710816559, 44.941519796587627 ], [ -93.295874155478103, 44.941514972818524 ], [ -93.295908229914076, 44.941503181381222 ], [ -93.296024082996311, 44.941501573457778 ], [ -93.296052099754775, 44.941498893585255 ], [ -93.296172496095139, 44.941467807054806 ], [ -93.296227772402332, 44.941468343029605 ], [ -93.296275476612692, 44.941476918625824 ], [ -93.296348168742739, 44.941497821636212 ], [ -93.296398144582128, 44.941497285661676 ], [ -93.296475379970289, 44.941472630827874 ], [ -93.296510968825615, 44.941461911331622 ], [ -93.296535199535626, 44.94145440768304 ], [ -93.296552615358479, 44.941452799758224 ], [ -93.296570788390952, 44.94144958390843 ], [ -93.296588961423467, 44.941436720507525 ], [ -93.296616220972226, 44.941409921746363 ], [ -93.296623603766704, 44.941403758029537 ] ], [ [ -93.295332561248898, 44.942440593089842 ], [ -93.295322338918098, 44.942426122013394 ], [ -93.295328017990769, 44.942407631188189 ], [ -93.295326882176226, 44.942369845570347 ], [ -93.295320067289055, 44.942362610023672 ], [ -93.295309844958254, 44.942342511278106 ], [ -93.29529735099841, 44.942336079678036 ], [ -93.295288264482153, 44.942331255977521 ], [ -93.295282585409495, 44.942323216475749 ], [ -93.295273498893238, 44.942317588823826 ], [ -93.295266684006023, 44.942311961171363 ], [ -93.295263276562437, 44.942303117716385 ], [ -93.295251918417151, 44.942295882161297 ], [ -93.295239424457264, 44.942293470309394 ], [ -93.295225794682878, 44.942289450556018 ], [ -93.295198535134119, 44.942266939931827 ], [ -93.29514337714096, 44.942232068545671 ] ] ] } }
]
}
