{
"type": "FeatureCollection",
"name": "river_celebros",
"crs": { "type": "name", "properties": { "name": "urn:ogc:def:crs:OGC:1.3:CRS84" } },
"features": [
{ "type": "Feature", "properties": { "id": 1 }, "geometry": { "type": "MultiLineString", "coordinates": [ [ [ -93.297678246260645, 44.941892576861427 ], [ -93.297689503521326, 44.941865050504276 ], [ -93.297708947880665, 44.941850562942591 ], [ -93.297721228528644, 44.941835350998879 ], [ -93.297725322077994, 44.941820139051124 ], [ -93.297734532563993, 44.941798407690207 ], [ -93.297744766437333, 44.941788990764593 ], [ -93.297746813212015, 44.941757842461165 ], [ -93.297752953536005, 44.941740457354229 ], [ -93.297759093860023, 44.941722347862218 ], [ -93.29776133251984, 44.94169889606161 ] ] ] } }
]
}
