{
"type": "FeatureCollection",
"name": "taur_im_duinath",
"crs": { "type": "name", "properties": { "name": "urn:ogc:def:crs:OGC:1.3:CRS84" } },
"features": [
{ "type": "Feature", "properties": { "id": 1 }, "geometry": { "type": "MultiPolygon", "coordinates": [ [ [ [ -93.294663710216184, 44.939799972617664 ], [ -93.294601624726482, 44.939783286790203 ], [ -93.294557799674905, 44.939736284433337 ], [ -93.294499366272817, 44.93973816452835 ], [ -93.294447573030084, 44.939729704100309 ], [ -93.294374531277498, 44.939773886321909 ], [ -93.294248368250308, 44.939776706462553 ], [ -93.294212511389944, 44.939796447443214 ], [ -93.294138141605487, 44.939807728000552 ], [ -93.294038539215592, 44.939809608093221 ], [ -93.294007994482655, 44.939750385144443 ], [ -93.293974793686033, 44.939722183718779 ], [ -93.294000026291499, 44.939699622568284 ], [ -93.294000026291499, 44.939666720874577 ], [ -93.294042523311177, 44.939625358718608 ], [ -93.294232431867925, 44.939618778372854 ], [ -93.294277584951345, 44.939610317927219 ], [ -93.294280241015059, 44.939568955730614 ], [ -93.294351954735816, 44.939568015680358 ], [ -93.294345314576461, 44.939548274621146 ], [ -93.294264304632676, 44.939539814165123 ], [ -93.294241728090981, 44.939532293758717 ], [ -93.294239072027253, 44.939553914924467 ], [ -93.294213839421786, 44.939567075630066 ], [ -93.29417267043398, 44.939559555227234 ], [ -93.294138141605487, 44.939528533555155 ], [ -93.294112909000049, 44.939473070523889 ], [ -93.294018618737596, 44.939474010575715 ], [ -93.293973465654176, 44.939487171299625 ], [ -93.293936280761969, 44.939444868962021 ], [ -93.293917688315844, 44.939482471041437 ], [ -93.293893783742249, 44.93946743021263 ], [ -93.293891127678506, 44.93950785243112 ], [ -93.29387253523241, 44.939521013147271 ], [ -93.293853942786313, 44.939489051402802 ], [ -93.29381941395782, 44.93949375166045 ], [ -93.293787541193041, 44.939502212123273 ], [ -93.293722467631625, 44.939504092225938 ], [ -93.293650753910896, 44.939489051402802 ], [ -93.293612240986803, 44.939451449327684 ], [ -93.293557791680271, 44.939415727333547 ], [ -93.29353521513859, 44.939377185157042 ], [ -93.293614897050489, 44.939310441326761 ], [ -93.293600288699963, 44.939294460398131 ], [ -93.293583024285695, 44.939249807779881 ], [ -93.293624193273587, 44.939160032410712 ], [ -93.293713835424469, 44.939118199860914 ], [ -93.293802149543509, 44.93912901052277 ], [ -93.293879839407651, 44.939130890637671 ], [ -93.293903743981232, 44.939138881125295 ], [ -93.293945576984967, 44.939137236025005 ], [ -93.293947237024824, 44.939104334009038 ], [ -93.293921340403443, 44.939097518589094 ], [ -93.293839666443688, 44.939044875318075 ], [ -93.293839002427774, 44.938995992237487 ], [ -93.29370885530497, 44.938986591640301 ], [ -93.293670342380878, 44.938999752475929 ], [ -93.29364510977544, 44.93904299520036 ], [ -93.293617885122202, 44.93904863555332 ], [ -93.293569411959098, 44.939027484226862 ], [ -93.29351429863668, 44.939036884817362 ], [ -93.293459185314262, 44.939050515670836 ], [ -93.293422000422055, 44.939035474728882 ], [ -93.293303141570178, 44.939045345347502 ], [ -93.293267284709813, 44.938997402326933 ], [ -93.293275916916912, 44.938957449779217 ], [ -93.293322398032217, 44.938952279447477 ], [ -93.293301149522335, 44.938913266929383 ], [ -93.293260644550443, 44.93885498311802 ], [ -93.293231427849435, 44.93883477178251 ], [ -93.293247364231817, 44.938803749718836 ], [ -93.293317085904746, 44.938760506814234 ], [ -93.293313765825062, 44.938726194486314 ], [ -93.293224787690079, 44.938710213395083 ], [ -93.293211507371439, 44.938693292234802 ], [ -93.293222131626337, 44.938610566490581 ], [ -93.293288533219609, 44.93853160089629 ], [ -93.293291189283394, 44.938448874919104 ], [ -93.293324390080016, 44.938424433130315 ], [ -93.293327046143744, 44.938363328612802 ], [ -93.293280565028482, 44.938314444951992 ], [ -93.293276580932869, 44.938234538878326 ], [ -93.293409384119386, 44.938207276780695 ], [ -93.293425320501782, 44.938243939598642 ], [ -93.293474457680787, 44.938192235617848 ], [ -93.293478441776372, 44.938102928632276 ], [ -93.29351297060488, 44.938085067218495 ], [ -93.293507658477424, 44.938031482943806 ], [ -93.293554139592672, 44.937991999762026 ], [ -93.293508986509266, 44.937920553935513 ], [ -93.293461177362104, 44.937902692465002 ], [ -93.293461177362104, 44.937883890911081 ], [ -93.293497034222469, 44.937842527470799 ], [ -93.293559451720142, 44.937795523525232 ], [ -93.293668350333121, 44.937754160021292 ], [ -93.293717487512126, 44.937762620740436 ], [ -93.293721471607711, 44.937810564791995 ], [ -93.293795841392182, 44.937809624712948 ], [ -93.293806465647108, 44.937769201298899 ], [ -93.293790529264697, 44.937734418338458 ], [ -93.293712175384655, 44.937717496890627 ], [ -93.293692254906659, 44.937708096084101 ], [ -93.293713503416541, 44.937656391620806 ], [ -93.293759984531803, 44.937604687110941 ], [ -93.293775920914229, 44.937577189693563 ], [ -93.293860914953612, 44.937552277492081 ], [ -93.293874195272267, 44.937504333224837 ], [ -93.293911380164474, 44.937486941667039 ], [ -93.296459873314049, 44.937485531540482 ], [ -93.296499050254042, 44.937498692720183 ], [ -93.296512330572725, 44.937532535739827 ], [ -93.29665310195044, 44.937521254735486 ], [ -93.296722159607427, 44.937526895237937 ], [ -93.296777936945787, 44.937547577075492 ], [ -93.2967885612007, 44.937581420066323 ], [ -93.2967885612007, 44.937628424187153 ], [ -93.29679918545564, 44.937660386967366 ], [ -93.296823090029221, 44.937713031507727 ], [ -93.296833714284148, 44.937735593438816 ], [ -93.296815121838009, 44.937776956956128 ], [ -93.296751376308478, 44.937782597433447 ], [ -93.296711535352529, 44.937839002176233 ], [ -93.29665310195044, 44.937833361704442 ], [ -93.296637165568072, 44.93786532437057 ], [ -93.296647789822998, 44.937880365619044 ], [ -93.29669028684269, 44.937910448104205 ], [ -93.296714191416271, 44.937949931342047 ], [ -93.29673543992611, 44.937983774095734 ], [ -93.29669028684269, 44.938030777887221 ], [ -93.296642477695542, 44.938043938941938 ], [ -93.296610604930763, 44.938102223576585 ], [ -93.296568107911085, 44.938136066240503 ], [ -93.296522954827665, 44.938183069907318 ], [ -93.296467177489305, 44.938211272088942 ], [ -93.296406088023517, 44.938239474256704 ], [ -93.296379527386193, 44.938295878550676 ], [ -93.296424680469627, 44.93832220053558 ], [ -93.296456553234378, 44.938363563630311 ], [ -93.296427336533355, 44.938404926695256 ], [ -93.296477801744231, 44.938461330826719 ], [ -93.296499050254084, 44.938532775980335 ], [ -93.296514986636467, 44.938577899189468 ], [ -93.296522954827665, 44.938621142231604 ], [ -93.296483113871673, 44.938632423019833 ], [ -93.296440616851996, 44.938694467315564 ], [ -93.296477801744231, 44.938726429502353 ], [ -93.296501706317784, 44.938784713444207 ], [ -93.296451241106894, 44.938820435830934 ], [ -93.296331718239045, 44.938822315955932 ], [ -93.296244068135906, 44.938837356953755 ], [ -93.296297189410538, 44.938878719677369 ], [ -93.296323750047847, 44.938905041395081 ], [ -93.296334374302745, 44.938967085396236 ], [ -93.296342342493944, 44.938995287192775 ], [ -93.296352966748884, 44.939025369093812 ], [ -93.296267972709487, 44.939070491915821 ], [ -93.296182978670117, 44.939104334009059 ], [ -93.296172354415177, 44.939128775508436 ], [ -93.296198915052486, 44.939156977225544 ], [ -93.296190946861287, 44.939198339718935 ], [ -93.296113921013131, 44.93923970218254 ], [ -93.296079392184609, 44.939264143624293 ], [ -93.296151105905338, 44.939281064616338 ], [ -93.296172354415177, 44.939399511421001 ], [ -93.296116577076859, 44.939435233425236 ], [ -93.295946588998106, 44.939487876338355 ], [ -93.295848314640054, 44.939546159507287 ], [ -93.295718167517265, 44.939621363508813 ], [ -93.295588020394447, 44.939694687315466 ], [ -93.295481777845211, 44.939692807219025 ], [ -93.295407408060782, 44.939698447508142 ], [ -93.295277260937965, 44.939675886348319 ], [ -93.295176330516185, 44.939702207700599 ], [ -93.295115241050397, 44.939741689706374 ], [ -93.29499571818252, 44.939766130934437 ], [ -93.29491338020685, 44.939773651310212 ], [ -93.294820417976283, 44.939818773544168 ], [ -93.294663710216184, 44.939799972617664 ] ] ] ] } }
]
}
