{
"type": "FeatureCollection",
"name": "bindbole_wood",
"crs": { "type": "name", "properties": { "name": "urn:ogc:def:crs:OGC:1.3:CRS84" } },
"features": [
{"type":"Feature","properties":{"id":1},"geometry":{"type":"MultiPolygon","coordinates":[[[[-93.285579440774725,44.942707304851773],[-93.285577983937515,44.942719678878916],[-93.285250195564998,44.94272071004773],[-93.285052065704264,44.942723803554046],[-93.2848481084947,44.942722772385288],[-93.28479566235508,44.942725865891497],[-93.284789835006222,44.942715554203488],[-93.284757784587597,44.942699055498856],[-93.284766525610863,44.942680494450478],[-93.284785464494576,44.942655746376623],[-93.28479566235508,44.942626873610308],[-93.284769439285284,44.942605219026042],[-93.284762155099216,44.94258459560487],[-93.284788378169026,44.942568096862601],[-93.284794205517869,44.942544379912277],[-93.284786921331801,44.942528912330687],[-93.284746129889911,44.942515507089944],[-93.284714079471243,44.942502101846095],[-93.284690770075883,44.942474260175743],[-93.284684942727012,44.942449512012985],[-93.284706795285175,44.942419607968766],[-93.284722820494508,44.942416514446052],[-93.284775266634099,44.942416514446052],[-93.284769439285284,44.942368049235242],[-93.284789835006222,44.942318552807507],[-93.284816058076032,44.942310303398727],[-93.284846651657475,44.942292773401157],[-93.284880158913325,44.942279368105275],[-93.284935518727352,44.942262869275275],[-93.285003990076262,44.94225152632692],[-93.285046238355406,44.942252557504126],[-93.285088486634535,44.942265962806268],[-93.285097227657786,44.942284523988675],[-93.285119080215978,44.942298960459738],[-93.285124907564807,44.942308241046355],[-93.285094313983393,44.94233298927],[-93.285145303285788,44.942337113972904],[-93.285181724216073,44.942360831008848],[-93.28518318105327,44.942387641559442],[-93.285199206262604,44.942407233876949],[-93.285199206262604,44.942424763839568],[-93.28520940412308,44.942447449665615],[-93.285302641704575,44.942448480839303],[-93.285331778448807,44.942490758944984],[-93.285360915193039,44.942496945982221],[-93.28539005193727,44.942514475917463],[-93.285429386541978,44.942542317568304],[-93.285442498076875,44.942539224052211],[-93.285468721146685,44.942534068191691],[-93.285499314728099,44.942534068191691],[-93.285535735658371,44.942534068191691],[-93.285575070263079,44.942542317568304],[-93.285626059565473,44.942544379912277],[-93.285655196309705,44.942580470919744],[-93.28563771426316,44.942596969658474],[-93.285602750170099,44.942606250196917],[-93.285582354449147,44.942624811269312],[-93.285559045053745,44.942650590526561],[-93.285575070263079,44.94266708924512],[-93.285579440774725,44.942707304851773]]]]}}
]
}
