{
"type": "FeatureCollection",
"name": "birchwoods_of_nimbrethil",
"crs": { "type": "name", "properties": { "name": "urn:ogc:def:crs:OGC:1.3:CRS84" } },
"features": [
{ "type": "Feature", "properties": { "id": 1 }, "geometry": { "type": "MultiPolygon", "coordinates": [ [ [ [ -93.298169382332603, 44.939275659299931 ], [ -93.298121573185455, 44.939234766890124 ], [ -93.29805981970371, 44.939230536639158 ], [ -93.298039899225728, 44.939258738306307 ], [ -93.297988105982995, 44.939258738306307 ], [ -93.297968185504999, 44.93923335680649 ], [ -93.297944280931432, 44.939238997140762 ], [ -93.297904439975468, 44.939258738306307 ], [ -93.297770972773009, 44.93925732822327 ], [ -93.29776499662961, 44.939216435800397 ], [ -93.29780085348996, 44.939210795463914 ], [ -93.297816789872343, 44.939193874451178 ], [ -93.297852646732707, 44.939168492922697 ], [ -93.297876551306288, 44.939143111382997 ], [ -93.298290897248279, 44.93899364208832 ], [ -93.298362610969022, 44.938971080651555 ], [ -93.298398467829372, 44.938997872356722 ], [ -93.298478149741271, 44.93899364208832 ], [ -93.298555839605413, 44.93899364208832 ], [ -93.298597672609191, 44.939041585112015 ], [ -93.298621577182729, 44.939072607047187 ], [ -93.298599664656976, 44.939112089485917 ], [ -93.298527950936247, 44.939117729832084 ], [ -93.298280937009281, 44.939213615632234 ], [ -93.2982590244835, 44.93923335680649 ], [ -93.298209223288566, 44.939262968555177 ], [ -93.298169382332603, 44.939275659299931 ] ] ] ] } }
]
}
