{
"type": "FeatureCollection",
"name": "brandywine",
"crs": { "type": "name", "properties": { "name": "urn:ogc:def:crs:OGC:1.3:CRS84" } },
"features": [
{"type":"Feature","properties":{"id":1},"geometry":{"type":"MultiLineString","coordinates":[[[-93.280793730535805,44.941941656734159],[-93.280775975332276,44.94193914322603],[-93.280727626547332,44.941917681729237],[-93.28069812559383,44.941892159938796],[-93.280666166227519,44.941855037314284],[-93.280655513105387,44.941839956241225],[-93.280658790989122,44.941803993666376],[-93.280663707814711,44.941754110057538],[-93.280666985698403,44.941739802347797]]]}},
{"type":"Feature","properties":{"id":1},"geometry":{"type":"MultiLineString","coordinates":[[[-93.28048342420982,44.942722772385281],[-93.28048342420982,44.942698024329644],[-93.280455015884201,44.94267018275432],[-93.280457201140024,44.942646208053638],[-93.280465942163275,44.942619139831152],[-93.280458293767921,44.942595165109147],[-93.280445182233024,44.942572737134341],[-93.280458293767921,44.942550309150768],[-93.28046922004701,44.942536388328961],[-93.280468127419098,44.942513960331205],[-93.280499813628452,44.94247374458913],[-93.280498721000541,44.942452089947096],[-93.280542426116867,44.942427341774795],[-93.280590501744854,44.942373978491943],[-93.280612354303017,44.942357737482965],[-93.28063420686118,44.942332215888158],[-93.280656059419357,44.942317521631466],[-93.280666985698446,44.942301280606515],[-93.280676819349623,44.94228503957698],[-93.280725987605493,44.942254104269907],[-93.280758766442759,44.942244050291528],[-93.280799193675335,44.942229356012263],[-93.280829787256792,44.942206154511027],[-93.2808691218615,44.942171352241573],[-93.280882233396397,44.942150470869784],[-93.280883326024309,44.942124949182841],[-93.280886603908044,44.942103294409264],[-93.280890974419648,44.942084733168258],[-93.280880048140574,44.942065398535846],[-93.280863658721927,44.94204297035408],[-93.280841806163792,44.942020542163547],[-93.280833065140513,44.942001980895803],[-93.280833065140513,44.941973365596255],[-93.280818860977703,44.941957124473959],[-93.280793730535805,44.941941656734159],[-93.280794823163689,44.941921548666194],[-93.280787174768349,44.941902987366447],[-93.280758766442716,44.941882105897044],[-93.280729265489214,44.94184498326603],[-93.280708505558934,44.941805540444271],[-93.280686653000771,44.941769191153163],[-93.280666985698403,44.941739802347797],[-93.280663707814711,44.941691078768891],[-93.280660429930975,44.941672517394622],[-93.280641855256548,44.941650862450395],[-93.28063420686118,44.941623793758623],[-93.280618910070444,44.941602912187669],[-93.280598150140207,44.941586670960582],[-93.280594872256472,44.941554188492603],[-93.280589409116914,44.941527119755257],[-93.280567556558751,44.941510105113821],[-93.280540240861029,44.941500824398183],[-93.280524944070336,44.941490770287878],[-93.280529314581955,44.941474529029051],[-93.280541333488941,44.941461381339977],[-93.280559908163397,44.94143508595279],[-93.280556630279676,44.941408790553567],[-93.280551167140104,44.941369347432129],[-93.280535870349382,44.941335318050704],[-93.280493257860996,44.941261072057564],[-93.280458293767893,44.941200747117435],[-93.280444089605098,44.941182958981962],[-93.280439719093451,44.941148156092282],[-93.280415681279479,44.941111806384967],[-93.280391643465464,44.941078550249614],[-93.280362142511962,44.941065402469867],[-93.280326085790989,44.941059215278344],[-93.280296584837458,44.941056121682344],[-93.280288936442105,44.941038333502057],[-93.280280195418825,44.941008944322569],[-93.280236490302471,44.94100121032546],[-93.280205896721057,44.94097646152774],[-93.280192785186145,44.940958673322775],[-93.280190599930336,44.940906082075884],[-93.280167654744261,44.94088674704652],[-93.280121764372083,44.940837249341705],[-93.280067132976697,44.940782337775502],[-93.280032168883636,44.940739800610658],[-93.280000482674268,44.940683342143181],[-93.279985185883547,44.940635391072398],[-93.279976444860296,44.940582026123984],[-93.279964425953295,44.94052866112596],[-93.279957870185839,44.940478389705625],[-93.27994366602303,44.940445906610627],[-93.279944758650927,44.940408009643228],[-93.27993164711603,44.940382487181701],[-93.279893405139234,44.940345363581045],[-93.279875923092689,44.940326801771711],[-93.279870459953173,44.940299732455685],[-93.279878108348527,44.940267249259605],[-93.279872645208954,44.940213883968994],[-93.279857348418261,44.940173666615777],[-93.279836588487981,44.940141183348373],[-93.279826754836819,44.940120301238188],[-93.279823476953084,44.940080857231578],[-93.27980927279026,44.940059201687014],[-93.279822384325172,44.940026718354851],[-93.27981582855773,44.940003515963483],[-93.279788512860023,44.939970259186168],[-93.279762289790213,44.939923080934136],[-93.279724047813417,44.939875902643337],[-93.279697824743621,44.939843419207492],[-93.279653026999384,44.939810935753243],[-93.279624618673765,44.939797014267235],[-93.279611507138853,44.939783092777837],[-93.279600580859778,44.939758343455019],[-93.279550319975982,44.939741328289408],[-93.279535023185247,44.939723539701781],[-93.279513170627084,44.939712711863137],[-93.279469465510758,44.939707297943045],[-93.279426853022329,44.939678681499814],[-93.279347091185002,44.939648518206369],[-93.27930338606869,44.939636916935434],[-93.279220346347643,44.939627635917006],[-93.279189752766186,44.939613714386546],[-93.279150418161493,44.939599019434063],[-93.27902695120784,44.939597472596738],[-93.279002913393867,44.939594378921981],[-93.278984338719411,44.939575043450894],[-93.278964671417071,44.939548747199773],[-93.278960300905425,44.939521677516908],[-93.278939540975173,44.939500795181431],[-93.278943911486806,44.939464444431152],[-93.278948281998439,44.939427320236916],[-93.278941726231011,44.939383235225087],[-93.278964671417071,44.939351524932469],[-93.278978875579881,44.939330642535104],[-93.278978875579881,44.939291971408799],[-93.279016024928765,44.939275729527971],[-93.279047711138134,44.939271862412824],[-93.279087045742827,44.939250979986483],[-93.279140584510344,44.939241698905661],[-93.27918428962667,44.939226230434294],[-93.279215975836024,44.939198387175345],[-93.279229087370936,44.939176731297941],[-93.279270607231425,44.939162036233625],[-93.27930010818497,44.939141153767338],[-93.279311034464044,44.939124138418812]]]}}
]
}
