{
"type": "FeatureCollection",
"name": "eastfarthing",
"crs": { "type": "name", "properties": { "name": "urn:ogc:def:crs:OGC:1.3:CRS84" } },
"features": [
{"type":"Feature","properties":{"id":1},"geometry":{"type":"MultiPolygon","coordinates":[[[[-93.280493189322414,44.942725974118957],[-93.283175976030222,44.94271728344544],[-93.283243506130418,44.942689762970588],[-93.283336615814022,44.942627479741958],[-93.283444050064304,44.942537675898002],[-93.283557623414609,44.942418178629751],[-93.283607759398109,44.942353722424222],[-93.283696776348364,44.942244363977387],[-93.283751005065184,44.94213572955244],[-93.283804210598674,44.942004643739338],[-93.283844114748803,44.94190687235789],[-93.283871740698856,44.941815618918319],[-93.283896297098948,44.941704086739641],[-93.283916760765663,44.941527372974001],[-93.28393313169903,44.941350658664426],[-93.283939270799053,44.941304307280056],[-93.283957688099122,44.94114787108159],[-93.283892204365586,44.940962464664771],[-93.283720309565084,44.940740845271606],[-93.283532043831229,44.9404931519963],[-93.283360149030727,44.940288912877776],[-93.283214856996963,44.940086121544816],[-93.283067518596539,44.939936924606812],[-93.282922226562803,44.939780484682622],[-93.282831163245859,44.939679088207789],[-93.282804560479121,44.939660257414175],[-93.282713497162177,44.939636356782621],[-93.282632665678605,44.939555963676199],[-93.282578436961785,44.939526268896714],[-93.282530347344988,44.939518302002028],[-93.282511930044947,44.939503816736163],[-93.282324687494381,44.939500195419129],[-93.282304223827651,44.939488607203067],[-93.282212137327377,44.939492228520834],[-93.282192696843978,44.939483537357795],[-93.282141537677191,44.939480640303167],[-93.282120050827132,44.939477018984668],[-93.28205559027694,44.939487882939481],[-93.282014662943496,44.939482813094166],[-93.281978851526688,44.939458188124789],[-93.281929738726561,44.939454566804862],[-93.281848907243003,44.93942414770855],[-93.28179263215948,44.939413283741679],[-93.281737380259329,44.939405316831319],[-93.281702592025894,44.939388658742473],[-93.281641201025721,44.939385037418184],[-93.281612551892309,44.939371276383746],[-93.281521488575379,44.939372000648795],[-93.28144679619183,44.939331441791808],[-93.281340385124849,44.939331441791808],[-93.281309689624763,44.939312610884173],[-93.281295365058043,44.939314783681532],[-93.281274901391313,44.939324199135761],[-93.281191000357722,44.939323474870093],[-93.281149049840948,44.939302471162129],[-93.281038546040634,44.939299574098364],[-93.28100171144051,44.939311162352574],[-93.280955668190373,44.93931043808675],[-93.280888138090191,44.939339408712414],[-93.280866651240132,44.939342305774176],[-93.280832886190026,44.939390107272139],[-93.280835955740017,44.939418353593148],[-93.280846187573403,44.939440081522918],[-93.280849257123393,44.93947629472094],[-93.280861535323439,44.939493677047871],[-93.280857442590076,44.93951685347561],[-93.280846187573403,44.939521199054759],[-93.280854373040086,44.939543651208517],[-93.280863581690113,44.939550893836888],[-93.280867674423462,44.939570448928912],[-93.280856419406774,44.939594349587892],[-93.280842094840054,44.939620423022738],[-93.280780703839866,44.939678363946619],[-93.280732614223069,44.939683433774675],[-93.280703965089671,44.93970805864744],[-93.280644620456172,44.93970805864744],[-93.280627226339419,44.939718922558541],[-93.280602669939384,44.939716749776487],[-93.280597554022691,44.93971167995138],[-93.280580159905966,44.939714576994369],[-93.280525931189132,44.93973630481203],[-93.28045737790562,44.939734132030623],[-93.280447146072234,44.939745720197145],[-93.280389847805424,44.939744271676446],[-93.280355059571988,44.939734856291111],[-93.280259903521724,44.939737029072489],[-93.280236370304976,44.939753687060261],[-93.280206697988234,44.939752238539768],[-93.280199535704853,44.939748617238408],[-93.280182141588156,44.939749341498697],[-93.280073684154502,44.939779760422716],[-93.280003084504287,44.939782657462267],[-93.279984667204232,44.939789175800698],[-93.279912021187343,44.939789175800698],[-93.279835282437148,44.939833355630604],[-93.279787192820336,44.939836976926628],[-93.279759566870254,44.93985073784944],[-93.279718639536782,44.939851462108457],[-93.279779007353596,44.939907592153496],[-93.27978246059736,44.939930406285157],[-93.279834259253747,44.940006181728791],[-93.27983771249751,44.940046106384678],[-93.279826201684955,44.94005343948173],[-93.27984231682251,44.940077068343605],[-93.279845770066274,44.940136547849427],[-93.279876849260106,44.940173213267521],[-93.279888360072661,44.940208249089601],[-93.27989526656016,44.94028483895179],[-93.279884906828897,44.940306023363732],[-93.27989526656016,44.940323948629256],[-93.279957424947824,44.940393205284387],[-93.279959727110366,44.940452684462706],[-93.279980446572921,44.94047386881271],[-93.279981597654171,44.940507274887217],[-93.279993108466698,44.940556976571848],[-93.279998863872947,44.940606678213456],[-93.280013827929253,44.940670231069539],[-93.280048360366848,44.940730524739777],[-93.280066777666903,44.940760671551153],[-93.280126633892067,44.94082340945922],[-93.280147353354636,44.940844593672423],[-93.280150806598414,44.940856815330349],[-93.280194547686023,44.94089510984162],[-93.280203756336064,44.940910590594264],[-93.280207209579828,44.940956218051411],[-93.280250950667451,44.940998586372018],[-93.280302749323852,44.941002660247356],[-93.280302749323852,44.941038510337819],[-93.280318864461407,44.941049917180102],[-93.280378720686571,44.941054805826084],[-93.280409799880402,44.941082508145527],[-93.280456994211789,44.941150949112732],[-93.280463900699345,44.941182725248339],[-93.280499584218191,44.941242203608752],[-93.28052030368076,44.9412756092362],[-93.280552533955841,44.941338346581581],[-93.280573253418396,44.941376640771701],[-93.280581310987159,44.941435304162326],[-93.280542174224564,44.941469524445843],[-93.280544476387064,44.94148989365253],[-93.280585915312201,44.941507003780572],[-93.280606634774756,44.941537150184239],[-93.280615843424783,44.941586036210587],[-93.280650375862365,44.941624330235491],[-93.280653829106129,44.941646328919084],[-93.280676850731183,44.941675660484123],[-93.280678001812433,44.941730249745795],[-93.28072059181882,44.941797060413329],[-93.280757426418916,44.941867130054305],[-93.280802318587789,44.941904609129473],[-93.280809225075345,44.941940458656752],[-93.28084260643169,44.941960012934913],[-93.28085066400044,44.942010528122701],[-93.28088289427555,44.942043118542841],[-93.280894405088077,44.942070820385418],[-93.28090706698184,44.942087930340328],[-93.280888649681813,44.942122964993999],[-93.280897858331841,44.942159629143568],[-93.280862174812995,44.942184886655184],[-93.280823038050372,44.942219106491919],[-93.280800016425289,44.942234586887551],[-93.280767786150207,44.9422459934922],[-93.280684908299946,44.942284287076902],[-93.28066764208117,44.942320136367087],[-93.280628505318546,44.942348652831924],[-93.280600879368478,44.942383687326519],[-93.280569800174646,44.94240242669855],[-93.2805387209808,44.942439090669637],[-93.280515699355703,44.942452941497066],[-93.28051109503069,44.94248227264999],[-93.280481166918122,44.942511603787956],[-93.28047195826808,44.942549082442412],[-93.280460447455553,44.94256537750195],[-93.280458145293039,44.942585746319843],[-93.280473109349344,44.942606115130516],[-93.280473109349344,44.942636260957059],[-93.280467353943095,44.942644408475026],[-93.280467353943095,44.942669665773373],[-93.280503037461941,44.942703070570261],[-93.280493189322414,44.942725974118957]]]]}}
]
}
