{
"type": "FeatureCollection",
"name": "northfarthing",
"crs": { "type": "name", "properties": { "name": "urn:ogc:def:crs:OGC:1.3:CRS84" } },
"features": [
{"type":"Feature","properties":{"id":1},"geometry":{"type":"MultiPolygon","coordinates":[[[[-93.283193689891618,44.942717736084688],[-93.286130673709494,44.942711625454109],[-93.286092688028148,44.94266762889486],[-93.286058155590524,44.942643186347368],[-93.28597873098407,44.942613855276662],[-93.2859062128651,44.942572302900807],[-93.285816428527355,44.942533194754901],[-93.285757723383426,44.942498975105387],[-93.285697291617623,44.94246964396099],[-93.285629953364307,44.942428091480757],[-93.285510816454604,44.94236087416968],[-93.285384773057359,44.942291212509694],[-93.28523973681942,44.942225217174894],[-93.285061894765775,44.942139667553924],[-93.284930671502906,44.942087115580691],[-93.284795994996259,44.942030897137471],[-93.284597433480073,44.941957568650515],[-93.284471390082814,44.941930681515167],[-93.284393692098206,44.941913571513389],[-93.2842728285666,44.941874462918747],[-93.284183044228854,44.941852464322565],[-93.284159734833494,44.941848797889044],[-93.284088080025469,44.941841465021312],[-93.284037144679985,44.941835965369883],[-93.283992252511098,44.94182618821052],[-93.283918871081227,44.941815188904222],[-93.283880885399853,44.94181396675895],[-93.283857576004479,44.941911738298607],[-93.283814410457495,44.942014398236054],[-93.283779014708912,44.942095670556334],[-93.283753978691678,44.942164110315765],[-93.283710813144651,44.942234383198155],[-93.283684913816472,44.942278991157124],[-93.283619302185031,44.94236087416968],[-93.28352865453634,44.94246536650116],[-93.283447503307983,44.942552137766398],[-93.283365488768695,44.942620576981675],[-93.283261891455865,44.942692071431935],[-93.283193689891618,44.942717736084688]]]]}}
]
}
