{
"type": "FeatureCollection",
"name": "river_shirebourn",
"crs": { "type": "name", "properties": { "name": "urn:ogc:def:crs:OGC:1.3:CRS84" } },
"features": [
{"type":"Feature","properties":{"id":1},"geometry":{"type":"MultiLineString","coordinates":[[[-93.282760682711611,44.940211140779219],[-93.282755765886023,44.940176337300436],[-93.282720118900528,44.940171986864108],[-93.282686930327799,44.940142403888316],[-93.28267955508943,44.940118041426231],[-93.28267955508943,44.940086718245496],[-93.28265128334229,44.940058875403828],[-93.282647595723091,44.940024071832759],[-93.282652512548708,44.940006670039303],[-93.282670950644643,44.939996228960709],[-93.282672179851048,44.939964035623056],[-93.282693076359791,44.939945763720708],[-93.282695534772586,44.939924011448404],[-93.282722577313308,44.939905739533302],[-93.282727494138882,44.939890947978725],[-93.28274839064764,44.939876156420333],[-93.282774203981987,44.939863105042129],[-93.282817226205879,44.939846573292115],[-93.282829518269821,44.939834391999604],[-93.282833205889006,44.939794367734564],[-93.28281599699946,44.939776965871495],[-93.282819684618659,44.939760434096705],[-93.282847956365799,44.939747382692175],[-93.282849185572204,44.939729980814882],[-93.282824601444247,44.939716059309227],[-93.282824601444247,44.939700397611354],[-93.28283320588902,44.939683865814509],[-93.282822143031481,44.939663853633007],[-93.282741015409286,44.939641231158554],[-93.282702910010968,44.939629049822479],[-93.282672179851048,44.939584674933464],[-93.282625470007943,44.939551611268385],[-93.282592281435257,44.939532469137788],[-93.282577530958463,44.939521157875802],[-93.282534508734599,44.93951593729259],[-93.282508695400253,44.939499405442639],[-93.282334148091877,44.939497665247629],[-93.282305876344779,44.939487224076458],[-93.282256708088894,44.939486353978779],[-93.282222290309775,44.939488094174138],[-93.282195247769053,44.939480263294634],[-93.282139933481204,44.939479393196848],[-93.282105515702085,44.93947591280557],[-93.282064951890987,44.93948287358792],[-93.282023158873486,44.939480263294634],[-93.281988741094352,44.939468952022374],[-93.281969073792027,44.939454160355261],[-93.281930968393709,44.939450679962448],[-93.281864591248279,44.939423706910993],[-93.28182894426277,44.93941326572638],[-93.281781005213276,44.939404564737742],[-93.281735524576604,44.939395863747798],[-93.281704794416683,44.939381942161148],[-93.281655626160813,44.93938107206187],[-93.281610145524127,44.939366280372134],[-93.281533934727506,44.939362799973992],[-93.281462640756516,44.93933147638122],[-93.281434369009389,44.93932625578077],[-93.281338490910443,44.939322775380205],[-93.281306531544104,44.939304503273767],[-93.281267196939396,44.939318424879204],[-93.281236466779504,44.939315814578428],[-93.281194673762002,44.939320165079636],[-93.281152880744514,44.939296672369224],[-93.281036106136781,44.939298412570324],[-93.280996771532088,44.93930711357504],[-93.280958666133799,44.939305373374211],[-93.280930394386658,44.939313204277553],[-93.280876309305199,44.939334956781259],[-93.28085910041564,44.939341047480831],[-93.280827141049329,44.939377591664623],[-93.280822224223755,44.939400214242951],[-93.280827141049329,44.939421096615021],[-93.280836974700534,44.939441978979488],[-93.280835745494102,44.939468081924403],[-93.280850495970867,44.939495925052569],[-93.280843120732499,44.939520287778635],[-93.28083820390691,44.939537689719486],[-93.280852954383676,44.939562052427846],[-93.280850495970867,44.939596856278961],[-93.280841891526123,44.939617738579521],[-93.280775514380679,44.939673424677203],[-93.280732492156801,44.939676905056508],[-93.280716512473617,44.939692566760797],[-93.280694386758469,44.939699527516893],[-93.28065873977296,44.939696047138945],[-93.280624321993841,44.939708228460823],[-93.280600967072317,44.939704748083408],[-93.280580070563559,44.939708228460823],[-93.280524756275724,44.939729110720862],[-93.280453462304678,44.939729980814882],[-93.280425190557551,44.939736071472524],[-93.28039200198485,44.939732591096799],[-93.280353896586533,44.939725630344725],[-93.280304728330663,44.939727370532822],[-93.280256789281211,44.93972650043878],[-93.280239580391651,44.939743032223348],[-93.280205162612532,44.939743902317147],[-93.28017812007181,44.93974564250469],[-93.280130181022329,44.939762174283757],[-93.280096992449586,44.939766524751121],[-93.280066262289665,44.939772615404905],[-93.279997426731455,44.93977348549825],[-93.279972842603499,44.939780446244541],[-93.279918757522054,44.939778706058043],[-93.279880652123737,44.939799588292466],[-93.279836400693455,44.939823080797098],[-93.27978723243757,44.939826561167344],[-93.279754043864884,44.939840482646197],[-93.279706412117022,44.939841352738497]]]}}
]
}
