{
"type": "FeatureCollection",
"name": "river_thalos",
"crs": { "type": "name", "properties": { "name": "urn:ogc:def:crs:OGC:1.3:CRS84" } },
"features": [
{ "type": "Feature", "properties": { "id": 1 }, "geometry": { "type": "MultiLineString", "coordinates": [ [ [ -93.29119825775193, 44.940364640338316 ], [ -93.291270111538552, 44.940361071134348 ], [ -93.291307929320951, 44.940347686617415 ], [ -93.29136843777286, 44.940312886858827 ], [ -93.291445333930426, 44.94027451786976 ], [ -93.291498278825841, 44.940262917937801 ], [ -93.291624338100576, 44.940262025635256 ], [ -93.291662155883003, 44.94025577951696 ], [ -93.291712579592911, 44.940239718066842 ], [ -93.291810905827205, 44.94020402593933 ], [ -93.291861329537085, 44.940192425993118 ], [ -93.291924359174445, 44.940192425993118 ], [ -93.291988649404587, 44.940195995207596 ], [ -93.292025206594261, 44.940186179867275 ], [ -93.292059242598427, 44.940178149133047 ], [ -93.292097060380854, 44.940180826044575 ], [ -93.292143702312515, 44.940186179867275 ], [ -93.292192865429669, 44.940182610652201 ], [ -93.292223119655574, 44.940171903005634 ], [ -93.292252113288797, 44.940154949227818 ], [ -93.292295761312658, 44.940125614718838 ] ] ] } }
]
}
