{
"type": "FeatureCollection",
"name": "river_celon",
"crs": { "type": "name", "properties": { "name": "urn:ogc:def:crs:OGC:1.3:CRS84" } },
"features": [
{ "type": "Feature", "properties": { "id": 1 }, "geometry": { "type": "MultiLineString", "coordinates": [ [ [ -93.293175018444856, 44.94245122307575 ], [ -93.293188143412806, 44.942441218383181 ], [ -93.293201268380727, 44.942435501415211 ], [ -93.293218431800298, 44.942433357552062 ], [ -93.293235595219912, 44.942431213688849 ], [ -93.293251749026581, 44.942427640583311 ], [ -93.293265883607432, 44.942418350507872 ], [ -93.293280018188241, 44.942410489673648 ], [ -93.293296171994939, 44.94240548732401 ], [ -93.29332646038246, 44.942397626488017 ], [ -93.293356748769938, 44.942381190191078 ], [ -93.293374921802481, 44.942358322291874 ], [ -93.29338905638329, 44.942340456739274 ], [ -93.293422373609587, 44.942329022782687 ], [ -93.293458719674604, 44.942319018068808 ], [ -93.29350617148171, 44.942306154862699 ], [ -93.293529392578805, 44.942291147785255 ], [ -93.293548575224207, 44.942268279850175 ], [ -93.293567757869653, 44.942228260941867 ], [ -93.293575834772966, 44.94218824200567 ], [ -93.29357684438591, 44.94214679379234 ], [ -93.29358895974093, 44.942123925799763 ], [ -93.293603094321739, 44.942101772423264 ], [ -93.293613190450927, 44.942090338419142 ], [ -93.293717180581382, 44.942018161215614 ], [ -93.29374343051721, 44.94199672242479 ], [ -93.293780786195157, 44.941961705715926 ], [ -93.293805016905168, 44.941948127802654 ], [ -93.293827228389361, 44.941934549886184 ], [ -93.293844391808946, 44.94192883286776 ], [ -93.293866603293111, 44.941921686593915 ], [ -93.2938777090352, 44.94191168180906 ], [ -93.29389386284187, 44.941894530745245 ], [ -93.293897901293533, 44.941880238188162 ], [ -93.293909007035651, 44.941868089511836 ], [ -93.29393424735855, 44.941850938434996 ], [ -93.293979679939852, 44.941828784953159 ], [ -93.294009968327344, 44.941810919235778 ], [ -93.294037227876117, 44.941799485173732 ], [ -93.29407357394112, 44.941782334076407 ], [ -93.294099823876991, 44.941772329267252 ], [ -93.294126073812819, 44.941760180568096 ], [ -93.29415535258741, 44.941745887977554 ], [ -93.29417453523287, 44.941728736864206 ], [ -93.29420785245911, 44.941705868705114 ], [ -93.29424520813707, 44.941682285906509 ], [ -93.294295688782924, 44.94166942255773 ], [ -93.294336073299604, 44.941654415313849 ], [ -93.294369390525887, 44.941637264173181 ], [ -93.29441684233295, 44.94159081314146 ], [ -93.294447130720485, 44.941554366921046 ], [ -93.294449654752782, 44.941528640163277 ], [ -93.294445111494653, 44.94148969268862 ], [ -93.294437034591326, 44.941461107369314 ], [ -93.294428957687984, 44.941443956170886 ], [ -93.294413813494231, 44.941423946432927 ], [ -93.294409775042567, 44.94140393668799 ], [ -93.294415832720063, 44.94138892937471 ], [ -93.294428957687984, 44.941366775714606 ], [ -93.294450159559247, 44.94135176839162 ], [ -93.294473380656314, 44.941338904968781 ], [ -93.294496601753409, 44.941316036654413 ], [ -93.294513765173022, 44.941284592707277 ], [ -93.294535976657201, 44.941268156091702 ], [ -93.294581409238461, 44.94124099993391 ], [ -93.294621793755184, 44.941219560852893 ], [ -93.294667226336458, 44.94118668757978 ], [ -93.294684389756029, 44.941169536299391 ], [ -93.294701553175642, 44.941146667917558 ], [ -93.294731841563149, 44.941123799526622 ], [ -93.294763139563599, 44.941106648227446 ], [ -93.294816649048187, 44.941086638371914 ], [ -93.294852995113203, 44.941075204165628 ], [ -93.294872682565114, 44.941073060251703 ], [ -93.29488530272657, 44.941070737678174 ] ] ] } }
]
}
