{
"type": "FeatureCollection",
"name": "river_adurant",
"crs": { "type": "name", "properties": { "name": "urn:ogc:def:crs:OGC:1.3:CRS84" } },
"features": [
{ "type": "Feature", "properties": { "id": 1 }, "geometry": { "type": "MultiLineString", "coordinates": [ [ [ -93.290356391074326, 44.938850894530759 ], [ -93.290369154575899, 44.938846377137835 ], [ -93.290395479297899, 44.938842989092905 ], [ -93.290409040518313, 44.938833954305444 ], [ -93.290420208582191, 44.938826613539597 ], [ -93.290441746991064, 44.938819837447213 ], [ -93.290450521898421, 44.938807979283609 ], [ -93.290464880837661, 44.938791603720297 ], [ -93.290480835214652, 44.938783133599536 ], [ -93.290484823808896, 44.938766758029161 ], [ -93.29049599187276, 44.938750947129186 ], [ -93.290512743968563, 44.938732877523897 ], [ -93.290528698345511, 44.938725536745125 ], [ -93.290555023067498, 44.938717066614593 ], [ -93.290585336383728, 44.938702949727613 ], [ -93.290603683917254, 44.9386905268642 ], [ -93.290622031450752, 44.938661163721804 ], [ -93.290637188108875, 44.938646482144982 ], [ -93.290655535642372, 44.938641964735979 ], [ -93.29066989458164, 44.938615424950854 ], [ -93.290689039833993, 44.93859848465609 ], [ -93.290710578242894, 44.938588885153486 ], [ -93.290744880153341, 44.938578156295748 ], [ -93.290765620843416, 44.938564039374612 ], [ -93.290779979782684, 44.938551616481149 ], [ -93.290789552408867, 44.938532417458681 ], [ -93.290802315910426, 44.938500230847794 ], [ -93.290819865725098, 44.938482725841311 ], [ -93.290844595009361, 44.938463526795815 ], [ -93.290873312887882, 44.938449974524524 ], [ -93.290890064983728, 44.938444327743895 ], [ -93.290907614798371, 44.938440939675232 ], [ -93.290937928114602, 44.938416658510718 ], [ -93.29095388249155, 44.938403106228385 ], [ -93.29097940949471, 44.93839011862147 ], [ -93.290992172996269, 44.938385036513615 ], [ -93.291014509124025, 44.938382777798871 ], [ -93.291041631564852, 44.93837769569037 ], [ -93.291134166951238, 44.938376566332863 ], [ -93.291213938836037, 44.938376001654113 ], [ -93.291248240746526, 44.938370354866201 ], [ -93.291281744938146, 44.938361320004368 ], [ -93.291326417193645, 44.938344379634621 ], [ -93.29136151682296, 44.938337038806175 ], [ -93.291392627858045, 44.93832630990137 ], [ -93.291439693270078, 44.938329133297579 ], [ -93.291486758682098, 44.938330827335221 ], [ -93.291526644624511, 44.938332521372821 ], [ -93.291557755659582, 44.938333086052005 ], [ -93.29160482107163, 44.938323486505048 ], [ -93.291634336669006, 44.938327439259886 ], [ -93.291670234017175, 44.938336474127027 ], [ -93.291702940489927, 44.938339297522717 ], [ -93.291773937467426, 44.93833873284359 ], [ -93.291827384630253, 44.938322921825758 ], [ -93.291882427230746, 44.938324051184324 ], [ -93.291903167920808, 44.938318969070629 ], [ -93.291927099486259, 44.938313886956479 ], [ -93.291942256144353, 44.938311628238935 ], [ -93.292045161875762, 44.938313322277097 ], [ -93.292077070629702, 44.938305416765232 ], [ -93.292134506386745, 44.938291299777042 ], [ -93.29216960601606, 44.938290170417837 ], [ -93.292206301083098, 44.938296381893188 ], [ -93.292235816680474, 44.938295817213636 ], [ -93.29226533227785, 44.938290170417837 ], [ -93.292302825063715, 44.938276618105647 ], [ -93.292352283632297, 44.938258548351079 ], [ -93.292455189363665, 44.938260807070712 ], [ -93.292505445651088, 44.938247819431602 ], [ -93.292542140718112, 44.938252336871628 ], [ -93.292567667721272, 44.938256289631354 ], [ -93.292616328570986, 44.93825516027146 ], [ -93.29265302363801, 44.938241607951007 ], [ -93.292671371171494, 44.938237655190271 ], [ -93.292714447989326, 44.938234831789572 ], [ -93.292739974992443, 44.938228055627356 ], [ -93.292771883746369, 44.938213938620144 ], [ -93.29279661303066, 44.938206597775022 ], [ -93.292823735471472, 44.938207162455441 ], [ -93.292846071599257, 44.93821111521828 ], [ -93.292879575790877, 44.938215632661176 ], [ -93.292905900512864, 44.938212244579042 ], [ -93.292928236640591, 44.938207727135875 ], [ -93.292945786455263, 44.938196433526386 ], [ -93.292982082662846, 44.938168340663147 ], [ -93.292990259281041, 44.938160293961083 ] ], [ [ -93.291386644966622, 44.938324333523944 ], [ -93.291352941345309, 44.938315298654892 ], [ -93.291295306158503, 44.938311487069072 ], [ -93.291222314883896, 44.938305557935081 ], [ -93.291146332163606, 44.938299205290832 ], [ -93.291105648502338, 44.938303863896678 ], [ -93.291072144310718, 44.938306828463844 ], [ -93.291055392214901, 44.938314875145366 ], [ -93.291030264071225, 44.938341132729825 ], [ -93.291007529084041, 44.938357226082132 ], [ -93.290992571855625, 44.938372048902615 ], [ -93.290988383831689, 44.938378825047849 ], [ -93.290984494952312, 44.938385283560535 ] ] ] } }
]
}
