{
"type": "FeatureCollection",
"name": "southfarthing",
"crs": { "type": "name", "properties": { "name": "urn:ogc:def:crs:OGC:1.3:CRS84" } },
"features": [
{"type":"Feature","properties":{"id":1},"geometry":{"type":"MultiPolygon","coordinates":[[[[-93.283965764246261,44.941132735875136],[-93.283896267715619,44.940939939844938],[-93.283860008656106,44.940890442185982],[-93.283804756755956,44.940821389825032],[-93.283755548032374,44.94075600388458],[-93.283650224097713,44.940625231780274],[-93.283598425441312,44.940549457153622],[-93.283527633944217,44.940455960903897],[-93.283422310009527,44.940339243149722],[-93.283314396142046,44.940198081569797],[-93.283254827687173,44.940111306746687],[-93.283197849165134,44.940042864540189],[-93.283132237533692,44.939974422252085],[-93.283058856103807,44.939902313324581],[-93.282964755211339,44.939800260704594],[-93.282859862932142,44.939680791688446],[-93.2828274887719,44.93965145910429],[-93.282791229712402,44.939645959243073],[-93.282725186425495,44.93962395979301],[-93.282672092802713,44.939567127841322],[-93.2826358337432,44.939539628489676],[-93.282585330053223,44.939513045770546],[-93.282551660926543,44.939506629250296],[-93.282505042135796,44.939490129623501],[-93.282340581401741,44.939491046269559],[-93.282315977039943,44.939476379930866],[-93.282226624357676,44.939479129869675],[-93.282202019995879,44.939470880052902],[-93.282134681742534,44.939464463527948],[-93.282104897515126,44.939463546881456],[-93.282076408254099,44.93947454663828],[-93.282038854228205,44.93947454663828],[-93.28201942973206,44.939468130113724],[-93.28197928577336,44.939445213948744],[-93.281940436781056,44.939441547361504],[-93.28191065255362,44.939424131068883],[-93.281821299871325,44.93940121488636],[-93.281759141483661,44.93939388170601],[-93.2817164075921,44.939377382046814],[-93.281643889473173,44.939369132215433],[-93.281625759943424,44.939357215790238],[-93.281538997193962,44.939355382493837],[-93.281450939478091,44.939317799904671],[-93.281352522030915,44.939315966607019],[-93.281305903240167,44.939294883679686],[-93.281274824046335,44.939309550064728],[-93.281198421028137,44.9393113833626],[-93.281154392170208,44.939289383784335],[-93.281037845193296,44.939286633836453],[-93.281000291167416,44.93929763362717],[-93.280956262309459,44.939296716978028],[-93.280877269358427,44.939323299797302],[-93.28084360023179,44.939337049526586],[-93.280809931105125,44.939396631648755],[-93.280818995870007,44.93943879742092],[-93.280822880769236,44.939467213467303],[-93.280833240500527,44.939496546145598],[-93.280829355601256,44.939517628998871],[-93.280833240500527,44.939548794941686],[-93.280842305265367,44.939576294288969],[-93.280825470702027,44.939616626641126],[-93.280784031776946,44.939662458825119],[-93.280727053254893,44.939667958684737],[-93.280708923725129,44.939688124832152],[-93.280670074732839,44.939690874760814],[-93.280636405606202,44.939698207903227],[-93.280580722050587,44.939699124545953],[-93.280523743528533,44.939722957251945],[-93.280462880107251,44.939723873894302],[-93.280451225409578,44.939729373748023],[-93.280402016685983,44.939727540463508],[-93.280365757626512,44.939718374040027],[-93.280263455280107,44.939721123967225],[-93.280238850918309,44.939735790243368],[-93.280183167362679,44.939737623527634],[-93.28009381468037,44.939762372859377],[-93.28000187206527,44.939765122784465],[-93.27998503750193,44.939772455917385],[-93.279911224416594,44.939773372558946],[-93.279829641532743,44.939818287976983],[-93.279786907641224,44.939818287976983],[-93.279759713346621,44.939832037587735],[-93.279702734824582,44.939825621103125],[-93.279691080126895,44.939818287976983],[-93.279666475765097,44.939798121875256],[-93.279628921739203,44.939780705690808],[-93.279617267041516,44.939747706589991],[-93.27958489288126,44.939743123380048],[-93.27956287845231,44.939731207032466],[-93.27953179925845,44.939698207903199],[-93.279490360333341,44.939699124545939],[-93.279437266710531,44.939664292111686],[-93.279386763020554,44.939641376025008],[-93.279341439196187,44.939634042875326],[-93.279333669397744,44.939621209861158],[-93.279254676446698,44.939621209861158],[-93.279214532487984,44.939601960334507],[-93.279171798596479,44.93958454409055],[-93.279042301955457,44.939589127313148],[-93.279006042895986,44.939573544354801],[-93.278984028467036,44.939551544876998],[-93.278977553634959,44.939525878808894],[-93.278960719071662,44.939494712853637],[-93.278960719071662,44.939494712853637],[-93.278960719071662,44.939494712853637],[-93.278967193903711,44.939451630475858],[-93.278967193903711,44.939451630475858],[-93.278962014038058,44.939378298694656],[-93.278993093231918,44.939359965734724],[-93.278998273097528,44.939307716766798],[-93.27900733786241,44.939291217082832],[-93.279042301955471,44.939292133732074],[-93.279073381149331,44.939268300847239],[-93.279121294906503,44.939261884299647],[-93.27914848920112,44.939249967852192],[-93.279208057655978,44.939229801550859],[-93.279237841883401,44.939184885672468],[-93.279277985842114,44.939176635813418],[-93.279319424767209,44.939146386320154],[-93.27933237443132,44.939121636722916],[-93.286869078937457,44.939114303506855],[-93.286831524911562,44.939140886410584],[-93.286753826926955,44.939186718974319],[-93.286660589345416,44.939240801352454],[-93.286581596394427,44.939289383784327],[-93.286485768880098,44.939337049526571],[-93.286366631970381,44.939397548296277],[-93.286263034657551,44.939458963648818],[-93.286129653117342,44.939539628489662],[-93.285922458491726,44.939667958684701],[-93.285804616548461,44.939740373453908],[-93.285676414873862,44.939821037899392],[-93.285478285013127,44.939940201077405],[-93.285369507834687,44.940008948952233],[-93.285303464547781,44.94004286454016],[-93.285190802470112,44.940109779019735],[-93.285056125963493,44.940187693041523],[-93.284889075296576,44.940295855861201],[-93.28451224007128,44.94059559413575],[-93.284390513228729,44.940709255946885],[-93.284248066923652,44.940846749772511],[-93.283965764246261,44.941132735875136]]]]}}
]
}
