{
"type": "FeatureCollection",
"name": "the_old_forest",
"crs": { "type": "name", "properties": { "name": "urn:ogc:def:crs:OGC:1.3:CRS84" } },
"features": [
{"type":"Feature","properties":{"id":1},"geometry":{"type":"MultiPolygon","coordinates":[[[[-93.278944639905504,44.941276797779423],[-93.278922787347341,44.941275766584702],[-93.278925701021734,44.941230393997678],[-93.278915503161258,44.941171615820281],[-93.278924244184552,44.941130367940559],[-93.278906762138007,44.941049934489861],[-93.278906762138007,44.940906597676594],[-93.278909675812415,44.940842663155287],[-93.278919873672905,44.940774603747897],[-93.278912589486822,44.940648796752164],[-93.27891113264964,44.940526083105496],[-93.27891113264964,44.94042914945129],[-93.278915503161258,44.940328090786466],[-93.278919873672905,44.940161034236226],[-93.278908218975232,44.940017695203792],[-93.279099064649884,44.940009445464419],[-93.279131115068552,44.939969227967985],[-93.27918647488255,44.93994963481849],[-93.279241834696592,44.939936228975512],[-93.279294280836197,44.939904261183479],[-93.279372950045612,44.939882605572315],[-93.27943559404568,44.939866106053557],[-93.279534658976033,44.939855793851919],[-93.279597302976143,44.939853731411368],[-93.279658490139013,44.939847544089275],[-93.279683256371598,44.939865074833477],[-93.279694911069285,44.939883636792075],[-93.279690540557638,44.939915604595598],[-93.27967597218553,44.940005320594295],[-93.279680342697176,44.940022851290294],[-93.279671601673925,44.940078536995081],[-93.279686170046034,44.940147628442602],[-93.279697824743721,44.94016412788045],[-93.279703652092536,44.940201251598296],[-93.279694911069285,44.940279623812692],[-93.27967597218553,44.940318809879777],[-93.279585648278427,44.940471429043995],[-93.279571079906347,44.940522989480769],[-93.279549227348156,44.940569393834267],[-93.279549227348156,44.940614766943654],[-93.279552141022577,44.940654983987919],[-93.279550684185381,44.94069004497787],[-93.279530288464429,44.94073541799191],[-93.279520090603924,44.940763260505499],[-93.27953320213885,44.940800383835949],[-93.279534658976033,44.940850912774941],[-93.279537572650469,44.940880817636241],[-93.27964246492968,44.940900410467975],[-93.279671601673925,44.940984968928177],[-93.27969636790651,44.941041684898799],[-93.279715306790266,44.941115931175645],[-93.279748814046101,44.941132430335237],[-93.279818742232237,44.941150991884115],[-93.279893040930034,44.941177802999675],[-93.280015415255761,44.941187083767531],[-93.280034354139516,44.94119739573005],[-93.280037267813938,44.941225238019605],[-93.279978994325489,44.941228331606503],[-93.279967339627788,44.941252049100491],[-93.279949857581244,44.941253080295652],[-93.279930918697517,44.941230393997671],[-93.279907609302157,44.941252049100505],[-93.279881386232347,44.941232456388775],[-93.279859533674156,44.941255142685947],[-93.279824569581095,44.941236581170749],[-93.279796889674074,44.941235549975282],[-93.27976629609266,44.941255142685947],[-93.279713849953055,44.941251017905309],[-93.279677429022769,44.941243799538476],[-93.279648292278537,44.941261329856353],[-93.279616241859884,44.941241737147791],[-93.27959293246451,44.94124792431964],[-93.279488040185299,44.941255142685947],[-93.279442878231762,44.941253080295674],[-93.279418111999178,44.941277828974158],[-93.279406457301491,44.941275766584702],[-93.279384604743299,44.941257205076163],[-93.279358381673504,44.941268548220968],[-93.279333615440919,44.941270610610708],[-93.279317590231614,44.941254111490821],[-93.279266600929219,44.941251017905309],[-93.279233093673341,44.941266485831179],[-93.279201043254673,44.94124586192909],[-93.279160251812783,44.941293296892802],[-93.279125287719694,44.941260298661319],[-93.279096150975462,44.941285047336713],[-93.279046618510279,44.941264423441297],[-93.278944639905504,44.941276797779423]]]]}}
]
}
