{
"type": "FeatureCollection",
"name": "the_water",
"crs": { "type": "name", "properties": { "name": "urn:ogc:def:crs:OGC:1.3:CRS84" } },
"features": [
{"type":"Feature","properties":{"id":1},"geometry":{"type":"MultiLineString","coordinates":[[[-93.286099873105542,44.942430435296913],[-93.286101921782901,44.942392442966828],[-93.286106019137563,44.942364601243312],[-93.286126505910858,44.942341979832996],[-93.286151909509741,44.942326318851421],[-93.28617977152139,44.942301377279335],[-93.286177313108624,44.942282236065495],[-93.286150270567887,44.942265995030553],[-93.286109297021298,44.942245113693197],[-93.286088810248032,44.9422340929843],[-93.286062587178222,44.942204511071019],[-93.286050499981982,44.942193925382647],[-93.28604578802404,44.942181019540762]]]}},
{"type":"Feature","properties":{"id":1},"geometry":{"type":"MultiLineString","coordinates":[[[-93.286563693652681,44.942708271572755],[-93.286513705925856,44.942696090887388],[-93.286386687931511,44.942693770756534],[-93.286358006448921,44.942683330166602],[-93.286341617030274,44.942665929179149],[-93.286304740838389,44.942639827688062],[-93.286292448774418,44.942622426687429],[-93.286257211524358,44.942558622973294],[-93.286234266338298,44.942533101467781],[-93.286217057448738,44.942528461192843],[-93.286187556495193,44.942527301124045],[-93.286156416599809,44.942508740020138],[-93.286121998820676,44.942474517969053],[-93.286108067814865,44.942460017093815],[-93.286099873105542,44.942430435296913],[-93.28608676157063,44.942402013556155],[-93.286077747390379,44.942389832805802],[-93.286059719029865,44.942369531549467],[-93.286058080088011,44.942341689814832],[-93.286047426965922,44.942327188906042],[-93.286036773843804,44.942307467664186],[-93.286026120721701,44.942288326452385],[-93.286040871198452,44.942250044009626],[-93.286044149082187,44.942214081691667],[-93.28604578802404,44.942181019540762],[-93.286032676489185,44.942153757752891],[-93.286022023367053,44.94212823606739],[-93.286030218076377,44.942107354679912],[-93.286041690669421,44.942082413012713],[-93.286044149082187,44.942048770746737],[-93.286029398605436,44.941997147231319],[-93.28601218971589,44.941987286554557],[-93.285968757756521,44.941983806315292],[-93.285943354157638,44.941972785556246],[-93.285910575320401,44.941983806315292],[-93.285876157541281,44.941993666992659],[-93.285842559233075,44.942008167985705],[-93.285806502512116,44.942009328064991],[-93.285771265262071,44.942012808302707],[-93.2857040686457,44.942007007906398],[-93.285684401343332,44.941997147231326],[-93.285625399436299,44.941995407112017],[-93.285594259540872,44.941984966395069],[-93.28554099393034,44.941985546434957],[-93.285501659325632,44.941988446634269],[-93.285409059110393,44.941983806315292],[-93.285331209371947,44.941952484152445],[-93.285299250005636,44.941946103709768],[-93.285286957941665,44.941924062175048],[-93.285286138470738,44.941889259734623],[-93.28527548534862,44.941871858506488],[-93.285253359633472,44.941851557066997],[-93.285253359633472,44.94182081487353],[-93.285237789685752,44.941805153749783],[-93.285245164924135,44.941777891783431],[-93.285271387993959,44.94173902895794],[-93.285272207464871,44.941716407301158],[-93.285256637517207,44.941697845935082],[-93.285256637517207,44.941681604734846],[-93.28526647116837,44.941663623400636],[-93.285260734871855,44.941653762666597],[-93.285248442807884,44.941642741844177],[-93.285214025028765,44.941638101497276],[-93.285198455081087,44.941627660715341],[-93.28519353825547,44.941597498445809],[-93.285186163017116,44.941567916204498],[-93.285179607249631,44.94154239425859],[-93.285139453174011,44.941512811988908],[-93.285122244284452,44.941508751676182],[-93.285061603435537,44.941508751676182],[-93.285031283011094,44.941498890915526],[-93.285000143115667,44.941502951228941],[-93.284969003220283,44.94150817163149],[-93.284925571260928,44.941503531273703],[-93.284867388824807,44.941512811988908],[-93.284806747975878,44.941508751676189],[-93.284725620353697,44.94150933172088],[-93.284601060772118,44.941489030153207],[-93.28449698796382,44.94145074717747],[-93.284454375475406,44.941429865543583],[-93.284409304574169,44.941407823810692],[-93.284387998329976,44.941402023353255],[-93.284211812079718,44.941359679996253],[-93.284137240224965,44.941337638236412],[-93.284103641916801,44.941325457260234],[-93.284070043608608,44.941317916654647],[-93.284011041701561,44.941313856328136],[-93.283945484027058,44.941313856328136],[-93.283902871538615,44.941302255393708],[-93.283848786457156,44.941306315721029],[-93.283802076614066,44.941303995534021],[-93.283754547300035,44.941303995534021],[-93.283699642747621,44.941324877213674],[-93.28368161438712,44.941331837771891],[-93.283643918724295,44.941334157957762],[-93.283585736288174,44.941353299487702],[-93.283543123799745,44.941360260042458],[-93.283495594485728,44.941364320365679],[-93.283452162526359,44.94137012082691],[-93.283418564218167,44.941366640550235],[-93.283375951729724,44.9413765013336],[-93.283262045270263,44.9413765013336],[-93.283217793839981,44.941387522207123],[-93.283153875107359,44.941388102253043],[-93.283121915741035,44.941384621977448],[-93.28307766431071,44.94139854307852],[-93.283044066002546,44.941403183444798],[-93.282972772031499,44.94142986554359],[-93.282918686950055,44.941435085952776],[-93.282873616048832,44.941451327222744],[-93.282852309804611,44.941456547629983],[-93.282793307897578,44.941464088217366],[-93.282750695409135,44.941451907268011],[-93.282713819217236,44.941434505907331],[-93.282668748315999,44.94139970317012],[-93.282618760589202,44.941378821517681],[-93.282524521432066,44.941367220596348],[-93.28239094767028,44.941365480457989],[-93.282335223646939,44.941374761195497],[-93.282311458989938,44.941378241471675],[-93.282263929675921,44.94137940156368],[-93.282193455175829,44.941401443307498],[-93.28215903739671,44.941413044221882],[-93.282118063850149,44.941410143993508],[-93.282074631890794,44.941404343536327],[-93.281931224477788,44.941407243764985],[-93.28190090405333,44.941412464176224],[-93.281845180030018,44.941426385270546],[-93.281793553361339,44.941424645133942],[-93.281753399285705,44.941421744906144],[-93.281538697901652,44.941424645133935],[-93.281480515465546,44.941419424723804],[-93.281446917157339,44.941410724039187],[-93.281381359482864,44.941428125407093],[-93.281328093872332,44.941422904997289],[-93.281273189319933,44.94140202335327],[-93.281194520110517,44.941399703170141],[-93.281151907622075,44.941390422436641],[-93.281094544656881,44.94139390271188],[-93.281057668464982,44.941403763490548],[-93.281006041796317,44.941400863261713],[-93.280959331953198,44.941411884130552],[-93.280929011528741,44.941408403856407],[-93.280861814912384,44.941410143993508],[-93.280811007714618,44.941419424723804],[-93.280764297871556,44.941417104541372],[-93.280720865912201,44.941414784358841],[-93.280663502947007,44.941411884130552],[-93.280604501039917,44.94139970317012],[-93.280559430138723,44.941387522207123]]]}},
{"type":"Feature","properties":{"id":1},"geometry":{"type":"MultiLineString","coordinates":[[[-93.282793307897578,44.941464088217366],[-93.282785779008876,44.941472390113013],[-93.282768979854765,44.94148051074329],[-93.282712436360512,44.941480800765781],[-93.282670643343025,44.941492401664142],[-93.282605085668521,44.941493851776272],[-93.282567799741159,44.941498202112435],[-93.282484623441633,44.941499072179631],[-93.282410871057806,44.941494141798692],[-93.282360883331009,44.941488341349988],[-93.282339167351338,44.941481380810757],[-93.282305569043132,44.941476450428297],[-93.282271970734982,44.941465719594419],[-93.282234684807577,44.941446578101967],[-93.282207232531391,44.941427146580381],[-93.282166054117084,44.941418155874139],[-93.28215903739671,44.941413044221882]]]}}
]
}
