{
"type": "FeatureCollection",
"name": "thistle_brook",
"crs": { "type": "name", "properties": { "name": "urn:ogc:def:crs:OGC:1.3:CRS84" } },
"features": [
{"type":"Feature","properties":{"id":1},"geometry":{"type":"MultiLineString","coordinates":[[[-93.282230894754562,44.940092156298945],[-93.282209690944214,44.940073884437361],[-93.282184799514667,44.940063443370974],[-93.282184799514667,44.940037993263736],[-93.282177424276284,44.940029509892135],[-93.282160829989934,44.940019068817698],[-93.28212948522679,44.940013195712474],[-93.282107359511684,44.93999622896073],[-93.282086155701336,44.939979914771612],[-93.282049279509422,44.939970126255908],[-93.282017012841507,44.939953159491431],[-93.281987511887976,44.939944023539248],[-93.281939572838525,44.93993358244925],[-93.281925744266545,44.939921836220748],[-93.281913759504192,44.93990095403079],[-93.281910993789751,44.939853969075621],[-93.281872273788267,44.939827866306132],[-93.281833553786768,44.93982003547297],[-93.281824334738772,44.939810899499619],[-93.281772708070093,44.939804373803462],[-93.281722925211042,44.939767829891288],[-93.281711862353461,44.939757388769266],[-93.281683052828527,44.939747926500772],[-93.281673372828152,44.939735201378632],[-93.281677521399772,44.939715134834138],[-93.28169273282893,44.939701430848508],[-93.281730069973207,44.939692131713528],[-93.281755652831365,44.939678917150701],[-93.281751504259788,44.939666681441693],[-93.281741132830803,44.939659829443492],[-93.281689967114531,44.939653466873025],[-93.281653321398792,44.939638784015372],[-93.281604229968337,44.939636826300742],[-93.281561361395248,44.939620185723633],[-93.281470784248882,44.939615291435324],[-93.281421692818355,44.93960403457065],[-93.281373292816497,44.939584457409431],[-93.28134840138695,44.939582010263813],[-93.281300001385048,44.939562433095077],[-93.281250218526012,44.939557538801857],[-93.281227401382282,44.939548239643564],[-93.28120734995295,44.939531109611224],[-93.281197669952533,44.939511532425144],[-93.281189372809379,44.939498807250608],[-93.28115618423665,44.939498807250608],[-93.281126452806916,44.93951446900347],[-93.281121612806729,44.939546771355282],[-93.281105709948989,44.939565859100085],[-93.281071829947678,44.939589841129418],[-93.281055235661299,44.939599140280968],[-93.280995772801845,44.939603545141686],[-93.280961201371923,44.939608439430998],[-93.280924555656227,44.939603545141686],[-93.280866936606358,44.939579563118087],[-93.280856104225009,44.939572874252569]]]}}
]
}
