{
"type": "FeatureCollection",
"name": "westfarthing",
"crs": { "type": "name", "properties": { "name": "urn:ogc:def:crs:OGC:1.3:CRS84" } },
"features": [
{"type":"Feature","properties":{"id":1},"geometry":{"type":"MultiPolygon","coordinates":[[[[-93.286143466092369,44.942710216949472],[-93.287798433164397,44.942712661201845],[-93.2878070662738,44.939130497691103],[-93.286887640122714,44.939124997780013],[-93.286776273011469,44.939194663281718],[-93.286670085765834,44.939251495602072],[-93.286548358923284,44.939322994247782],[-93.286372243491527,44.939407325869318],[-93.286183178395703,44.939523739969452],[-93.28603943712416,44.939613571160955],[-93.285834832431391,44.939740526227659],[-93.285497493681575,44.93994356208664],[-93.285373824389424,44.940021934652762],[-93.285248860130864,44.940083349337428],[-93.285177636978318,44.94013009778471],[-93.285081809463989,44.94018509590925],[-93.284998931613728,44.940238260712896],[-93.28493936315887,44.940274926066031],[-93.284851305442999,44.94034184027516],[-93.284745118197392,44.940426170400251],[-93.284641520884563,44.940509583771693],[-93.284543103437443,44.940592997021952],[-93.28446929035205,44.94064799470307],[-93.284324254114168,44.940793738303277],[-93.284228426599825,44.940886317379196],[-93.284124829287038,44.940988062528064],[-93.28397461318346,44.941147554560736],[-93.283953893720891,44.941267631603324],[-93.283943533989628,44.94141337363061],[-93.283925404459879,44.941554532222582],[-93.283909864862963,44.941681941303038],[-93.283894325266047,44.941767186069505],[-93.283890440366832,44.941803850446277],[-93.283962958485773,44.941810266709808],[-93.284021231974208,44.941822182625877],[-93.284043246403201,44.941827682278607],[-93.284119649421399,44.941833181930818],[-93.284197347405993,44.941842348016678],[-93.284259505793656,44.941863430008567],[-93.284359218207229,44.941892761462675],[-93.284452455788752,44.941915676650773],[-93.284505549411577,44.94192850915212],[-93.284616916522822,44.941953257539453],[-93.284749003096636,44.942001837676166],[-93.284892744368165,44.942060500427985],[-93.285033895706832,44.942115955005441],[-93.2851886441928,44.942186075179585],[-93.285333680430725,44.942258486772808],[-93.285485191500683,44.942335481278079],[-93.285742242333114,44.942480303996327],[-93.28588145122221,44.942547215635159],[-93.286034257258592,44.942625584647217],[-93.28607763863333,44.942644833160145],[-93.286125552390502,44.942676455703079],[-93.286143466092369,44.942710216949472]]]]}}
]
}
