{
"type": "FeatureCollection",
"name": "woody_end",
"crs": { "type": "name", "properties": { "name": "urn:ogc:def:crs:OGC:1.3:CRS84" } },
"features": [
{"type":"Feature","properties":{"id":1},"geometry":{"type":"MultiPolygon","coordinates":[[[[-93.281169230327066,44.940683857745888],[-93.281128803094447,44.940677928314635],[-93.28105450439665,44.94059749423009],[-93.281048677047821,44.940536652988733],[-93.281066159094337,44.940510872782262],[-93.281098209513004,44.940481998937273],[-93.281112777885113,44.940451062658681],[-93.281144828303738,44.940447969029911],[-93.281173965047984,44.9404304384637],[-93.281191447094514,44.940337629494557],[-93.281179792396827,44.940324223742174],[-93.281141914629345,44.940319067682722],[-93.281093839001343,44.940296381015678],[-93.281090925326922,44.940274725552399],[-93.28110840737348,44.940240695522178],[-93.28104722021061,44.940107668846871],[-93.281060331745493,44.940064357769799],[-93.281082184303671,44.940027233963448],[-93.281117148396717,44.939979797953725],[-93.281141914629302,44.939973610645232],[-93.281140457792091,44.939945767748718],[-93.281130259931615,44.939924112153186],[-93.281118605233956,44.939913799961971],[-93.281120062071153,44.939894206793575],[-93.281101123187383,44.939886988256163],[-93.281098209513004,44.939862238978129],[-93.281066159094337,44.93986017653782],[-93.281039936024527,44.939851926775802],[-93.281025367652404,44.939777678864381],[-93.281044306536174,44.939739523650346],[-93.281069072768759,44.939712711863152],[-93.281114234722295,44.939710649417449],[-93.281238065885276,44.9397168367543],[-93.281316735094677,44.939710649417449],[-93.281357526536596,44.939660119474958],[-93.281407059001765,44.939668369264538],[-93.281475530350676,44.939684868840104],[-93.281548372211262,44.939694149849288],[-93.281570224769425,44.939723024090483],[-93.281574595281057,44.939761179315482],[-93.281600818350867,44.939776647642724],[-93.281608102536907,44.939808615505818],[-93.281615386722976,44.939828208703432],[-93.281637239281153,44.93986017653782],[-93.281660548676513,44.939913799961971],[-93.281682401234676,44.939941642874004],[-93.281685314909097,44.939977735517644],[-93.28169259909518,44.940005578398655],[-93.281691142257955,44.94003857735126],[-93.281705710630078,44.940056108037119],[-93.281710081141711,44.940076732366578],[-93.281739217885928,44.940089106960691],[-93.281762527281302,44.940103543983803],[-93.281797491374391,44.940114887356543],[-93.281828084955805,44.940134480449643],[-93.281893642630322,44.940138605310494],[-93.281975953932758,44.940152526713689],[-93.282029856909546,44.940151495498746],[-93.28206627783986,44.940166448113501],[-93.282092500909627,44.940181400724356],[-93.282125279746893,44.940179338295493],[-93.282155144909737,44.940166448113501],[-93.282181367979533,44.940147370638826],[-93.282209776305137,44.940128808765486],[-93.282248382491233,44.940105606415372],[-93.282279704491302,44.940085497704352],[-93.282299371793655,44.94010199716007],[-93.282325230654124,44.940109989082224],[-93.282373306282111,44.940137831899108],[-93.282402443026314,44.940156393769534],[-93.282415554561211,44.94018114292075],[-93.282497137445063,44.940202798419321],[-93.282532101538109,44.940199704777172],[-93.282572892980042,44.940215172986271],[-93.282653019026668,44.940225485123364],[-93.282693810468587,44.940230641191199],[-93.282747713445403,44.940226516336956],[-93.28275936814309,44.940264671227389],[-93.282737515584898,44.940276014568305],[-93.282638450654545,44.940273952142846],[-93.282567065631213,44.940274983355586],[-93.282551040421879,44.940252296671112],[-93.282514619491593,44.940270858504519],[-93.282476741724125,44.940269827291715],[-93.282478198561336,44.940287357906961],[-93.282469457538042,44.94030179488022],[-93.282437407119417,44.94030488851687],[-93.282412640886832,44.94032448154514],[-93.282361651584438,44.940333762450926],[-93.282347083212315,44.940345105778171],[-93.282312119119254,44.940347168201086],[-93.282296093909935,44.940359542736907],[-93.282183917444684,44.940361605159289],[-93.28214895335158,44.940375010902955],[-93.282014924328166,44.940370886059071],[-93.281966848700208,44.940373979692005],[-93.281912945723377,44.940368823637037],[-93.281829906002329,44.940363667581593],[-93.281778916699949,44.940354386680639],[-93.281707531676602,44.940353355469334],[-93.281692963304494,44.940360573948112],[-93.281815337630221,44.940376042113861],[-93.281877981630288,44.940394603907272],[-93.281869240607037,44.940423477796209],[-93.281930427769893,44.940428633846281],[-93.282000355956058,44.940436883525415],[-93.282046974746805,44.940420384165961],[-93.28211835977018,44.940426571426315],[-93.282146039677187,44.940442039574286],[-93.282178090095812,44.940443070784006],[-93.282210140514479,44.940451320461072],[-93.282229079398206,44.940461632555753],[-93.282285896049459,44.940448226832316],[-93.282329601165813,44.940444101993698],[-93.282453432328751,44.940419352955828],[-93.282489853259023,44.94041007206387],[-93.282545213073064,44.940401822380878],[-93.282587461352165,44.940399759959931],[-93.282641364328981,44.94041213448444],[-93.282683612608125,44.940416259325339],[-93.28273605874773,44.94041213448444],[-93.282794332236193,44.94041213448444],[-93.282973523213172,44.940405947222523],[-93.283023055678356,44.94042244658614],[-93.283040537724858,44.940423477796209],[-93.283079872329566,44.940436883525415],[-93.283181850934383,44.940459570136966],[-93.283244494934465,44.940461632555753],[-93.283250322283308,44.940439977154796],[-93.283328991492695,44.940442039574286],[-93.28340110493464,44.940478647507902],[-93.283501626702247,44.94047555388061],[-93.283526392934832,44.940507521354576],[-93.283510367725498,44.940522989480733],[-93.283370511353226,44.940526083105475],[-93.283294755818247,44.940531239146324],[-93.283230654980926,44.940532270354446],[-93.283204431911159,44.940513708605543],[-93.283141787911035,44.940529176730038],[-93.283079143910967,44.940526083105475],[-93.283041266143471,44.940547738473953],[-93.282975708468996,44.9405405200187],[-93.28292908967822,44.940562175381714],[-93.282859161492055,44.940563206589289],[-93.282751355538451,44.940568362626813],[-93.282773208096614,44.940583830736593],[-93.282776121771036,44.940601361255972],[-93.282732416654724,44.940616829356856],[-93.282674143166261,44.940613735737017],[-93.282529916282343,44.940604454876485],[-93.28250806372418,44.94061167332368],[-93.282457074421799,44.940602392462829],[-93.282392973584507,44.940593111600457],[-93.282350725305378,44.940600330049094],[-93.28228516763086,44.940603423669671],[-93.282124915537636,44.940604454876485],[-93.282085580932943,44.940602392462822],[-93.282012739072385,44.940598267635288],[-93.281982145490943,44.9406271414218],[-93.281907846793175,44.940638484691092],[-93.281788386141855,44.940641578309588],[-93.28171700111848,44.940656015193781],[-93.281619393025338,44.940641578309588],[-93.281446029397216,44.940602392462822],[-93.281373187536644,44.940617860563428],[-93.281303259350523,44.9406271414218],[-93.281231874327162,44.940659108811353],[-93.281169230327066,44.940683857745888]]]]}}
]
}
