{
"type": "FeatureCollection",
"name": "gandalfthewhitepath",
"crs": { "type": "name", "properties": { "name": "urn:ogc:def:crs:OGC:1.3:CRS84" } },
"features": [
{ "type": "Feature", "properties": { "id": 1 }, "geometry": { "type": "MultiLineString", "coordinates": [ [ [ -93.305569216677014, 44.945022250523195 ], [ -93.304474790525489, 44.944678469313061 ], [ -93.304634132264013, 44.944088842645471 ], [ -93.305137316701504, 44.943625842963741 ], [ -93.304963997617477, 44.943412149543505 ], [ -93.304569836474812, 44.943333992955047 ], [ -93.30461666058217, 44.943267213507184 ], [ -93.304713104266, 44.943275128112468 ], [ -93.304747348762433, 44.94327859075193 ], [ -93.304774604586143, 44.943271665472793 ], [ -93.304895508624611, 44.943280074740215 ], [ -93.305001736450293, 44.943294419958292 ], [ -93.305114952948742, 44.943315195784983 ], [ -93.305168765728837, 44.943300355909535 ], [ -93.30519951588893, 44.943281064065708 ], [ -93.305142208772409, 44.942864556523453 ], [ -93.305153390648798, 44.942744847145846 ], [ -93.305154788383362, 44.942596446744439 ], [ -93.304877338075485, 44.942058244737055 ] ] ] } }
]
}
