{
"type": "FeatureCollection",
"name": "great_east_road",
"crs": { "type": "name", "properties": { "name": "urn:ogc:def:crs:OGC:1.3:CRS84" } },
"features": [
{ "type": "Feature", "properties": { "id": 1 }, "geometry": { "type": "MultiLineString", "coordinates": [ [ [ -93.313500577921786, 44.946557513664573 ], [ -93.313407436553277, 44.946551653904621 ], [ -93.313255305651353, 44.946556048724652 ], [ -93.313088686092087, 44.946558978604465 ], [ -93.312835134588923, 44.946531877210333 ], [ -93.312680933878795, 44.946517227802765 ], [ -93.312619874537219, 44.946512100509231 ], [ -93.312574338757074, 44.946511368038692 ], [ -93.312507069990886, 44.946512832979764 ], [ -93.312289740131035, 44.946515762861807 ], [ -93.312232820405811, 44.9465142979208 ], [ -93.312204877995271, 44.946507705685846 ], [ -93.312169691256045, 44.946509170627017 ], [ -93.312029979203274, 44.946465954846836 ], [ -93.312005141505011, 44.946452037893756 ], [ -93.311957535916662, 44.946452770365049 ], [ -93.311930628410195, 44.946443248237443 ], [ -93.311905790711904, 44.946435191051293 ], [ -93.311804370110636, 44.946441050823147 ], [ -93.31176297394687, 44.94644764306576 ], [ -93.311738136248593, 44.946445445651634 ], [ -93.311717438166681, 44.946443980708843 ], [ -93.311617052469529, 44.946445445651634 ], [ -93.311587040250799, 44.946450572951129 ], [ -93.311533225237866, 44.946452037893742 ], [ -93.311487689457692, 44.946454235307613 ], [ -93.311453537622583, 44.946463024962263 ], [ -93.311386268856396, 44.946488661447255 ], [ -93.311343837788542, 44.946506973215243 ], [ -93.311317965186163, 44.94651869274368 ], [ -93.311299336912455, 44.946522355095837 ], [ -93.311272429406017, 44.946535539561637 ], [ -93.311245521899536, 44.946546526614163 ], [ -93.311226893625843, 44.946550188964537 ], [ -93.311203090831668, 44.946545061673945 ], [ -93.31115755505148, 44.946526749918107 ], [ -93.311123403216357, 44.946526749918107 ], [ -93.311067518395234, 44.94652528497739 ], [ -93.311035436368329, 44.946526017447745 ], [ -93.310998179820899, 44.94653773697231 ], [ -93.310932980862944, 44.94654359673369 ], [ -93.310893654507368, 44.946550921434579 ], [ -93.310845014014916, 44.946558246134529 ], [ -93.310797408426538, 44.946567035773235 ], [ -93.310757047166874, 44.946583150107379 ], [ -93.310718755715357, 44.946593404681281 ], [ -93.310687708592539, 44.94659853196756 ], [ -93.310670115222905, 44.94659853196756 ], [ -93.310580078566687, 44.94659633455921 ], [ -93.310497286239084, 44.946579487759095 ], [ -93.310468308924456, 44.946581685168084 ], [ -93.310427947664749, 44.946590474803216 ], [ -93.310342050624897, 44.946619773577225 ], [ -93.310276851666941, 44.946654199617583 ], [ -93.310237525311322, 44.946671046395771 ], [ -93.310175431065673, 44.946693020446837 ], [ -93.310116441532287, 44.94671059968163 ], [ -93.310065731231646, 44.946726713975458 ], [ -93.310041928437457, 44.946728178911037 ], [ -93.309909460713357, 44.946718656829113 ], [ -93.309864959837284, 44.946717191893292 ], [ -93.30983908723492, 44.946715726957436 ], [ -93.309816319344833, 44.946713529553563 ], [ -93.309779062797404, 44.946712064617607 ], [ -93.30973456192136, 44.946714994489483 ], [ -93.309724212880369, 44.946717191893292 ], [ -93.309700410086222, 44.946697049021957 ], [ -93.309653839401989, 44.946673976269729 ], [ -93.309590192800158, 44.946650537273847 ], [ -93.309545174472035, 44.94663918400677 ], [ -93.309508435376657, 44.946622703453819 ], [ -93.3094758358977, 44.946620139811813 ], [ -93.309443236418701, 44.946604391722744 ], [ -93.309392526118089, 44.946594137150775 ], [ -93.30930662907825, 44.946579487759095 ], [ -93.309265750366507, 44.946580586463604 ], [ -93.309237290503873, 44.946569965652515 ], [ -93.309155015628349, 44.94656410589382 ], [ -93.309122933601401, 44.946552020139627 ], [ -93.309061874259811, 44.946551653904606 ], [ -93.309024617712438, 44.946550921434579 ], [ -93.308912848070193, 44.946551287669593 ], [ -93.308877143878917, 44.946544695438881 ], [ -93.308810392564808, 44.946521988860624 ], [ -93.308768996401056, 44.9465142979208 ], [ -93.308733292209752, 44.946510635568124 ], [ -93.308701727634897, 44.946508438156414 ], [ -93.30866136637519, 44.946502944626779 ], [ -93.308532003363368, 44.946490126388902 ], [ -93.308314673503489, 44.946485731563826 ], [ -93.30811286720504, 44.946500380979437 ], [ -93.308040423918399, 44.946531877210333 ], [ -93.307982469289072, 44.946553851314668 ], [ -93.307942108029408, 44.946577290350021 ], [ -93.307908991098358, 44.94659926443699 ], [ -93.3078862232083, 44.946606589130774 ], [ -93.307864490222315, 44.946615378762068 ], [ -93.30784896666087, 44.946627098268394 ], [ -93.307741336635061, 44.946665919115972 ], [ -93.307706149895807, 44.946680568485597 ], [ -93.307651299978787, 44.946694485383276 ], [ -93.30762542737645, 44.946711332149626 ], [ -93.307588170829021, 44.94672085423278 ], [ -93.307561263322583, 44.946728178911037 ], [ -93.307528146391562, 44.946727446443255 ], [ -93.307492959652336, 44.946742828264782 ], [ -93.307429830502556, 44.946741363329572 ], [ -93.307350142887231, 44.946747955537703 ], [ -93.307249757190078, 44.946739165926694 ], [ -93.307169034670707, 44.946725249039851 ], [ -93.30709969609633, 44.94670986721362 ], [ -93.307041741467046, 44.946708402277565 ], [ -93.306931006728917, 44.946704007469215 ], [ -93.306863737962757, 44.94670986721362 ], [ -93.306795434292525, 44.94670913474561 ], [ -93.306733340046847, 44.946714262021544 ], [ -93.306671245801169, 44.94672085423278 ], [ -93.306613291171857, 44.946718656829113 ], [ -93.306550162022091, 44.946712064617607 ], [ -93.30652739413199, 44.946704739937289 ], [ -93.306450811229013, 44.946704739937289 ], [ -93.306352495340008, 44.946702542533018 ], [ -93.306264528491937, 44.946690823042111 ], [ -93.306163107890683, 44.946692287978607 ], [ -93.306098943836815, 44.946692287978593 ], [ -93.306042024111605, 44.946689358105566 ], [ -93.305989244002774, 44.94668056848559 ], [ -93.305938533702161, 44.946672511332764 ], [ -93.30588368378514, 44.94667104639575 ], [ -93.305829868772207, 44.946667384053093 ], [ -93.305747076444646, 44.946657861961086 ], [ -93.305664284117057, 44.946661524304346 ], [ -93.30562702756967, 44.946676906143537 ], [ -93.305585631405876, 44.946688625637286 ], [ -93.30553492110522, 44.946692287978593 ], [ -93.305500769270111, 44.946690823042104 ], [ -93.305424186367119, 44.946695217851477 ], [ -93.305422116558887, 44.946704007469215 ], [ -93.305438675024433, 44.946707669809527 ], [ -93.305470757051353, 44.946715726957436 ] ] ] } }
]
}
