{
"type": "FeatureCollection",
"name": "north_way",
"crs": { "type": "name", "properties": { "name": "urn:ogc:def:crs:OGC:1.3:CRS84" } },
"features": [
{ "type": "Feature", "properties": { "id": 1 }, "geometry": { "type": "MultiLineString", "coordinates": [ [ [ -93.301185154513973, 44.94090632135164 ], [ -93.301142658764562, 44.940909205735942 ], [ -93.301090266744794, 44.940911678065234 ], [ -93.301050681663156, 44.940907145461452 ], [ -93.301034381923685, 44.940923627655309 ], [ -93.301007021646654, 44.940956592028812 ], [ -93.300995378975614, 44.94097431037175 ], [ -93.300980825636771, 44.940994501034943 ], [ -93.300968018698569, 44.941010159095391 ], [ -93.300961033095945, 44.941024993043449 ], [ -93.300958704561737, 44.941034058232049 ] ] ] } }
]
}
