{
"type": "FeatureCollection",
"name": "dry_river",
"crs": { "type": "name", "properties": { "name": "urn:ogc:def:crs:OGC:1.3:CRS84" } },
"features": [
{ "type": "Feature", "properties": { "id": 1 }, "geometry": { "type": "MultiLineString", "coordinates": [ [ [ -93.297294090761469, 44.942387325190126 ], [ -93.297303195024824, 44.942371723546202 ], [ -93.297300319994292, 44.942353069401179 ], [ -93.297295528276749, 44.942338485247191 ], [ -93.297286424013379, 44.942318474425257 ], [ -93.297282111467567, 44.942309316928146 ], [ -93.297284028154607, 44.942289645262733 ], [ -93.297290257387431, 44.942277096093349 ], [ -93.297295049104989, 44.942264546921201 ], [ -93.297293132417977, 44.942249623577808 ], [ -93.297284986498099, 44.942236396065645 ], [ -93.297280673952315, 44.942228595223717 ], [ -93.297277798921783, 44.942212654369513 ], [ -93.297276121820644, 44.942200656330051 ] ] ] } }
]
}
