{
"type": "FeatureCollection",
"name": "ered_lomin",
"crs": { "type": "name", "properties": { "name": "urn:ogc:def:crs:OGC:1.3:CRS84" } },
"features": [
{ "type": "Feature", "properties": { "id": 1 }, "geometry": { "type": "MultiPolygon", "coordinates": [ [ [ [ -93.29904079070765, 44.942340728342387 ], [ -93.299126799023242, 44.942339696507879 ], [ -93.299155662830842, 44.942339490140981 ], [ -93.299180444887881, 44.942320710749662 ], [ -93.299306979155574, 44.942291200265203 ], [ -93.299465292767053, 44.942281913745965 ], [ -93.299627542352283, 44.942324941272439 ], [ -93.299714133775112, 44.942347228899372 ], [ -93.29979416524165, 44.942365801915187 ], [ -93.299862388786948, 44.942396447378165 ], [ -93.300119539072924, 44.942416877677751 ], [ -93.30012216305542, 44.94243359337198 ], [ -93.300102483186606, 44.942474453937415 ], [ -93.300098547212826, 44.942498598803326 ], [ -93.300124787037944, 44.94257010469277 ], [ -93.300169394740621, 44.942618394333969 ], [ -93.30022581036458, 44.942653682892228 ], [ -93.300326833691216, 44.942714044849502 ], [ -93.300364225441996, 44.942731689101926 ], [ -93.300386529293334, 44.942751654960013 ], [ -93.300334049643112, 44.942786479114453 ], [ -93.30031371377865, 44.942786479114453 ], [ -93.300299281874857, 44.942773478099248 ], [ -93.300233026316477, 44.942818981639526 ], [ -93.300190386600676, 44.942819910282836 ], [ -93.300100515199716, 44.94282687510713 ], [ -93.30005590749704, 44.942818981639512 ], [ -93.30002310771566, 44.942844983646324 ], [ -93.299971940056722, 44.942821767569377 ], [ -93.299944388240363, 44.942841269074648 ], [ -93.299957508152929, 44.942857984645322 ], [ -93.299902404520211, 44.942886772561195 ], [ -93.299853860843768, 44.94289327305632 ], [ -93.299802693184816, 44.942920203671164 ], [ -93.299845988896223, 44.942938776501627 ], [ -93.299866980756292, 44.942928561445626 ], [ -93.299870916730086, 44.942907202686271 ], [ -93.29992995633657, 44.942901630834683 ], [ -93.29996406810919, 44.94289327305632 ], [ -93.30005197152326, 44.942881200707632 ], [ -93.300139874937372, 44.942876557495921 ], [ -93.300114947103509, 44.942925775520933 ], [ -93.300155618832434, 44.942917417746095 ], [ -93.300198914543827, 44.942921132312833 ], [ -93.300247458220284, 44.94290534540248 ], [ -93.30028288198416, 44.94290534540248 ], [ -93.300332737651857, 44.942889558487764 ], [ -93.300382593319554, 44.942880272065317 ], [ -93.300513792445031, 44.942874700211135 ], [ -93.30054528023517, 44.942867271071371 ], [ -93.300606943824135, 44.942861699215918 ], [ -93.300651551526812, 44.942857056002644 ], [ -93.300655487500578, 44.942866342428836 ], [ -93.300566272095253, 44.942923918237739 ], [ -93.300654175509337, 44.942953634761686 ], [ -93.300680415334455, 44.942992637676006 ], [ -93.300654175509337, 44.94301956824426 ], [ -93.300685663299475, 44.943052999276901 ], [ -93.300753886844731, 44.943102217150667 ], [ -93.30070927914204, 44.943170936375516 ], [ -93.300700095203268, 44.943212725053101 ], [ -93.30074339091469, 44.943235940971945 ], [ -93.300718463080827, 44.943266585970456 ], [ -93.30077619069607, 44.943285158688852 ], [ -93.300840478267574, 44.943312089119871 ], [ -93.30084441424134, 44.943324161377951 ], [ -93.300818174416221, 44.943351091790674 ], [ -93.300797182556138, 44.943373379019242 ], [ -93.300894269909023, 44.943393808971159 ], [ -93.300894269909023, 44.943406809845861 ], [ -93.300837854285035, 44.943439312019748 ], [ -93.300885085970251, 44.943452312884148 ], [ -93.300886397961492, 44.943463456479861 ], [ -93.300807678486194, 44.943504316312307 ], [ -93.300951997524265, 44.943504316312307 ], [ -93.300962493454307, 44.943514531265862 ], [ -93.300892957917753, 44.943550747904794 ], [ -93.300962493454307, 44.943558176956095 ], [ -93.300852286188871, 44.943636181936832 ], [ -93.3009769253581, 44.943642682347104 ], [ -93.300975613366845, 44.94365568316546 ], [ -93.300969053410554, 44.943692828344503 ], [ -93.301135676299964, 44.943756903721855 ], [ -93.301167164090089, 44.943829336671051 ], [ -93.301197339888944, 44.943891554644168 ], [ -93.301143548247467, 44.943932414171933 ], [ -93.300891645926498, 44.943933342797223 ], [ -93.300803742512429, 44.94388969739223 ], [ -93.300730271002152, 44.943822836281917 ], [ -93.300667295421889, 44.943774547653824 ], [ -93.300610879797901, 44.943827479417095 ], [ -93.300574144042798, 44.94381540726485 ], [ -93.300536096296369, 44.943843266073877 ], [ -93.300508544480024, 44.943846980580737 ], [ -93.300482304654949, 44.943873910748202 ], [ -93.300605631832923, 44.943864624484981 ], [ -93.300605631832923, 44.943878553879244 ], [ -93.300439008943513, 44.943923127918183 ], [ -93.300315681765539, 44.943903626780404 ], [ -93.300171362727468, 44.943937985923462 ], [ -93.300008675811853, 44.943934271422506 ], [ -93.299962756117935, 44.94390641265764 ], [ -93.299970628065438, 44.943897126399669 ], [ -93.30009133126093, 44.94387762525308 ], [ -93.300187106622545, 44.943865553111372 ], [ -93.300236962290242, 44.943839551566796 ], [ -93.300348481546905, 44.94380147785526 ], [ -93.30025926614158, 44.943755046465569 ], [ -93.30038521730205, 44.943708615038332 ], [ -93.300360289468216, 44.943638967827056 ], [ -93.300487552619927, 44.943612037549364 ], [ -93.300578080016564, 44.943586035889957 ], [ -93.300623999710496, 44.943526603481395 ], [ -93.300550528200219, 44.943497815886374 ], [ -93.300483616646204, 44.943451384251084 ], [ -93.300461312794852, 44.943403095310543 ], [ -93.300496736558699, 44.943363164040562 ], [ -93.300474432707404, 44.943332519093609 ], [ -93.300441632925995, 44.943281444145669 ], [ -93.300348481546905, 44.943239655518099 ], [ -93.300302561852988, 44.943183937300681 ], [ -93.30029206592296, 44.943136576773369 ], [ -93.300309121809278, 44.943049284718683 ], [ -93.300204162508834, 44.94302142552435 ], [ -93.30003229165446, 44.942983351270236 ], [ -93.299950948196638, 44.942997280878345 ], [ -93.299805317167355, 44.942956420685029 ], [ -93.299704293840719, 44.942898844908711 ], [ -93.299678054015615, 44.942871914283856 ], [ -93.299538982942551, 44.942847769574954 ], [ -93.299538982942551, 44.942835697216687 ], [ -93.299684613971877, 44.942809695205668 ], [ -93.299800069202334, 44.942797622839414 ], [ -93.299865668765079, 44.942766977590573 ], [ -93.299973252048005, 44.942722402653963 ], [ -93.299966692091715, 44.942671327163218 ], [ -93.299889284607673, 44.942601678693535 ], [ -93.299853860843768, 44.94253667337891 ], [ -93.299714789770704, 44.942504170694008 ], [ -93.299578342680178, 44.942509742584143 ], [ -93.299406471825804, 44.942456809605922 ], [ -93.299317256420437, 44.942428950124068 ], [ -93.299048298213137, 44.94237415977036 ], [ -93.299043050248187, 44.942372766794577 ], [ -93.299034522305035, 44.942348621875759 ], [ -93.29904079070765, 44.942340728342387 ] ] ] ] } }
]
}
