{
"type": "FeatureCollection",
"name": "forest_of_region",
"crs": { "type": "name", "properties": { "name": "urn:ogc:def:crs:OGC:1.3:CRS84" } },
"features": [
{ "type": "Feature", "properties": { "id": 1 }, "geometry": { "type": "MultiPolygon", "coordinates": [ [ [ [ -93.296391811680962, 44.94147652103505 ], [ -93.296211199347297, 44.941452080535072 ], [ -93.296078396160738, 44.94147652103505 ], [ -93.295828726170072, 44.94149720144997 ], [ -93.29557640011565, 44.941514121783911 ], [ -93.295488750012552, 44.941568642826027 ], [ -93.295425004483022, 44.941608123548349 ], [ -93.295374539272132, 44.941675804723452 ], [ -93.295358602889749, 44.941711525311462 ], [ -93.295351962730422, 44.941842187277999 ], [ -93.295341006467538, 44.941985539083063 ], [ -93.295277592945951, 44.942005749306361 ], [ -93.295162054173673, 44.942014209402117 ], [ -93.295002690349847, 44.942001049257442 ], [ -93.294856606844661, 44.942012329381626 ], [ -93.294798173442572, 44.941980369024016 ], [ -93.294734427913042, 44.941954048716134 ], [ -93.294644121746202, 44.941876967745095 ], [ -93.29459896866274, 44.941888247893665 ], [ -93.294569751961731, 44.941854407441312 ], [ -93.294601624726482, 44.941809286807143 ], [ -93.294620217172621, 44.941737845730529 ], [ -93.294718491530631, 44.941668284596823 ], [ -93.294718491530631, 44.941626923882765 ], [ -93.294763644614051, 44.941570522861042 ], [ -93.29479020525136, 44.94147840107307 ], [ -93.294814109824941, 44.941391919260056 ], [ -93.29483270227108, 44.94131107744748 ], [ -93.294843326525978, 44.941220835289663 ], [ -93.294875199290757, 44.94112119274233 ], [ -93.294986753967436, 44.941085471787027 ], [ -93.295156742046203, 44.941029070233398 ], [ -93.29524970427677, 44.940993349220768 ], [ -93.29537719533586, 44.940968908515117 ], [ -93.295427660546707, 44.940944467799056 ], [ -93.295568431924465, 44.94090874673379 ], [ -93.295690610856056, 44.940882425934639 ], [ -93.295844662552454, 44.940859865240057 ], [ -93.29603589914106, 44.940841064654457 ], [ -93.296322754023976, 44.940809103644817 ], [ -93.296458213274235, 44.940852345006554 ], [ -93.296577736142112, 44.940850464948028 ], [ -93.29672116358357, 44.940859865240057 ], [ -93.296731787838468, 44.940906866677111 ], [ -93.296617577098047, 44.94101778991601 ], [ -93.29662554528926, 44.94110615234279 ], [ -93.29659367252448, 44.941136233137918 ], [ -93.29659367252448, 44.94123587565916 ], [ -93.296596328588222, 44.94131107744748 ], [ -93.296591016460766, 44.941401319463438 ], [ -93.296519302740009, 44.941448320457241 ], [ -93.296391811680962, 44.94147652103505 ] ] ] ] } }
]
}
