{
"type": "FeatureCollection",
"name": "river_brithon",
"crs": { "type": "name", "properties": { "name": "urn:ogc:def:crs:OGC:1.3:CRS84" } },
"features": [
{ "type": "Feature", "properties": { "id": 1 }, "geometry": { "type": "MultiLineString", "coordinates": [ [ [ -93.300687372800482, 44.941299642400224 ], [ -93.30069946156334, 44.941287418399916 ], [ -93.300717594707677, 44.941279472798307 ], [ -93.30073486436892, 44.94127030479509 ], [ -93.300753860996295, 44.941258080788529 ], [ -93.30076681324222, 44.941242800776656 ], [ -93.300769403691419, 44.941229354362839 ], [ -93.300771130657552, 44.941175568676108 ], [ -93.300782355937358, 44.941164567052169 ], [ -93.300815168293724, 44.941140118991399 ], [ -93.300825530090478, 44.941133395772873 ], [ -93.300832437954966, 44.941110170102775 ], [ -93.300848844133156, 44.941088166827718 ], [ -93.300872158175835, 44.941074109175332 ], [ -93.300907560981415, 44.941062496329472 ], [ -93.300918786261235, 44.941053328291609 ], [ -93.300939509854715, 44.941036825819758 ], [ -93.30095332558372, 44.941029491386303 ], [ -93.300982684007835, 44.941015433719564 ], [ -93.300999090186025, 44.941002598455626 ], [ -93.301021540745651, 44.940983039952677 ], [ -93.301029312093235, 44.94096959347803 ], [ -93.301032766025472, 44.940956758203839 ], [ -93.301047445237515, 44.940936588481442 ], [ -93.301057807034283, 44.940924975607778 ], [ -93.301074213212473, 44.940909084303136 ], [ -93.301086301975332, 44.940891359381261 ], [ -93.30109320983982, 44.940867522408709 ], [ -93.30110875253493, 44.940843074221448 ], [ -93.301119977814736, 44.940822293254108 ], [ -93.301124295230082, 44.94080334589497 ], [ -93.301127749162319, 44.940788065762078 ], [ -93.301139837925177, 44.940771563213985 ], [ -93.301147609272746, 44.940758116689807 ], [ -93.301153653654183, 44.940734890867915 ], [ -93.3011579710695, 44.940718999510672 ], [ -93.301166605900136, 44.940702496942734 ], [ -93.301180421629141, 44.940687827989457 ] ] ] } }
]
}
