{
"type": "FeatureCollection",
"name": "river_ginglith",
"crs": { "type": "name", "properties": { "name": "urn:ogc:def:crs:OGC:1.3:CRS84" } },
"features": [
{ "type": "Feature", "properties": { "id": 1 }, "geometry": { "type": "MultiLineString", "coordinates": [ [ [ -93.299198296259377, 44.941880534081754 ], [ -93.299194266671734, 44.941861790803181 ], [ -93.299184480530371, 44.941847529608843 ], [ -93.299184480530371, 44.941817784820707 ], [ -93.299175270044344, 44.941797411669249 ], [ -93.299167786524507, 44.941779483289999 ], [ -93.299162029970745, 44.941748108612828 ], [ -93.299139579411133, 44.941737107098575 ], [ -93.29912173409447, 44.941732217536028 ], [ -93.29910619139936, 44.941722438409641 ], [ -93.299100434845599, 44.941717141382185 ], [ -93.299094678291823, 44.941700842833022 ], [ -93.299084316495097, 44.941687803990369 ], [ -93.299082013873601, 44.941665393472633 ], [ -93.299070500766092, 44.941653577014314 ], [ -93.299054382415576, 44.941638093375587 ], [ -93.299049777172598, 44.941628314233185 ], [ -93.299043444963445, 44.941613238052042 ], [ -93.299046898895725, 44.941597346937911 ], [ -93.299050928483339, 44.941579011031529 ], [ -93.299041142341949, 44.941563527372679 ], [ -93.299029053579076, 44.941545598920399 ], [ -93.299023872680692, 44.941530115252547 ], [ -93.299030780545223, 44.941507704673249 ], [ -93.299045171929592, 44.94148407168926 ], [ -93.299054958070968, 44.941468588004817 ], [ -93.299058987658597, 44.941451474453984 ], [ -93.29905553372636, 44.941410727883891 ], [ -93.299065895523086, 44.941392391917894 ], [ -93.299064744212345, 44.941354905035887 ], [ -93.299075681664434, 44.941321492794323 ], [ -93.299086043461188, 44.941285635732989 ], [ -93.299090648704208, 44.941254260785918 ], [ -93.299088346082712, 44.941226960493374 ], [ -93.299073954698329, 44.941201697524527 ], [ -93.299049777172556, 44.941184991361595 ], [ -93.299015237850071, 44.941176842012055 ], [ -93.298992787290445, 44.941170729999151 ], [ -93.298960550589456, 44.941168692661364 ], [ -93.298941553962081, 44.941162988115188 ], [ -93.298932919131445, 44.941160950777146 ], [ -93.298903560707316, 44.941164210517982 ], [ -93.298870172695544, 44.941165025453181 ], [ -93.298858659588049, 44.941163803050394 ], [ -93.298848873446687, 44.941157283568458 ], [ -93.29881893936718, 44.941140984860375 ], [ -93.298781521767808, 44.941128353358422 ], [ -93.298765403417292, 44.941123463744027 ], [ -93.298741801546939, 44.941120204000853 ], [ -93.298728561473283, 44.941116944257502 ], [ -93.29871690445195, 44.941113582646977 ] ] ] } }
]
}
