{
"type": "FeatureCollection",
"name": "river_aros",
"crs": { "type": "name", "properties": { "name": "urn:ogc:def:crs:OGC:1.3:CRS84" } },
"features": [
{ "type": "Feature", "properties": { "id": 1 }, "geometry": { "type": "MultiLineString", "coordinates": [ [ [ -93.294523104092534, 44.942511072539645 ], [ -93.294525375721591, 44.942495529550541 ], [ -93.294542034334725, 44.942485882175895 ], [ -93.294561721786593, 44.942475698834208 ], [ -93.294575351560979, 44.94245586811104 ], [ -93.294594281803214, 44.942430677723067 ], [ -93.29461851251321, 44.942416206644133 ], [ -93.294651072529788, 44.942397447832661 ], [ -93.294682118126985, 44.942364753889471 ], [ -93.294698019530415, 44.942329380093895 ], [ -93.294710892095111, 44.942289182572473 ], [ -93.294723007450131, 44.942268279850211 ], [ -93.294729065127626, 44.942259704372191 ], [ -93.294721493030735, 44.942236121801081 ], [ -93.294721493030735, 44.942200747926258 ], [ -93.294718464192002, 44.942158406441358 ], [ -93.294732093966388, 44.942141255451254 ], [ -93.294755567466709, 44.942121424612544 ], [ -93.294769954450771, 44.942104273611385 ], [ -93.29477374049921, 44.942082298883676 ], [ -93.294789641902639, 44.942063539963101 ], [ -93.294798728418925, 44.94203513358601 ], [ -93.294790399112358, 44.942015838680348 ], [ -93.294722250240454, 44.941987968249599 ], [ -93.294688175804481, 44.941974033029155 ], [ -93.294676060449461, 44.941959025864897 ], [ -93.294666973933204, 44.941934371229394 ], [ -93.29465713020727, 44.941926331672029 ], [ -93.294641986013531, 44.941917756142949 ], [ -93.294548092012221, 44.941883989984746 ], [ -93.2945246185119, 44.941866302941591 ], [ -93.294521589673138, 44.941837896466893 ], [ -93.294526132931267, 44.941801986375019 ], [ -93.294543548754064, 44.941778939587799 ], [ -93.294595039012847, 44.941731774040925 ], [ -93.294629870658511, 44.941708727225524 ], [ -93.294649558110379, 44.941683536509728 ], [ -93.29465713020727, 44.941665849404799 ], [ -93.294658644626637, 44.941647090348162 ], [ -93.29466394509447, 44.941628331285408 ], [ -93.294676817659138, 44.941610644163475 ], [ -93.294704077207896, 44.941588133273129 ], [ -93.294719221401692, 44.941563478478336 ], [ -93.294727550708217, 44.941538287698812 ], [ -93.294729822337302, 44.941510417036248 ], [ -93.294739666063236, 44.941486298182724 ], [ -93.294751781418256, 44.941470218941411 ], [ -93.294794185160796, 44.941423053140902 ], [ -93.29479645678984, 44.941396254373366 ], [ -93.294778283757338, 44.941379103155583 ], [ -93.294779798176705, 44.941346944608412 ], [ -93.294788884692963, 44.941309426280604 ], [ -93.294786613063906, 44.941272979881553 ], [ -93.29478509864451, 44.941228493804303 ], [ -93.294794942370444, 44.941196871150119 ], [ -93.294811600983593, 44.941166856411385 ], [ -93.294834317274223, 44.941139521546383 ], [ -93.294868391710196, 44.941095571344 ], [ -93.294887132649976, 44.941075070171017 ], [ -93.294911931267237, 44.941061268723644 ], [ -93.294964368038151, 44.941039963570212 ], [ -93.295010557829102, 44.94102763605644 ], [ -93.295044632265061, 44.941013432613381 ], [ -93.295096501128683, 44.940987973602873 ], [ -93.295129439750085, 44.940977789995515 ], [ -93.295219926307794, 44.940947239162583 ], [ -93.295285803550613, 44.940924192032256 ], [ -93.29534335148692, 44.940920440172953 ], [ -93.295397113374747, 44.940917760273301 ], [ -93.295568999973909, 44.940870594018953 ], [ -93.295639420474899, 44.940855050585739 ], [ -93.295716655863046, 44.940844866954791 ], [ -93.295832508945281, 44.940843259012901 ], [ -93.295977893205347, 44.940836291264191 ], [ -93.296056643012918, 44.940825571649114 ], [ -93.296147508175451, 44.940808420260844 ], [ -93.296234587289547, 44.940800380545824 ], [ -93.296296678483969, 44.940796628678427 ], [ -93.296351197581501, 44.940799844564786 ], [ -93.296490524164071, 44.940821283802514 ], [ -93.296538985584107, 44.940822355764205 ], [ -93.296604862826968, 44.940820747821682 ], [ -93.296666954021347, 44.940814316051139 ], [ -93.296705571715449, 44.940814852032034 ], [ -93.296736617312632, 44.940817531936503 ], [ -93.296795679668307, 44.94082021184083 ], [ -93.296849820160986, 44.94081967585997 ] ], [ [ -93.294831477737901, 44.942595888949086 ], [ -93.294840564254159, 44.942583025805 ], [ -93.294845107512288, 44.942570162658029 ], [ -93.29484207867354, 44.942559979331307 ], [ -93.294833749366944, 44.942549796002773 ], [ -93.294826934479772, 44.942540148637242 ], [ -93.294820119592572, 44.942523533726131 ], [ -93.294814061915076, 44.942504774949739 ], [ -93.294803460979423, 44.942487624063098 ], [ -93.294786802366318, 44.942464041585602 ], [ -93.294769386543493, 44.94244689068681 ], [ -93.294755756769121, 44.942431883646144 ], [ -93.294748184672216, 44.942414732737724 ], [ -93.294751213510978, 44.942393294095012 ], [ -93.294761057236926, 44.942369175612377 ], [ -93.294768629333802, 44.942338089553168 ], [ -93.294767872124126, 44.942304323642169 ], [ -93.294757271188473, 44.942288244629971 ], [ -93.294742694902013, 44.942273907506937 ], [ -93.29473152605911, 44.942261178282557 ] ] ] } }
]
}
