{
"type": "FeatureCollection",
"name": "river_glithui",
"crs": { "type": "name", "properties": { "name": "urn:ogc:def:crs:OGC:1.3:CRS84" } },
"features": [
{ "type": "Feature", "properties": { "id": 1 }, "geometry": { "type": "MultiLineString", "coordinates": [ [ [ -93.298109611141612, 44.942538041939656 ], [ -93.298092720337209, 44.942526595111794 ], [ -93.298093079716025, 44.94249759647105 ], [ -93.298076907669255, 44.942421538562975 ], [ -93.298069001335307, 44.94238236488539 ], [ -93.298059298107276, 44.942347006802805 ], [ -93.298066485683592, 44.942294096825592 ], [ -93.298065048168354, 44.942221854277975 ], [ -93.29806706943161, 44.942187231573186 ], [ -93.298067873081905, 44.942173465654022 ], [ -93.298069563992286, 44.94216555340109 ] ] ] } }
]
}
