{
"type": "FeatureCollection",
"name": "river_sirion",
"crs": { "type": "name", "properties": { "name": "urn:ogc:def:crs:OGC:1.3:CRS84" } },
"features": [
{ "type": "Feature", "properties": { "id": 1 }, "geometry": { "type": "MultiLineString", "coordinates": [ [ [ -93.297510756256969, 44.943309199583041 ], [ -93.2974877560127, 44.943283423365592 ], [ -93.297478172577584, 44.943265108677735 ], [ -93.297474339203518, 44.943236619151676 ], [ -93.297466672455442, 44.943218304448891 ], [ -93.297453255646289, 44.943202703030785 ], [ -93.297436005463084, 44.943191849867887 ], [ -93.297429297058514, 44.943173535150812 ], [ -93.29741492190584, 44.943155898751073 ], [ -93.297394796692103, 44.943141653962712 ], [ -93.297384254913482, 44.943130122464787 ], [ -93.297374671478352, 44.943111129404329 ], [ -93.297356462951626, 44.943086031421949 ], [ -93.297313337493648, 44.943055506833986 ], [ -93.29726733700511, 44.943041940345232 ], [ -93.297229961608167, 44.943033800450451 ], [ -93.297209836394444, 44.943018877307011 ], [ -93.297183002776109, 44.942994457609373 ], [ -93.297160960875331, 44.942979534455702 ], [ -93.297140835661622, 44.942962576321825 ], [ -93.297135085600544, 44.942949688136736 ], [ -93.297147544066178, 44.942927981713197 ], [ -93.297166710936381, 44.942896778714967 ], [ -93.29718491946312, 44.942871002312337 ], [ -93.297217503142519, 44.942846582551802 ], [ -93.297229003264647, 44.942835729321565 ], [ -93.297244336760812, 44.942815379509348 ], [ -93.297260628600512, 44.942796386344753 ], [ -93.297324837615761, 44.942761113308144 ], [ -93.297339212768435, 44.942737371828983 ], [ -93.297384254913496, 44.942710917026361 ], [ -93.297405338470739, 44.942705490398673 ], [ -93.297436005463098, 44.94268514054027 ], [ -93.297468589142483, 44.942660720700701 ], [ -93.2974877560127, 44.942638335838609 ], [ -93.297495422760775, 44.942620699274464 ], [ -93.297492547730243, 44.942586782789711 ], [ -93.297486797669194, 44.942566432889237 ], [ -93.297497339447787, 44.942546761311931 ], [ -93.297498297791321, 44.942520306421478 ], [ -93.297488714356192, 44.942506061475399 ], [ -93.297488714356192, 44.942487068208493 ], [ -93.297494464417255, 44.942464004947361 ], [ -93.297501172821853, 44.94243551502376 ], [ -93.297499256134842, 44.942423983383982 ], [ -93.297488714356192, 44.942407703418027 ], [ -93.297488714356192, 44.942369038480358 ], [ -93.297471464173029, 44.942342583508008 ], [ -93.297458047363847, 44.942321555187966 ], [ -93.297450380615771, 44.942297813527027 ], [ -93.29743792215011, 44.942284925192702 ], [ -93.297306629089022, 44.942215056803597 ], [ -93.297247211791344, 44.942184531752552 ], [ -93.297224211547061, 44.942166216714142 ], [ -93.29719833627226, 44.942146544999702 ], [ -93.297164794249383, 44.942128908284467 ], [ -93.29711687707379, 44.942108558221705 ], [ -93.29708237670738, 44.942079389785825 ], [ -93.297060334806631, 44.942055648024763 ], [ -93.297034459531829, 44.942027836235006 ], [ -93.297022959409688, 44.94201426950341 ], [ -93.297009542600549, 44.941981709334513 ], [ -93.296994209104355, 44.941953219171573 ], [ -93.296986542356265, 44.941931512371262 ], [ -93.296983667325733, 44.941878602011151 ], [ -93.296976958921135, 44.941858930198158 ], [ -93.296963542111996, 44.941848076781213 ], [ -93.296906041501316, 44.941822978246663 ], [ -93.296887832974591, 44.941806019771171 ], [ -93.296865791073841, 44.941772102805125 ], [ -93.296857165982246, 44.941745647557703 ], [ -93.296817873898249, 44.941712408896244 ], [ -93.296796790341034, 44.941687988642897 ], [ -93.296771873409739, 44.941653393266215 ], [ -93.29671437279903, 44.941559782142434 ], [ -93.296688497524244, 44.941518403263714 ], [ -93.296662622249414, 44.941474310983068 ], [ -93.29665687218835, 44.941453960688285 ], [ -93.296638663661668, 44.94142411357619 ], [ -93.29663195525707, 44.941380021223154 ], [ -93.296629080226538, 44.941333893802181 ], [ -93.296624288508994, 44.941264702601231 ], [ -93.296628121883046, 44.941216540049368 ], [ -93.296628121883046, 44.941175839269846 ], [ -93.296646330409743, 44.941133103420277 ], [ -93.296660705562417, 44.941082905715092 ], [ -93.296663580592949, 44.941053736758121 ], [ -93.296667413967015, 44.941025924483036 ], [ -93.296687539180752, 44.940990650358664 ], [ -93.296772831753273, 44.940909926800181 ], [ -93.296802540402098, 44.940876687654878 ], [ -93.296864832730364, 44.940823097971936 ], [ -93.296922333341001, 44.940774256698312 ], [ -93.29697791726467, 44.940718631863888 ], [ -93.297054584745567, 44.940660293564996 ], [ -93.297102501921145, 44.940612808859349 ], [ -93.297123585478388, 44.940588388138309 ], [ -93.297144669035646, 44.940569394236974 ], [ -93.297285545531807, 44.940340788574453 ], [ -93.297292253936405, 44.940323829661146 ], [ -93.297313337493648, 44.940300765530992 ], [ -93.297313337493648, 44.940280414820243 ], [ -93.297311420806608, 44.940249888740581 ], [ -93.29732292092875, 44.940224789507369 ], [ -93.297332504363865, 44.9401861230996 ], [ -93.297305670745544, 44.940160345479953 ], [ -93.297298003997454, 44.94014135143702 ], [ -93.297302795715012, 44.940125070823775 ], [ -93.297301837371492, 44.940107433487562 ], [ -93.297257753569994, 44.940076228956386 ], [ -93.297250086821876, 44.940062661763633 ], [ -93.297240503386789, 44.940041632608512 ], [ -93.297226128234115, 44.940028743767698 ], [ -93.297222294860049, 44.94000907132088 ], [ -93.297226128234115, 44.939981258539724 ], [ -93.297209836394401, 44.939940556884508 ], [ -93.297176294371525, 44.939903247008544 ], [ -93.297175336027991, 44.939867972194428 ], [ -93.29712741885244, 44.939822521921208 ], [ -93.297120710447842, 44.939792673961016 ], [ -93.29708429339442, 44.939754685625587 ], [ -93.297066084867708, 44.939711948718191 ], [ -93.297043084623425, 44.93967463869366 ], [ -93.297039251249402, 44.939659036312584 ], [ -93.297046917997491, 44.939642755562595 ], [ -93.297049793028009, 44.939628509902562 ], [ -93.297029667814272, 44.939611550778871 ], [ -93.297022959409688, 44.939588486362609 ], [ -93.297019126035664, 44.939507760832726 ], [ -93.297020084379156, 44.939422286618552 ], [ -93.29703541787535, 44.939384298038071 ], [ -93.297049793028023, 44.939356484954281 ], [ -93.297052668058555, 44.939315104487619 ], [ -93.297062251493685, 44.939285934632537 ], [ -93.297087168424966, 44.939258799870331 ], [ -93.297099626890628, 44.939218097702962 ], [ -93.297138918974568, 44.939159757879423 ], [ -93.297169585966955, 44.939117698900091 ], [ -93.297189711180664, 44.939095312656598 ], [ -93.297209836394401, 44.939079710118094 ], [ -93.297226128234115, 44.93905121851509 ], [ -93.297247211791344, 44.939006445967536 ], [ -93.297251045165396, 44.938948105928944 ], [ -93.297262545287538, 44.938904690047806 ], [ -93.297282670501275, 44.938861274133842 ] ] ] } },
{ "type": "Feature", "properties": { "id": 1 }, "geometry": { "type": "MultiLineString", "coordinates": [ [ [ -93.296439328211335, 44.94283810346581 ], [ -93.296455620051034, 44.942837764302361 ], [ -93.296474307749477, 44.942848278368807 ], [ -93.296517912379244, 44.942875750597857 ], [ -93.296564392039556, 44.942877107250816 ], [ -93.296590267314357, 44.942880498883035 ], [ -93.296602725780019, 44.94289474373619 ], [ -93.296621892650236, 44.942912380216157 ], [ -93.296654955501381, 44.94293001669071 ], [ -93.296687060008992, 44.94293849576308 ], [ -93.29673353966929, 44.942942226554528 ], [ -93.296770915066247, 44.942951044787897 ], [ -93.296787206905947, 44.942961219670856 ], [ -93.296850457577662, 44.942993440121704 ], [ -93.296886395459353, 44.942997170909585 ], [ -93.296936708493675, 44.943010398246479 ], [ -93.297010500944069, 44.943011076571366 ], [ -93.29704548048224, 44.943003614997167 ], [ -93.297076147474598, 44.94299242263407 ], [ -93.297100106062388, 44.942976481991948 ], [ -93.297134067360531, 44.942949942508804 ] ] ] } },
{ "type": "Feature", "properties": { "id": 1 }, "geometry": { "type": "MultiLineString", "coordinates": [ [ [ -93.298107045576103, 44.942707299274538 ], [ -93.298030378095206, 44.942671573963928 ], [ -93.297996516624465, 44.942660268481262 ], [ -93.297981183128272, 44.942653032971172 ], [ -93.297960099571014, 44.942638561948286 ], [ -93.29794604386619, 44.94263584863107 ], [ -93.297914099082462, 44.942633135313756 ], [ -93.297896848899271, 44.942623638702095 ], [ -93.297883432090075, 44.942610976550782 ], [ -93.297868737489594, 44.942596957737145 ], [ -93.297850848410718, 44.942589722219076 ], [ -93.297828487062091, 44.942584747799884 ], [ -93.297793347800024, 44.942576155620252 ], [ -93.297770347555712, 44.942558519037 ], [ -93.297742236146078, 44.942539978007744 ], [ -93.297700069031578, 44.94253229026215 ], [ -93.297664290873811, 44.942523698074673 ], [ -93.297652790751641, 44.942518723649755 ], [ -93.297607429158774, 44.942514653665413 ], [ -93.297585067810161, 44.942506513695868 ], [ -93.297562706461562, 44.942499278166402 ], [ -93.297534595051928, 44.942495660401327 ], [ -93.297512233703316, 44.942487068208379 ], [ -93.297491828972682, 44.942479041290113 ] ] ] } }
]
}
