{
"type": "FeatureCollection",
"name": "river_nenning",
"crs": { "type": "name", "properties": { "name": "urn:ogc:def:crs:OGC:1.3:CRS84" } },
"features": [
{ "type": "Feature", "properties": { "id": 1 }, "geometry": { "type": "MultiLineString", "coordinates": [ [ [ -93.300187847848861, 44.941656734861105 ], [ -93.300184393916624, 44.941631064617084 ], [ -93.30016021639085, 44.941615173507891 ], [ -93.300142946729608, 44.9415992823943 ], [ -93.300137765831224, 44.941554053816155 ], [ -93.300127404034484, 44.941544274659456 ], [ -93.300087683813615, 44.941524716341021 ], [ -93.300085956847482, 44.941467263742112 ], [ -93.300065233254003, 44.941448927794191 ], [ -93.300020332134736, 44.941419590265319 ], [ -93.300003062473507, 44.941371916748956 ], [ -93.299990973710635, 44.941315686396713 ], [ -93.299997881575109, 44.941275347197049 ], [ -93.29997715798163, 44.941250899183459 ], [ -93.299951253489752, 44.941230118363713 ], [ -93.299956434388136, 44.941162886248321 ], [ -93.299966796184876, 44.941137215783506 ], [ -93.300011697304129, 44.941085874819422 ], [ -93.300015151236394, 44.941073650773582 ], [ -93.300018605168631, 44.941058981915141 ], [ -93.300007379888825, 44.941049202674115 ], [ -93.300006516405745, 44.941039423431391 ], [ -93.300012560787195, 44.941029644187026 ], [ -93.300013424270233, 44.941022920955547 ], [ -93.300011697304129, 44.941008863287202 ], [ -93.299956434388136, 44.940939797301404 ], [ -93.299946072591382, 44.940905569879419 ], [ -93.299964205735677, 44.940832836539961 ], [ -93.299963342252624, 44.94077905048178 ], [ -93.299971977083246, 44.940751546228007 ], [ -93.299983202363066, 44.940725264373192 ], [ -93.299980611913867, 44.940702038538006 ], [ -93.299973704049378, 44.940675145453945 ], [ -93.299983202363066, 44.940661087700455 ], [ -93.299984065846118, 44.940640917874212 ], [ -93.299975431015483, 44.940612802346998 ], [ -93.299972840566298, 44.940577963522443 ], [ -93.29998233888, 44.940559016082673 ], [ -93.299987735649196, 44.940547403132626 ], [ -93.300073436343141, 44.940473599724136 ] ] ] } }
]
}
