{
"type": "FeatureCollection",
"name": "ered_wethrin",
"crs": { "type": "name", "properties": { "name": "urn:ogc:def:crs:OGC:1.3:CRS84" } },
"features": [
{ "type": "Feature", "properties": { "id": 1 }, "geometry": { "type": "MultiPolygon", "coordinates": [ [ [ [ -93.297688496124593, 44.943913685078911 ], [ -93.297660864666597, 44.943886793499225 ], [ -93.297640141073103, 44.943845233760399 ], [ -93.2975572466991, 44.943767003582174 ], [ -93.297460536596091, 44.943720554363416 ], [ -93.297398365815624, 44.943698552088783 ], [ -93.297439813002597, 44.943610542905894 ], [ -93.297381096154368, 44.94350786535535 ], [ -93.297377642222102, 44.943434524135384 ], [ -93.297446720867114, 44.943363627533692 ], [ -93.297519253444349, 44.943275617837365 ], [ -93.297477806257362, 44.9431436030399 ], [ -93.297400092781729, 44.943072706078951 ], [ -93.297351737730239, 44.943037257565635 ], [ -93.297256754593377, 44.942999364303056 ], [ -93.297203218643503, 44.942917465875908 ], [ -93.297218761338613, 44.942872238336214 ], [ -93.297255027627244, 44.942855125203806 ], [ -93.297299928746483, 44.942825788393506 ], [ -93.297384550086591, 44.942783005518287 ], [ -93.297470898392845, 44.942724331808989 ], [ -93.297482987155718, 44.942705996262525 ], [ -93.297537386588687, 44.942677881746597 ], [ -93.297735124209993, 44.942665658039736 ], [ -93.297904366890222, 44.942654656701315 ], [ -93.297943223628039, 44.942610040140593 ], [ -93.29796481070457, 44.942570313036789 ], [ -93.298153913495256, 44.94249208112123 ], [ -93.298195360682271, 44.942471300750768 ], [ -93.298317975277143, 44.942459076999896 ], [ -93.298466494363893, 44.942428517611368 ], [ -93.298488944923477, 44.942345395992255 ], [ -93.298587381992618, 44.942270830908015 ], [ -93.298690999960087, 44.942242716178974 ], [ -93.298754897706729, 44.942212156675275 ], [ -93.298867150504819, 44.942198710488498 ], [ -93.298910324657967, 44.942181597155304 ], [ -93.298944863980466, 44.94214003618206 ], [ -93.298867150504819, 44.942111921388964 ], [ -93.298962133641709, 44.942063026063842 ], [ -93.299165915644451, 44.942027576927103 ], [ -93.299237584738634, 44.942006796388469 ], [ -93.299350701019804, 44.942003129233825 ], [ -93.299518216733887, 44.941979292722856 ], [ -93.29975481109301, 44.941967068867235 ], [ -93.299998313316621, 44.941959734552611 ], [ -93.300241815540204, 44.941940176375716 ], [ -93.3003799728302, 44.941920618192164 ], [ -93.300485317763815, 44.941926730125239 ], [ -93.300538853713704, 44.941881501805057 ], [ -93.300618294155441, 44.941861943601509 ], [ -93.300818622225904, 44.941821604785659 ], [ -93.301005134567419, 44.941824049563181 ], [ -93.300944690753042, 44.941881501805057 ], [ -93.301055216585027, 44.941899837614841 ], [ -93.301245182858779, 44.941883946580042 ], [ -93.301364343521385, 44.941881501805057 ], [ -93.301564671591848, 44.941864388377326 ], [ -93.301801265950957, 44.941864388377326 ], [ -93.301872071562073, 44.941850942109092 ], [ -93.30187034459594, 44.941863165989432 ], [ -93.301695921017341, 44.941953622623053 ], [ -93.301633750236832, 44.941912061484771 ], [ -93.301540494066117, 44.941923062965486 ], [ -93.301379886216509, 44.941941398761976 ], [ -93.301290083977989, 44.941936509216816 ], [ -93.301196827807274, 44.941943843534411 ], [ -93.301112206467153, 44.94193895398945 ], [ -93.301025858160898, 44.941943843534411 ], [ -93.300925694125652, 44.941951177851053 ], [ -93.300858342446773, 44.941963401710055 ], [ -93.300799625598557, 44.941978070337413 ], [ -93.300702915495521, 44.941974403180922 ], [ -93.30062520201993, 44.941975625566435 ], [ -93.300575120002321, 44.941967068867243 ], [ -93.300522015793987, 44.941999054617263 ], [ -93.300407892115913, 44.941983469206271 ], [ -93.300256782579993, 44.941993553884451 ], [ -93.300166548599961, 44.942013112043171 ], [ -93.300007667716457, 44.942054673108309 ], [ -93.299904049748989, 44.942046116420876 ], [ -93.299804749196781, 44.942049783572791 ], [ -93.299699404263208, 44.942063840986279 ], [ -93.299560383490146, 44.942087677462141 ], [ -93.299423953166297, 44.942110291545468 ], [ -93.299315154300416, 44.9421329056199 ], [ -93.299288386325486, 44.942152463731134 ], [ -93.299328970029435, 44.942173244217031 ], [ -93.299381642496229, 44.942217249927026 ], [ -93.299400639123618, 44.942246587048288 ], [ -93.299325516097156, 44.942277757723204 ], [ -93.299174406561249, 44.942319929785853 ], [ -93.299151092518557, 44.942337654266716 ], [ -93.299034522305135, 44.942337654266716 ], [ -93.298966307143203, 44.942379215096906 ], [ -93.298800518395197, 44.942405496194588 ], [ -93.298835921200777, 44.942428721340669 ], [ -93.298751299860655, 44.942454391228033 ], [ -93.298663224588282, 44.942488617726688 ], [ -93.298555289205481, 44.942522844204916 ], [ -93.298459442585539, 44.942545458116847 ], [ -93.298438718992045, 44.942565627274021 ], [ -93.298424039780002, 44.942611466241232 ], [ -93.298385614783683, 44.942667084138996 ], [ -93.298328624901572, 44.942684197327459 ], [ -93.298288041197623, 44.942708950323194 ], [ -93.298240549629227, 44.942744399039228 ], [ -93.298228892607881, 44.942748982923327 ], [ -93.298213781654297, 44.942748066146528 ], [ -93.298183114340645, 44.942737773569824 ], [ -93.298175788399533, 44.942733703308249 ], [ -93.298137795144797, 44.942754483583762 ], [ -93.298104119305364, 44.942787181943217 ], [ -93.298079078296539, 44.942821408243461 ], [ -93.297929695726722, 44.942822019427204 ], [ -93.297896883370356, 44.942818963508408 ], [ -93.297843347420496, 44.942807962199367 ], [ -93.297793265402845, 44.942798794440236 ], [ -93.297769951360181, 44.942785348390856 ], [ -93.297738002486867, 44.942809795751032 ], [ -93.297674968223319, 44.942841577303703 ], [ -93.297591210366249, 44.942864191090074 ], [ -93.297577394637244, 44.942880081853552 ], [ -93.29757221373886, 44.942905140356253 ], [ -93.297591210366249, 44.942936921856131 ], [ -93.29761884182426, 44.942971148067102 ], [ -93.297649927214493, 44.943029821524149 ], [ -93.29763956541774, 44.943063436498548 ], [ -93.297779449673854, 44.943089717283016 ], [ -93.297767360910981, 44.943127610485966 ], [ -93.297772541809366, 44.943150224159673 ], [ -93.297839893488202, 44.943185061423343 ], [ -93.297843347420482, 44.94323334461351 ], [ -93.297820033377803, 44.943297518410986 ], [ -93.297722459791771, 44.943384916895987 ], [ -93.297813988996381, 44.943405696935784 ], [ -93.297820896860884, 44.943453979940379 ], [ -93.297762180012597, 44.943518764667552 ], [ -93.297743183385208, 44.943566436401234 ], [ -93.297770814843219, 44.943584771672882 ], [ -93.297849391801918, 44.943595772833056 ], [ -93.297895156404223, 44.94363427687707 ], [ -93.297966825498392, 44.943663613274232 ], [ -93.298049719872409, 44.943701506098364 ], [ -93.298177515365623, 44.94375284472342 ], [ -93.298202556374449, 44.943812739727974 ], [ -93.298294085579073, 44.943884858119908 ], [ -93.298401157478807, 44.943895248050268 ], [ -93.298402884444926, 44.943904415634321 ], [ -93.298333805799928, 44.943931307205744 ], [ -93.297808808097983, 44.943932529549599 ], [ -93.297688496124593, 44.943913685078911 ] ] ] ] } }
]
}
