{
"type": "FeatureCollection",
"name": "ered_luin",
"crs": { "type": "name", "properties": { "name": "urn:ogc:def:crs:OGC:1.3:CRS84" } },
"features": [
{ "type": "Feature", "properties": { "id": 1 }, "geometry": { "type": "MultiPolygon", "coordinates": [ [ [ [ -93.290511389781841, 44.943346964525183 ], [ -93.290493896565025, 44.94334572634547 ], [ -93.290481068206077, 44.943336646360137 ], [ -93.290463574989374, 44.943317660931619 ], [ -93.290472904704956, 44.943273086422579 ], [ -93.290491564136147, 44.943237591881378 ], [ -93.290471738490496, 44.943190540944087 ], [ -93.290482234420523, 44.943159173631138 ], [ -93.290461242560468, 44.943122028106806 ], [ -93.290483400634983, 44.943038656953547 ], [ -93.290476403348293, 44.942965191183504 ], [ -93.290516054639554, 44.942892550779113 ], [ -93.290549874858584, 44.942837244955065 ], [ -93.290658332802337, 44.942785240922632 ], [ -93.290671161161242, 44.942691963730596 ], [ -93.290672327375731, 44.942648214198925 ], [ -93.290718975953695, 44.942548333067734 ], [ -93.290773788032794, 44.942480644929617 ], [ -93.290821602825162, 44.942383239907905 ], [ -93.290695651664691, 44.942336188270424 ], [ -93.290610518009927, 44.942237957534545 ], [ -93.290596523436548, 44.94213394833691 ], [ -93.290624512583321, 44.942059655937506 ], [ -93.290657166587891, 44.941985363441972 ], [ -93.290577864005357, 44.941933358637897 ], [ -93.290649003086727, 44.941877226415556 ], [ -93.290565618753632, 44.941859891453454 ], [ -93.29052246881902, 44.941837603637346 ], [ -93.290516054639568, 44.941804584634596 ], [ -93.290547542429692, 44.941740197524631 ], [ -93.290526550569595, 44.941687367021494 ], [ -93.290500893851728, 44.941596564480641 ], [ -93.290624512583321, 44.941563545339271 ], [ -93.290643172014512, 44.941454582038027 ], [ -93.290573199147602, 44.941401751272075 ], [ -93.290647836872324, 44.94134479304806 ], [ -93.290595357222116, 44.941263895763221 ], [ -93.290636174727851, 44.94118423659075 ], [ -93.29071722663204, 44.941165663192677 ], [ -93.290715477310385, 44.941114895873952 ], [ -93.290706147594776, 44.941060413823429 ], [ -93.290631509870039, 44.941005931721222 ], [ -93.290589526149901, 44.940962593648429 ], [ -93.29061751529666, 44.940934939813467 ], [ -93.290591858578793, 44.940901920291587 ], [ -93.290562120110337, 44.940895729129132 ], [ -93.290516637746805, 44.940888299733302 ], [ -93.290490981028952, 44.940855280184593 ], [ -93.290444332450988, 44.94077273122975 ], [ -93.290525967462429, 44.940706691980424 ], [ -93.290623929476126, 44.940642303639194 ], [ -93.290696234771957, 44.940553150432137 ], [ -93.290679907769672, 44.940500318836705 ], [ -93.290672910482996, 44.940396306491124 ], [ -93.290693902343079, 44.940346776736519 ], [ -93.290735886063231, 44.940244415108268 ], [ -93.290665913196307, 44.940150308289041 ], [ -93.29064083958562, 44.94011357356775 ], [ -93.2906355916206, 44.940035563800755 ], [ -93.290702065844215, 44.940005845766422 ], [ -93.290611101117193, 44.939948060655581 ], [ -93.290655417266279, 44.939853953350614 ], [ -93.290697400986446, 44.939811027160275 ], [ -93.290634425406154, 44.939721872662425 ], [ -93.290440833807651, 44.939594744713069 ], [ -93.290454828381044, 44.939551818328958 ], [ -93.29040817980308, 44.939477522588277 ], [ -93.290368528511806, 44.939442851209726 ], [ -93.290293890787069, 44.939335534905346 ], [ -93.290272898927, 44.938803903485578 ], [ -93.290317215076072, 44.938800601411693 ], [ -93.290387187942997, 44.938831971105984 ], [ -93.290429171663149, 44.938846830428865 ], [ -93.290473487812221, 44.938876549063117 ], [ -93.290475820241113, 44.938909569749775 ], [ -93.290475820241113, 44.93897065797006 ], [ -93.290499144530074, 44.939046605396548 ], [ -93.290515471532359, 44.939092834215664 ], [ -93.290657749695143, 44.93910769347103 ], [ -93.290660082124049, 44.939190244819791 ], [ -93.290699733415295, 44.939243077620716 ], [ -93.290676409126306, 44.939327279796693 ], [ -93.290776703568937, 44.939343790012799 ], [ -93.290697400986403, 44.939409830829732 ], [ -93.290837346720281, 44.939505589879388 ], [ -93.290895657442704, 44.939540261220053 ], [ -93.29084900886474, 44.939565026450573 ], [ -93.290830349433577, 44.939607952824815 ], [ -93.29089099258492, 44.939636020052163 ], [ -93.290935308733978, 44.939715268620041 ], [ -93.291014611316513, 44.939769751947004 ], [ -93.291014611316513, 44.939814329176059 ], [ -93.291093913899019, 44.939882020457716 ], [ -93.291056595036679, 44.939954664671191 ], [ -93.29112190304582, 44.939981080726035 ], [ -93.291168551623784, 44.940038865803622 ], [ -93.291156889479268, 44.940124717811528 ], [ -93.291177881339365, 44.940144529795113 ], [ -93.291168551623784, 44.940172596760178 ], [ -93.291198873199463, 44.940213871683852 ], [ -93.291152224621499, 44.940248542596812 ], [ -93.291154557050362, 44.940291468460039 ], [ -93.291173216481553, 44.940359159179174 ], [ -93.291196540770557, 44.940416943876244 ], [ -93.291107908472441, 44.940459869613591 ], [ -93.291051930178867, 44.940550673952181 ], [ -93.291014611316513, 44.940615062396162 ], [ -93.290930643876166, 44.940682752733778 ], [ -93.290872333153743, 44.940783462600585 ], [ -93.290800027857898, 44.940846199805364 ], [ -93.290860671009256, 44.940867662517583 ], [ -93.290984289740848, 44.940857756651411 ], [ -93.290991287027509, 44.940867662517583 ], [ -93.290914316873909, 44.940890776198678 ], [ -93.290879330440433, 44.940932050606087 ], [ -93.290974960025238, 44.940932050606087 ], [ -93.291049597749961, 44.940925446702892 ], [ -93.291177881339365, 44.940933701581748 ], [ -93.291320159502121, 44.940963419135855 ], [ -93.291378470224572, 44.940989834726587 ], [ -93.291441445804807, 44.941012948358491 ], [ -93.291436780946995, 44.941029458089879 ], [ -93.291336486504406, 44.941050920733588 ], [ -93.291236192061803, 44.941088893083567 ], [ -93.291154557050362, 44.941118610557332 ], [ -93.291119570616885, 44.941169790614978 ], [ -93.291089249041235, 44.941235829331646 ], [ -93.291098578756831, 44.941285358319291 ], [ -93.291093913899019, 44.941351396903023 ], [ -93.291142894905889, 44.941395972904083 ], [ -93.291098578756831, 44.941455407518362 ], [ -93.29111257333021, 44.941498332479284 ], [ -93.291075254467856, 44.94156767273298 ], [ -93.291091581470113, 44.941597389958943 ], [ -93.291155140157656, 44.941646918634682 ], [ -93.29105717814393, 44.941767025495892 ], [ -93.291006447815406, 44.9418054101099 ], [ -93.291055428822261, 44.941868558935177 ], [ -93.291062426108951, 44.941934184111354 ], [ -93.291067674073958, 44.942023335173943 ], [ -93.291151641514304, 44.942088960173209 ], [ -93.291092164577393, 44.942164490739898 ], [ -93.291071172717309, 44.942195445861465 ], [ -93.291235608954622, 44.94226107066401 ], [ -93.291387799940182, 44.942274690896646 ], [ -93.291382551975161, 44.942331648198106 ], [ -93.291289837926485, 44.94239851104512 ], [ -93.291298584534857, 44.942415845844607 ], [ -93.291447276877079, 44.942409654845399 ], [ -93.291550486855826, 44.942370032434617 ], [ -93.291718421736476, 44.94226107066401 ], [ -93.291811135785167, 44.942254879648111 ], [ -93.291821631715194, 44.94233288639969 ], [ -93.291798890533443, 44.942372508836094 ], [ -93.291716672414779, 44.942423275042778 ], [ -93.291616961079427, 44.942467850211628 ], [ -93.291597718540999, 44.942490137783082 ], [ -93.291734165631524, 44.942471564807477 ], [ -93.29173241630987, 44.942486423188441 ], [ -93.291660694121248, 44.942512425345875 ], [ -93.291606465149371, 44.942547094870797 ], [ -93.291539990925799, 44.942518616334006 ], [ -93.29148226331057, 44.942579287982348 ], [ -93.291531244317426, 44.942574335197136 ], [ -93.291620459722765, 44.942568144215002 ], [ -93.291665942086254, 44.942565667821974 ], [ -93.291728917666504, 44.942558238642221 ], [ -93.291800639855126, 44.942548333067734 ], [ -93.291849620861967, 44.942550809461522 ], [ -93.291879359330423, 44.942560715035583 ], [ -93.292017555742618, 44.942564429625421 ], [ -93.292110269791294, 44.942555762248766 ], [ -93.292250215525172, 44.942550809461522 ], [ -93.292255463490193, 44.942563191428832 ], [ -93.292117267077998, 44.942591669943518 ], [ -93.291949332197348, 44.942627577615809 ], [ -93.291804138498478, 44.942662247071212 ], [ -93.291678187337993, 44.9426696762375 ], [ -93.291527745674074, 44.942672152626052 ], [ -93.291401794513604, 44.942701869280306 ], [ -93.291249603528001, 44.942708060248002 ], [ -93.291120153724165, 44.94275263519576 ], [ -93.291116655080828, 44.942791019150789 ], [ -93.291083417969034, 44.942875216123575 ], [ -93.291006447815406, 44.94294455471433 ], [ -93.290897989871652, 44.943051038815646 ], [ -93.29088224597659, 44.943109233531736 ], [ -93.290836763613086, 44.943159999086959 ], [ -93.290712561774271, 44.943259053699592 ], [ -93.290616349082214, 44.943311057302829 ], [ -93.290511389781841, 44.943346964525183 ] ] ] ] } }
]
}
