{
"type": "FeatureCollection",
"name": "forest_of_brethil",
"crs": { "type": "name", "properties": { "name": "urn:ogc:def:crs:OGC:1.3:CRS84" } },
"features": [
{ "type": "Feature", "properties": { "id": 1 }, "geometry": { "type": "MultiPolygon", "coordinates": [ [ [ [ -93.297043833825853, 44.941944119846895 ], [ -93.297030263000224, 44.941936541004672 ], [ -93.297020302761226, 44.941916448255398 ], [ -93.296986935960632, 44.941836077187972 ], [ -93.296911238144304, 44.941775093802974 ], [ -93.296814499323091, 44.941674982209683 ], [ -93.296743532620269, 44.941570816616554 ], [ -93.296734568405199, 44.941536975977101 ], [ -93.296673354436464, 44.94140977964517 ], [ -93.296679994595792, 44.941313897512643 ], [ -93.296848654642687, 44.941313897512643 ], [ -93.296897791821692, 44.941362778619826 ], [ -93.296900447885434, 44.941400379443181 ], [ -93.296994738147873, 44.941408839625041 ], [ -93.29709699660151, 44.94142011986559 ], [ -93.297268312712134, 44.941440800300832 ], [ -93.297454237173284, 44.94144644041824 ], [ -93.297559151690635, 44.941491561337564 ], [ -93.297690751348242, 44.941625807613129 ], [ -93.297723620136907, 44.941677626004001 ], [ -93.297729596280277, 44.941712524077616 ], [ -93.297714655921808, 44.941767514938469 ], [ -93.297699715563326, 44.941816160656074 ], [ -93.29766535273879, 44.94185634621779 ], [ -93.297654894487877, 44.941890186669006 ], [ -93.297677305025587, 44.941908164400601 ], [ -93.297684775204829, 44.941935659743905 ], [ -93.29765638852372, 44.942007570579541 ], [ -93.297625013770897, 44.942047756007277 ], [ -93.297616049555813, 44.942097458997438 ], [ -93.297402402429498, 44.942126011759534 ], [ -93.297362063461549, 44.942121781721603 ], [ -93.29729034974082, 44.942116494173746 ], [ -93.297206683733307, 44.942123896740611 ], [ -93.297149910371076, 44.942087941406903 ], [ -93.297100607188085, 44.942055158583024 ], [ -93.297060268220179, 44.941996995462297 ], [ -93.297043833825853, 44.941944119846895 ] ] ] ] } }
]
}
