{
"type": "FeatureCollection",
"name": "forest_of_neldoreth",
"crs": { "type": "name", "properties": { "name": "urn:ogc:def:crs:OGC:1.3:CRS84" } },
"features": [
{ "type": "Feature", "properties": { "id": 1 }, "geometry": { "type": "MultiPolygon", "coordinates": [ [ [ [ -93.296454229178693, 44.942051809798841 ], [ -93.296294865354824, 44.942059329875235 ], [ -93.29600535440818, 44.94203676964311 ], [ -93.295909736113899, 44.942021729483429 ], [ -93.295758340481242, 44.942025489523715 ], [ -93.29544758102476, 44.942014209402117 ], [ -93.295399771877598, 44.941912688207942 ], [ -93.295418364323709, 44.941895767991475 ], [ -93.295436956769819, 44.941831847128654 ], [ -93.295426332514921, 44.941790486532447 ], [ -93.29545289315223, 44.941666404565012 ], [ -93.295482109853239, 44.941619403749733 ], [ -93.295657410059476, 44.941583683104398 ], [ -93.29570256314291, 44.941596843344747 ], [ -93.295763652608713, 44.941596843344747 ], [ -93.295899111858972, 44.941585563138915 ], [ -93.296015978663135, 44.941578043000469 ], [ -93.296066443874011, 44.941555482579233 ], [ -93.296201903124256, 44.94152916207657 ], [ -93.296347986629456, 44.941510361710137 ], [ -93.296568439919113, 44.941474640996958 ], [ -93.296645465767298, 44.941517881857443 ], [ -93.296658746085939, 44.941589323207779 ], [ -93.296626873321159, 44.941675804723452 ], [ -93.29660562481132, 44.941687084911528 ], [ -93.296544535345532, 44.941822446995772 ], [ -93.296504694389583, 44.941927728396202 ], [ -93.296454229178693, 44.942051809798841 ] ] ] ] } }
]
}
