{
"type": "FeatureCollection",
"name": "nan_tathren",
"crs": { "type": "name", "properties": { "name": "urn:ogc:def:crs:OGC:1.3:CRS84" } },
"features": [
{ "type": "Feature", "properties": { "id": 1 }, "geometry": { "type": "MultiPolygon", "coordinates": [ [ [ [ -93.297217183485145, 44.939873531207503 ], [ -93.297025946896525, 44.939914423162399 ], [ -93.296982121844962, 44.939897502357013 ], [ -93.296946264984598, 44.939834049292386 ], [ -93.296938296793428, 44.939798797559526 ], [ -93.296956225223596, 44.939786106930384 ], [ -93.296972161605964, 44.939722653742663 ], [ -93.296942280889013, 44.939677531433162 ], [ -93.296954233175796, 44.939629588940463 ], [ -93.296896463789651, 44.939621128496434 ], [ -93.296872559216069, 44.93954780459584 ], [ -93.296816781877737, 44.939489991454359 ], [ -93.29683471030792, 44.939453329432041 ], [ -93.296932320650015, 44.939446279040453 ], [ -93.297117581095208, 44.939508322456746 ], [ -93.297221167580716, 44.939530883682409 ], [ -93.297308817683813, 44.939544984443955 ], [ -93.297332722257394, 44.93955767512638 ], [ -93.297414396217135, 44.939580236332652 ], [ -93.297531927037213, 44.939608437828035 ], [ -93.297545871371796, 44.939656380338384 ], [ -93.297529934989427, 44.939693042231056 ], [ -93.297440292838488, 44.939709963096696 ], [ -93.297508022463632, 44.939755085380703 ], [ -93.297549855467409, 44.939797387489747 ], [ -93.297545871371796, 44.939838279498872 ], [ -93.297561807754192, 44.939874941275392 ], [ -93.297535911132798, 44.939903142626029 ], [ -93.297480133794465, 44.939884811749685 ], [ -93.297434316695103, 44.939894682222281 ], [ -93.297402443930338, 44.939866480867501 ], [ -93.29735264273539, 44.939852380184917 ], [ -93.297278936966862, 44.939863660731277 ], [ -93.297217183485145, 44.939873531207503 ] ] ] ] } }
]
}
