{
"type": "FeatureCollection",
"name": "river_malduin",
"crs": { "type": "name", "properties": { "name": "urn:ogc:def:crs:OGC:1.3:CRS84" } },
"features": [
{ "type": "Feature", "properties": { "id": 1 }, "geometry": { "type": "MultiLineString", "coordinates": [ [ [ -93.297947441450489, 44.942551396569236 ], [ -93.29790575350772, 44.942522652314992 ], [ -93.297888862703331, 44.942513240476401 ], [ -93.297884190778703, 44.942496451787534 ], [ -93.297838909047798, 44.942469233751197 ], [ -93.297831002713835, 44.942460076278124 ], [ -93.297831002713835, 44.94243336697334 ], [ -93.297835315259618, 44.942409964524636 ], [ -93.29783819029015, 44.942393684554688 ], [ -93.297848252897012, 44.942384527069585 ], [ -93.297862628049714, 44.942374352084386 ], [ -93.297871253141309, 44.942365194596185 ], [ -93.297885628293983, 44.942347897114487 ], [ -93.297887065809263, 44.942337722122822 ], [ -93.297892815870341, 44.942319407133262 ], [ -93.297884190778703, 44.942306179637164 ], [ -93.297874128171856, 44.942287864637549 ], [ -93.297874128171856, 44.942268532131621 ], [ -93.297881315748171, 44.942253269622334 ], [ -93.297875565687093, 44.942233937104739 ], [ -93.297850409169939, 44.942202012998969 ], [ -93.297846096624141, 44.942188785475828 ], [ -93.29785256544281, 44.942154953527783 ], [ -93.297857596746269, 44.942141980369485 ], [ -93.297888503324529, 44.942116797171479 ], [ -93.297895690900873, 44.94211018340048 ], [ -93.297900722204318, 44.942091359586527 ], [ -93.297913659841711, 44.942082710805082 ], [ -93.297930910024917, 44.94207100951045 ], [ -93.297943128904663, 44.942061343221773 ], [ -93.297949597723402, 44.942052185683643 ], [ -93.297954629026805, 44.942039975630529 ], [ -93.29796972293714, 44.942029291831936 ], [ -93.297984816847432, 44.942020643041133 ], [ -93.297994879454308, 44.942018099278883 ], [ -93.298011410879866, 44.942006397971085 ], [ -93.298021563331474, 44.941998130741304 ] ] ] } }
]
}
