{
"type": "FeatureCollection",
"name": "river_legolin",
"crs": { "type": "name", "properties": { "name": "urn:ogc:def:crs:OGC:1.3:CRS84" } },
"features": [
{ "type": "Feature", "properties": { "id": 1 }, "geometry": { "type": "MultiLineString", "coordinates": [ [ [ -93.291077240848253, 44.939956076578753 ], [ -93.291124040354021, 44.939925961198874 ], [ -93.291153821857677, 44.939912911196018 ], [ -93.291182185194501, 44.939893838109583 ], [ -93.291209130364464, 44.939872757322476 ], [ -93.291228984700211, 44.939853684222712 ], [ -93.291242457285207, 44.939849166908679 ], [ -93.291265147954661, 44.939843645746599 ], [ -93.291281456873349, 44.939830595725034 ], [ -93.291310529293582, 44.939807507218077 ], [ -93.291336765380123, 44.939793955264022 ], [ -93.291350237965105, 44.939793453339746 ], [ -93.291374346801391, 44.9398049975972 ], [ -93.291418309973437, 44.939790441793932 ], [ -93.291458727728426, 44.939787932172308 ], [ -93.291485672898418, 44.939791445642548 ], [ -93.291512618068381, 44.93979646488539 ], [ -93.291540272321782, 44.939794959112589 ], [ -93.291572890159117, 44.939787430247968 ], [ -93.291597708078825, 44.939782912928727 ], [ -93.291625362332198, 44.939783916777472 ], [ -93.291680670839014, 44.93978642639928 ], [ -93.291715415926589, 44.939781407155557 ], [ -93.291774269850492, 44.939767353270824 ], [ -93.29184163277543, 44.939767855195342 ], [ -93.291867159778548, 44.939771368666811 ], [ -93.291966431457425, 44.939799476430885 ], [ -93.292013940046587, 44.939800480279345 ], [ -93.292096902806747, 44.939786928323628 ], [ -93.292163556648262, 44.939783414853103 ], [ -93.292203265319813, 44.939777391760288 ], [ -93.292340827503381, 44.939776889835855 ], [ -93.292379827091494, 44.939769862893357 ], [ -93.292411026761997, 44.939760326327175 ], [ -93.292435135598268, 44.939760828251757 ], [ -93.292487607771406, 44.939776889835855 ], [ -93.292524480109265, 44.939777893684713 ], [ -93.292567025114479, 44.939769862893357 ], [ -93.292608329223711, 44.939768984525486 ], [ -93.292633147143434, 44.939765722016141 ] ] ] } }
]
}
