{
"type": "FeatureCollection",
"name": "river_brilthor",
"crs": { "type": "name", "properties": { "name": "urn:ogc:def:crs:OGC:1.3:CRS84" } },
"features": [
{ "type": "Feature", "properties": { "id": 1 }, "geometry": { "type": "MultiLineString", "coordinates": [ [ [ -93.290834557047489, 44.939594565496144 ], [ -93.290870720301939, 44.939581766381039 ], [ -93.290912201682019, 44.939577249045605 ], [ -93.290930283309251, 44.93957235526517 ], [ -93.290949428561603, 44.939562191258283 ], [ -93.290965382938552, 44.939543369018594 ], [ -93.290978678252685, 44.939514382757395 ], [ -93.290982932753224, 44.939491796050199 ], [ -93.290999418942747, 44.939463939099106 ], [ -93.291023882320729, 44.939440975926537 ], [ -93.291069086388802, 44.939407472264854 ], [ -93.291109504143776, 44.939383379732028 ], [ -93.29115736727465, 44.939368698339862 ], [ -93.29120257134268, 44.939360792973304 ], [ -93.291233416471485, 44.93935740495872 ], [ -93.291371687738476, 44.939356652066586 ], [ -93.291424868995009, 44.939350628928985 ], [ -93.291470073063053, 44.939336323974672 ], [ -93.291499854566723, 44.939322771909396 ], [ -93.291523786132174, 44.939311102072836 ], [ -93.291545058634753, 44.939305455376882 ], [ -93.29155356763583, 44.93930583182329 ], [ -93.291579626451522, 44.939296420662203 ], [ -93.291656739273506, 44.93926329336287 ], [ -93.291697157028494, 44.939257646662206 ], [ -93.291733852095504, 44.939251623514224 ], [ -93.291819473918508, 44.939250870620675 ], [ -93.291963595123718, 44.9392907739648 ], [ -93.291995503877615, 44.939294538429799 ], [ -93.292026349006434, 44.939304326037622 ], [ -93.292050812384417, 44.939306961162529 ], [ -93.292122607080756, 44.939307337608923 ], [ -93.292207165278626, 44.939305455376882 ], [ -93.292294382539353, 44.93932239546308 ], [ -93.292332673044058, 44.93932766571109 ], [ -93.292378408924662, 44.93932766571109 ], [ -93.292428399305805, 44.93931900744623 ], [ -93.292486898687997, 44.93931900744623 ], [ -93.292518807441894, 44.939325783479731 ], [ -93.292565606947647, 44.939326159926004 ], [ -93.292597515701601, 44.939318630999914 ], [ -93.292659205959168, 44.939317878107246 ], [ -93.292694305588455, 44.939310725626449 ], [ -93.292750145907831, 44.939295667769237 ], [ -93.292798009038719, 44.939289644625255 ], [ -93.292852253920358, 44.939284750820299 ], [ -93.292896394363311, 44.939280609908074 ], [ -93.292920857741322, 44.939273080976015 ], [ -93.292997970563263, 44.939242777014471 ] ] ] } }
]
}
