{
"type": "FeatureCollection",
"name": "river_mindeb",
"crs": { "type": "name", "properties": { "name": "urn:ogc:def:crs:OGC:1.3:CRS84" } },
"features": [
{ "type": "Feature", "properties": { "id": 1 }, "geometry": { "type": "MultiLineString", "coordinates": [ [ [ -93.296829280848044, 44.942328592892679 ], [ -93.296793502690306, 44.942302665494225 ], [ -93.296788391524899, 44.942282767715376 ], [ -93.29676113197614, 44.94227010548888 ], [ -93.296741539175471, 44.942256237332856 ], [ -93.296730464983796, 44.942219456554987 ], [ -93.296716835209409, 44.942188102430649 ], [ -93.296699797991437, 44.942166998683483 ], [ -93.296678501468946, 44.942148909751147 ], [ -93.296670834720871, 44.942128408954311 ], [ -93.296658908668292, 44.942112731869415 ], [ -93.296629093536822, 44.942086804373474 ], [ -93.296619723066925, 44.942067509485192 ], [ -93.296597574683574, 44.942019875201957 ], [ -93.296595019100891, 44.941965608248829 ], [ -93.296607797014374, 44.94193184211877 ], [ -93.296630797258643, 44.941901693771584 ], [ -93.296641871450305, 44.941880589919123 ], [ -93.296647834476602, 44.941854059350767 ], [ -93.296664871694574, 44.941825719866451 ], [ -93.296671686581789, 44.941804615986072 ], [ -93.296675945886264, 44.941791350685868 ], [ -93.296687020077968, 44.941776276477363 ], [ -93.296705761017719, 44.941750348829494 ], [ -93.29672705754021, 44.941725627107814 ], [ -93.296738131731914, 44.941702111313901 ], [ -93.296744094758182, 44.94166291830264 ], [ -93.296747502201811, 44.941628549024593 ] ], [ [ -93.296563074317206, 44.942418584992971 ], [ -93.296568185482599, 44.942410445009799 ], [ -93.29656946327394, 44.942393712818543 ], [ -93.296581602291752, 44.942379241730293 ], [ -93.296603963640351, 44.94236793619006 ], [ -93.296628241675961, 44.942354369538833 ], [ -93.296644852963496, 44.942333115112142 ], [ -93.296660825355318, 44.942320452896752 ], [ -93.29667488106017, 44.942308242900701 ], [ -93.296678075538523, 44.942296485124253 ], [ -93.296692770139046, 44.942285179567726 ], [ -93.296703631365517, 44.942275230676138 ], [ -93.296710659217922, 44.942264377337878 ], [ -93.296714492591931, 44.942251715107346 ], [ -93.296724076027061, 44.942239957319337 ], [ -93.296733020566521, 44.942230262795199 ] ] ] } }
]
}
