{
"type": "FeatureCollection",
"name": "taur_en_faroth",
"crs": { "type": "name", "properties": { "name": "urn:ogc:def:crs:OGC:1.3:CRS84" } },
"features": [
{ "type": "Feature", "properties": { "id": 1 }, "geometry": { "type": "MultiPolygon", "coordinates": [ [ [ [ -93.298813748173345, 44.940807848792581 ], [ -93.298787747960418, 44.940798987649821 ], [ -93.298759821805845, 44.940813301802834 ], [ -93.29871745108855, 44.940816028307765 ], [ -93.29867508037124, 44.940796261144079 ], [ -93.298656783925139, 44.940809893671485 ], [ -93.298614413207829, 44.94081943643873 ], [ -93.298568190607128, 44.940803077408184 ], [ -93.298521005035582, 44.940809893671485 ], [ -93.298467078668125, 44.940788081626096 ], [ -93.298415078242314, 44.940774449093517 ], [ -93.298390041000303, 44.940758771677039 ], [ -93.298374633466736, 44.940726053576711 ], [ -93.29833996651621, 44.940682429413911 ], [ -93.29832841086602, 44.940651074526436 ], [ -93.298332262749426, 44.940639486846308 ], [ -93.298509449385435, 44.940605405420584 ], [ -93.298313966303326, 44.940583593297504 ], [ -93.298292780944664, 44.940573368861955 ], [ -93.298445893309477, 44.940546103691588 ], [ -93.298444930338633, 44.940533834360707 ], [ -93.298627894799708, 44.940524973175641 ], [ -93.298728043767866, 44.940522246656897 ], [ -93.298805081435688, 44.940516793619011 ], [ -93.298909082287238, 44.940491573312016 ], [ -93.298937971412684, 44.940495663092285 ], [ -93.298925452791664, 44.940567915828915 ], [ -93.299054490885254, 44.940584274926472 ], [ -93.299058342768689, 44.940594499360088 ], [ -93.299015009080506, 44.940616993107604 ], [ -93.29899671263442, 44.940636078704642 ], [ -93.298982268071668, 44.940657209179697 ], [ -93.298954341917096, 44.940673568251803 ], [ -93.299066046535458, 44.940698106851237 ], [ -93.299046787118471, 44.9407403677479 ], [ -93.299010194226284, 44.940744457510441 ], [ -93.298978416188305, 44.940753318661606 ], [ -93.298940860325246, 44.940783991866645 ], [ -93.298911008228941, 44.940803077408184 ], [ -93.298875378307585, 44.94081125692405 ], [ -93.298813748173345, 44.940807848792581 ] ] ] ] } }
]
}
